{"type": "FeatureCollection", "features": [{"type": "Feature", "properties": {}, "geometry": {"type": "Polygon", "coordinates": [[[77.576863, 12.838468], [77.573138, 12.839131], [77.571074, 12.839234], [77.565681, 12.83968], [77.562199, 12.83902], [77.559982, 12.84032], [77.557279, 12.841534], [77.557293, 12.843132], [77.55718, 12.843933], [77.556465, 12.844978], [77.554952, 12.847673], [77.554482, 12.848012], [77.553246, 12.847769], [77.553262, 12.847543], [77.553034, 12.847136], [77.552023, 12.847488], [77.551369, 12.847961], [77.544865, 12.847691], [77.544873, 12.847597], [77.544683, 12.847616], [77.544651, 12.8474], [77.544358, 12.84699], [77.544495, 12.846729], [77.544576, 12.846312], [77.544389, 12.845279], [77.544314, 12.844369], [77.543724, 12.844055], [77.542775, 12.843371], [77.542253, 12.843287], [77.541677, 12.843325], [77.541486, 12.843533], [77.541272, 12.844287], [77.540492, 12.844962], [77.539045, 12.845319], [77.538334, 12.845304], [77.538346, 12.844891], [77.537931, 12.84341], [77.537877, 12.842468], [77.537575, 12.841737], [77.535108, 12.840954], [77.533914, 12.839924], [77.533612, 12.839909], [77.533434, 12.839702], [77.531281, 12.840051], [77.526057, 12.840642], [77.523518, 12.839945], [77.522705, 12.843765], [77.522288, 12.845292], [77.521641, 12.84836], [77.5216, 12.84893], [77.521032, 12.850146], [77.519148, 12.855], [77.518409, 12.861166], [77.518909, 12.861654], [77.519551, 12.862118], [77.519754, 12.863965], [77.52022, 12.866343], [77.522919, 12.870559], [77.522982, 12.870566], [77.520267, 12.872178], [77.519437, 12.87179], [77.51729, 12.869598], [77.516368, 12.868804], [77.516351, 12.868515], [77.516717, 12.868486], [77.516794, 12.866637], [77.515571, 12.862606], [77.516098, 12.862399], [77.515925, 12.861679], [77.515475, 12.860985], [77.515843, 12.860597], [77.515827, 12.859326], [77.516535, 12.858489], [77.516545, 12.857849], [77.503842, 12.857865], [77.504294, 12.860014], [77.505069, 12.860153], [77.506029, 12.861271], [77.506899, 12.863467], [77.506783, 12.864301], [77.50877, 12.865158], [77.49912, 12.871792], [77.497995, 12.872785], [77.497578, 12.872149], [77.497022, 12.870629], [77.496612, 12.868753], [77.495319, 12.868516], [77.491878, 12.868434], [77.490963, 12.868864], [77.489864, 12.86851], [77.490107, 12.865362], [77.487775, 12.864789], [77.487061, 12.864758], [77.486763, 12.864252], [77.485565, 12.862777], [77.485356, 12.862354], [77.485318, 12.861309], [77.485392, 12.860736], [77.48557, 12.86019], [77.48301, 12.860803], [77.482988, 12.860728], [77.482907, 12.860749], [77.482926, 12.860824], [77.482847, 12.860843], [77.482904, 12.861077], [77.480969, 12.861543], [77.480568, 12.861517], [77.480226, 12.860986], [77.478365, 12.862106], [77.478235, 12.86189], [77.477753, 12.862141], [77.478307, 12.862887], [77.479211, 12.863799], [77.48101, 12.862777], [77.482247, 12.864475], [77.476716, 12.865229], [77.477087, 12.866088], [77.477635, 12.866656], [77.47746, 12.866636], [77.477241, 12.866755], [77.476925, 12.866288], [77.476559, 12.866731], [77.476016, 12.866759], [77.475984, 12.867252], [77.476393, 12.867345], [77.47647, 12.867748], [77.476426, 12.868418], [77.478171, 12.868471], [77.478033, 12.868639], [77.477717, 12.869776], [77.477495, 12.871444], [77.47749, 12.872032], [77.477638, 12.872031], [77.477748, 12.877933], [77.475706, 12.878171], [77.475594, 12.87826], [77.475708, 12.878442], [77.475827, 12.87843], [77.47565, 12.878826], [77.474824, 12.880048], [77.474865, 12.880417], [77.474943, 12.880677], [77.475158, 12.88095], [77.476183, 12.881682], [77.477355, 12.882748], [77.478507, 12.884107], [77.478902, 12.88445], [77.479018, 12.884683], [77.478885, 12.88524], [77.4789, 12.885562], [77.478752, 12.885823], [77.478767, 12.88612], [77.478945, 12.886205], [77.479336, 12.886227], [77.480141, 12.885947], [77.481126, 12.88595], [77.482078, 12.885756], [77.482633, 12.885763], [77.48285, 12.885946], [77.482968, 12.886402], [77.482509, 12.887552], [77.482243, 12.888778], [77.481842, 12.889556], [77.481342, 12.890031], [77.481128, 12.890132], [77.480699, 12.890124], [77.479989, 12.889759], [77.479685, 12.889699], [77.47942, 12.889714], [77.479307, 12.88979], [77.479205, 12.891858], [77.47907, 12.892172], [77.477832, 12.893024], [77.477295, 12.8937], [77.476994, 12.894209], [77.476737, 12.894471], [77.476422, 12.894442], [77.476146, 12.894266], [77.475862, 12.894197], [77.475522, 12.894344], [77.475466, 12.894689], [77.475668, 12.895264], [77.475867, 12.895593], [77.477333, 12.896505], [77.47669, 12.896999], [77.474693, 12.898134], [77.474111, 12.898314], [77.473359, 12.898403], [77.472395, 12.896825], [77.470221, 12.894095], [77.469381, 12.891925], [77.468368, 12.888477], [77.467795, 12.889323], [77.465796, 12.891899], [77.462173, 12.897285], [77.462246, 12.89735], [77.461543, 12.89872], [77.460677, 12.898499], [77.460713, 12.90003], [77.460282, 12.900209], [77.4602, 12.900387], [77.460131, 12.904765], [77.460051, 12.905067], [77.460317, 12.906611], [77.462226, 12.906442], [77.463718, 12.906483], [77.465081, 12.906587], [77.466672, 12.906878], [77.466499, 12.910147], [77.467214, 12.911258], [77.468189, 12.912292], [77.468968, 12.913414], [77.469439, 12.914359], [77.470027, 12.915129], [77.470902, 12.918572], [77.472434, 12.923483], [77.473192, 12.926664], [77.475887, 12.926696], [77.477397, 12.92647], [77.479595, 12.925917], [77.479623, 12.926218], [77.479733, 12.926399], [77.479475, 12.926564], [77.479259, 12.926904], [77.479109, 12.927015], [77.479119, 12.927227], [77.479523, 12.927488], [77.480263, 12.927641], [77.480987, 12.927406], [77.481244, 12.928003], [77.481461, 12.928129], [77.481645, 12.928378], [77.481917, 12.928913], [77.482316, 12.928955], [77.48252, 12.929271], [77.482872, 12.93014], [77.483201, 12.930603], [77.483204, 12.930876], [77.482895, 12.931261], [77.483031, 12.931343], [77.483319, 12.931344], [77.48347, 12.93156], [77.483472, 12.931842], [77.483071, 12.932497], [77.483073, 12.932685], [77.48321, 12.932828], [77.483313, 12.932792], [77.483529, 12.932923], [77.483573, 12.933255], [77.48352, 12.933422], [77.483634, 12.933639], [77.483621, 12.933936], [77.483805, 12.934238], [77.484124, 12.935805], [77.484127, 12.93616], [77.484044, 12.936235], [77.48416, 12.936478], [77.484181, 12.936894], [77.482102, 12.9372], [77.478357, 12.937562], [77.476273, 12.938309], [77.476398, 12.938617], [77.474736, 12.939915], [77.473875, 12.940215], [77.473252, 12.940333], [77.474232, 12.942115], [77.474745, 12.943422], [77.47507, 12.945468], [77.475536, 12.946993], [77.476279, 12.948823], [77.475524, 12.949117], [77.473703, 12.949212], [77.473058, 12.949328], [77.472731, 12.949266], [77.472433, 12.94955], [77.471059, 12.949586], [77.471122, 12.950725], [77.472142, 12.950869], [77.472512, 12.951601], [77.472513, 12.951806], [77.471477, 12.952268], [77.471637, 12.953767], [77.471891, 12.954346], [77.471995, 12.955043], [77.4721, 12.955055], [77.472474, 12.955949], [77.472858, 12.956066], [77.473505, 12.957108], [77.474712, 12.959467], [77.475284, 12.960389], [77.472913, 12.96359], [77.472284, 12.963671], [77.473176, 12.966403], [77.473485, 12.966986], [77.473272, 12.967102], [77.475017, 12.970042], [77.475085, 12.97294], [77.474865, 12.97435], [77.474837, 12.975671], [77.474303, 12.979588], [77.474044, 12.980625], [77.473793, 12.982224], [77.473454, 12.983319], [77.473278, 12.98366], [77.473063, 12.984002], [77.472259, 12.984847], [77.471686, 12.985123], [77.470857, 12.985723], [77.469803, 12.9863], [77.468405, 12.986709], [77.470087, 12.989917], [77.470363, 12.990654], [77.471096, 12.993303], [77.47133, 12.993857], [77.47123, 12.994236], [77.471253, 12.994604], [77.471657, 12.99541], [77.471807, 12.995489], [77.47245, 12.996806], [77.472882, 12.996726], [77.473567, 12.998871], [77.474202, 12.999219], [77.474535, 13.000597], [77.474781, 13.000746], [77.475266, 13.002557], [77.47542, 13.003393], [77.475194, 13.003426], [77.475171, 13.004374], [77.474999, 13.004865], [77.475398, 13.006447], [77.474219, 13.006879], [77.472839, 13.007268], [77.473121, 13.008829], [77.473443, 13.008762], [77.473989, 13.009652], [77.474904, 13.011609], [77.475261, 13.013114], [77.476952, 13.014872], [77.477471, 13.017303], [77.478372, 13.019068], [77.478963, 13.022023], [77.478436, 13.022158], [77.478439, 13.024363], [77.478683, 13.026253], [77.479607, 13.029274], [77.477652, 13.030935], [77.477285, 13.031173], [77.476939, 13.031537], [77.478841, 13.035067], [77.479898, 13.035721], [77.480047, 13.037906], [77.480748, 13.038496], [77.481343, 13.039557], [77.482175, 13.039883], [77.48257, 13.04058], [77.48192, 13.041095], [77.481665, 13.041177], [77.481507, 13.04168], [77.481458, 13.042725], [77.481346, 13.042913], [77.480795, 13.043224], [77.480027, 13.043347], [77.479745, 13.044163], [77.479572, 13.044354], [77.479541, 13.044905], [77.4796, 13.045242], [77.479779, 13.045145], [77.479821, 13.045794], [77.47953, 13.046389], [77.480005, 13.047942], [77.480075, 13.048509], [77.482539, 13.048021], [77.484119, 13.047452], [77.486244, 13.046574], [77.489118, 13.045812], [77.490992, 13.045072], [77.492026, 13.048093], [77.492205, 13.050676], [77.492465, 13.051571], [77.49248, 13.052448], [77.492343, 13.054619], [77.490999, 13.056969], [77.491423, 13.058463], [77.49272, 13.062134], [77.493062, 13.062121], [77.492762, 13.063784], [77.492732, 13.066623], [77.493106, 13.072092], [77.496051, 13.071946], [77.499238, 13.071963], [77.499446, 13.071892], [77.500255, 13.07244], [77.501004, 13.072636], [77.501433, 13.072845], [77.502143, 13.073869], [77.502471, 13.074165], [77.502707, 13.074655], [77.504108, 13.075394], [77.504796, 13.076477], [77.505457, 13.076932], [77.505722, 13.07702], [77.50601, 13.077422], [77.506332, 13.077613], [77.506899, 13.077892], [77.507369, 13.077949], [77.507708, 13.077823], [77.50861, 13.077724], [77.508782, 13.077771], [77.508963, 13.077976], [77.50914, 13.077583], [77.509353, 13.077409], [77.509358, 13.077225], [77.509479, 13.077123], [77.509565, 13.076854], [77.509941, 13.076744], [77.510432, 13.076155], [77.51081, 13.07598], [77.511307, 13.07558], [77.511462, 13.075821], [77.512541, 13.07559], [77.513077, 13.07555], [77.514288, 13.075158], [77.514442, 13.075356], [77.517971, 13.074254], [77.518262, 13.075504], [77.518212, 13.076702], [77.518845, 13.078667], [77.51898, 13.079665], [77.519143, 13.07962], [77.519419, 13.079358], [77.519629, 13.079437], [77.520883, 13.079151], [77.521281, 13.080405], [77.522067, 13.080352], [77.522243, 13.080547], [77.522716, 13.080782], [77.522849, 13.08096], [77.523222, 13.080925], [77.523299, 13.081508], [77.523414, 13.08158], [77.523586, 13.082875], [77.523436, 13.086038], [77.523448, 13.088114], [77.523779, 13.093068], [77.52642, 13.092875], [77.530043, 13.092415], [77.534394, 13.092137], [77.535452, 13.090174], [77.540723, 13.089969], [77.540781, 13.090074], [77.540775, 13.091883], [77.541633, 13.093187], [77.542205, 13.094295], [77.542457, 13.09558], [77.542395, 13.095658], [77.543344, 13.097979], [77.544081, 13.100103], [77.544429, 13.100788], [77.544245, 13.100803], [77.544229, 13.101319], [77.544901, 13.101381], [77.545174, 13.101274], [77.54715, 13.101177], [77.548072, 13.101031], [77.549662, 13.101032], [77.55079, 13.10095], [77.551047, 13.100839], [77.551927, 13.100822], [77.552457, 13.10068], [77.555076, 13.100343], [77.555215, 13.10046], [77.555551, 13.100315], [77.555612, 13.100408], [77.55616, 13.100225], [77.556552, 13.10071], [77.55733, 13.100416], [77.557462, 13.100734], [77.557129, 13.100872], [77.557295, 13.101165], [77.55785, 13.101682], [77.558388, 13.102394], [77.558913, 13.102903], [77.558985, 13.103082], [77.559357, 13.103386], [77.558923, 13.103344], [77.559027, 13.104338], [77.559716, 13.105603], [77.559958, 13.105845], [77.560951, 13.107932], [77.561095, 13.10837], [77.56096, 13.108917], [77.560535, 13.109035], [77.560047, 13.10931], [77.560284, 13.11056], [77.560313, 13.111151], [77.56013, 13.111744], [77.559812, 13.111794], [77.55971, 13.1119], [77.559675, 13.112111], [77.559814, 13.112403], [77.560089, 13.112359], [77.560403, 13.112959], [77.561062, 13.113775], [77.561608, 13.113767], [77.561683, 13.113937], [77.562354, 13.115564], [77.562574, 13.1164], [77.562687, 13.116345], [77.562568, 13.116447], [77.563119, 13.119385], [77.563264, 13.120516], [77.56339, 13.120939], [77.563868, 13.121875], [77.56551, 13.125955], [77.569573, 13.125005], [77.569939, 13.127443], [77.570718, 13.130818], [77.570868, 13.131039], [77.571317, 13.133296], [77.571334, 13.133936], [77.571766, 13.135267], [77.571911, 13.135973], [77.572227, 13.135897], [77.572384, 13.136252], [77.572653, 13.136249], [77.572789, 13.136324], [77.573426, 13.136089], [77.573519, 13.136387], [77.573966, 13.138679], [77.573934, 13.139728], [77.574027, 13.141203], [77.5744, 13.141336], [77.57425, 13.141561], [77.575142, 13.141638], [77.57727, 13.142102], [77.578241, 13.142454], [77.579999, 13.14266], [77.581214, 13.141335], [77.582384, 13.1402], [77.582864, 13.138281], [77.58361, 13.136462], [77.583826, 13.1353], [77.584033, 13.135192], [77.584086, 13.134522], [77.584783, 13.133258], [77.585194, 13.13282], [77.585601, 13.132693], [77.585895, 13.132768], [77.585748, 13.133305], [77.586792, 13.13336], [77.591173, 13.13323], [77.596535, 13.132776], [77.599663, 13.131774], [77.601034, 13.133355], [77.60182, 13.134146], [77.604517, 13.134163], [77.604498, 13.133863], [77.607608, 13.133817], [77.607573, 13.133397], [77.61201, 13.13324], [77.613863, 13.131643], [77.614926, 13.131121], [77.615207, 13.131015], [77.61571, 13.130981], [77.61954, 13.130958], [77.625029, 13.128157], [77.625981, 13.127532], [77.62618, 13.127522], [77.630485, 13.126039], [77.638714, 13.113271], [77.63807, 13.110872], [77.636991, 13.106251], [77.638545, 13.106155], [77.639924, 13.105829], [77.640901, 13.105746], [77.641923, 13.105485], [77.642928, 13.105488], [77.643804, 13.105752], [77.650443, 13.104806], [77.649545, 13.102749], [77.64956, 13.102472], [77.64912, 13.10163], [77.64907, 13.101073], [77.648154, 13.098679], [77.647706, 13.098078], [77.647533, 13.097632], [77.646734, 13.095087], [77.646119, 13.09393], [77.644489, 13.090354], [77.643351, 13.088221], [77.64283, 13.087071], [77.642752, 13.086759], [77.644992, 13.086411], [77.646131, 13.086338], [77.646524, 13.086147], [77.646603, 13.085152], [77.649672, 13.081236], [77.652609, 13.081622], [77.653535, 13.081812], [77.654763, 13.08197], [77.654857, 13.081913], [77.655812, 13.077181], [77.656275, 13.075876], [77.656431, 13.074863], [77.656532, 13.07485], [77.6578, 13.073042], [77.659142, 13.069738], [77.659727, 13.068044], [77.660155, 13.067725], [77.660731, 13.06768], [77.662624, 13.067065], [77.663595, 13.066977], [77.665795, 13.066205], [77.667022, 13.065903], [77.667146, 13.063946], [77.670052, 13.065955], [77.67241, 13.065613], [77.673447, 13.065352], [77.673434, 13.06526], [77.674085, 13.065193], [77.675093, 13.064838], [77.675905, 13.064926], [77.67633, 13.065059], [77.676926, 13.065061], [77.677174, 13.064957], [77.676668, 13.063585], [77.676856, 13.063532], [77.676837, 13.062913], [77.678236, 13.062742], [77.678804, 13.062736], [77.678968, 13.062786], [77.67899, 13.062858], [77.679179, 13.062574], [77.679505, 13.061947], [77.679485, 13.061257], [77.67933, 13.060979], [77.679295, 13.060522], [77.679444, 13.058583], [77.679111, 13.058005], [77.679002, 13.058024], [77.678958, 13.057822], [77.67907, 13.057525], [77.679172, 13.057541], [77.679213, 13.057372], [77.679426, 13.055768], [77.679308, 13.055532], [77.678899, 13.055219], [77.678375, 13.052347], [77.679939, 13.052412], [77.681063, 13.051734], [77.683338, 13.04995], [77.684945, 13.04527], [77.684856, 13.044018], [77.684876, 13.042907], [77.684601, 13.041399], [77.684643, 13.040924], [77.684474, 13.040525], [77.684494, 13.040161], [77.684293, 13.039399], [77.684029, 13.037619], [77.683913, 13.03733], [77.683996, 13.036675], [77.683884, 13.036275], [77.683738, 13.034969], [77.683619, 13.03476], [77.683654, 13.034177], [77.683539, 13.03312], [77.683691, 13.033206], [77.685106, 13.03338], [77.686321, 13.033501], [77.686881, 13.033476], [77.688208, 13.033176], [77.688856, 13.032944], [77.690855, 13.032558], [77.691485, 13.031444], [77.693846, 13.027748], [77.694404, 13.026725], [77.696999, 13.026971], [77.700492, 13.027429], [77.701698, 13.027438], [77.701269, 13.024966], [77.703275, 13.025752], [77.705963, 13.026287], [77.708021, 13.025872], [77.709244, 13.025269], [77.710709, 13.026144], [77.712067, 13.028381], [77.715083, 13.031992], [77.716083, 13.031819], [77.716091, 13.031646], [77.717392, 13.031557], [77.717341, 13.031704], [77.717371, 13.032917], [77.719583, 13.033371], [77.720722, 13.033771], [77.721179, 13.033846], [77.72152, 13.034115], [77.721511, 13.033807], [77.721625, 13.033715], [77.723427, 13.033267], [77.723958, 13.033367], [77.724066, 13.033318], [77.724229, 13.032303], [77.724724, 13.032249], [77.724723, 13.032166], [77.724845, 13.032157], [77.724875, 13.032029], [77.7249, 13.031487], [77.72483, 13.031052], [77.724919, 13.03044], [77.724752, 13.029957], [77.724637, 13.029221], [77.725003, 13.028343], [77.72525, 13.027019], [77.725168, 13.025785], [77.725677, 13.025755], [77.725609, 13.025717], [77.727355, 13.023309], [77.729438, 13.020197], [77.729898, 13.019686], [77.730056, 13.018734], [77.729377, 13.016299], [77.72866, 13.014449], [77.728415, 13.01326], [77.72828, 13.011799], [77.728011, 13.01048], [77.730482, 13.010783], [77.732441, 13.010801], [77.732842, 13.010771], [77.733065, 13.010667], [77.733894, 13.010123], [77.735671, 13.010933], [77.736232, 13.010762], [77.736245, 13.009118], [77.736101, 13.007486], [77.736523, 13.007829], [77.738143, 13.007577], [77.740774, 13.008133], [77.74099, 13.007147], [77.743366, 13.007071], [77.744252, 13.007181], [77.745154, 13.007171], [77.746188, 13.007005], [77.747168, 13.006714], [77.747198, 13.007007], [77.746971, 13.007097], [77.74706, 13.009652], [77.74705, 13.010123], [77.746925, 13.010438], [77.747364, 13.011629], [77.747826, 13.011567], [77.747968, 13.012619], [77.749324, 13.012005], [77.749745, 13.011648], [77.749721, 13.01151], [77.750334, 13.011284], [77.750688, 13.011364], [77.7517, 13.0109], [77.752169, 13.010852], [77.752686, 13.010658], [77.753022, 13.010283], [77.754116, 13.009445], [77.754432, 13.008921], [77.754842, 13.008848], [77.755069, 13.009345], [77.755076, 13.009654], [77.755302, 13.010335], [77.756014, 13.010072], [77.75671, 13.009563], [77.757354, 13.008872], [77.758111, 13.008575], [77.758597, 13.008211], [77.758892, 13.007877], [77.759294, 13.007841], [77.759439, 13.007751], [77.759614, 13.007466], [77.759636, 13.006985], [77.759377, 13.006224], [77.759409, 13.005897], [77.760764, 13.004907], [77.761633, 13.005182], [77.761992, 13.005119], [77.762404, 13.004676], [77.762827, 13.003698], [77.763472, 13.002851], [77.763675, 13.002882], [77.763833, 13.003111], [77.764124, 13.004082], [77.766189, 13.003481], [77.767417, 13.003246], [77.768699, 13.00269], [77.769261, 13.003978], [77.769397, 13.004579], [77.769287, 13.004699], [77.76966, 13.005906], [77.769759, 13.006584], [77.769701, 13.008864], [77.769869, 13.008853], [77.769928, 13.009136], [77.769893, 13.009328], [77.769782, 13.009365], [77.770106, 13.010142], [77.770375, 13.011595], [77.770511, 13.011755], [77.770541, 13.01197], [77.771048, 13.013193], [77.77128, 13.014473], [77.771505, 13.015099], [77.773114, 13.014642], [77.77316, 13.014459], [77.773097, 13.013862], [77.773175, 13.013675], [77.773428, 13.013485], [77.773642, 13.01342], [77.774374, 13.013491], [77.774443, 13.013302], [77.774345, 13.013015], [77.773855, 13.012479], [77.773911, 13.011753], [77.773741, 13.011498], [77.773714, 13.011249], [77.773775, 13.010999], [77.773948, 13.010834], [77.774002, 13.010646], [77.773401, 13.010352], [77.77328, 13.010183], [77.773277, 13.009925], [77.773425, 13.009658], [77.773224, 13.009431], [77.773164, 13.009104], [77.773252, 13.008441], [77.773453, 13.007909], [77.773481, 13.007559], [77.773365, 13.006378], [77.773482, 13.00619], [77.773776, 13.006155], [77.773968, 13.006215], [77.774225, 13.006432], [77.774415, 13.006436], [77.775016, 13.006104], [77.77568, 13.006015], [77.775854, 13.005881], [77.775889, 13.005491], [77.775734, 13.005127], [77.775674, 13.004707], [77.775696, 13.00397], [77.775619, 13.003511], [77.775498, 13.003325], [77.775241, 13.003102], [77.774769, 13.002881], [77.774022, 13.002975], [77.773499, 13.00316], [77.772769, 13.002969], [77.772505, 13.002801], [77.77247, 13.002521], [77.772862, 13.001944], [77.773661, 13.001877], [77.773822, 13.001249], [77.774765, 13.001146], [77.774991, 13.000859], [77.775001, 13.000649], [77.774846, 13.000231], [77.774832, 12.999714], [77.774985, 12.998829], [77.77508, 12.997555], [77.774959, 12.997527], [77.77511, 12.997049], [77.774848, 12.996005], [77.7748, 12.995308], [77.774183, 12.992003], [77.775209, 12.992105], [77.776028, 12.991712], [77.776114, 12.991533], [77.775997, 12.990659], [77.77615, 12.989904], [77.776347, 12.989446], [77.776496, 12.988315], [77.775942, 12.988294], [77.776148, 12.98792], [77.775904, 12.986392], [77.776068, 12.985872], [77.776662, 12.985352], [77.776941, 12.985377], [77.777147, 12.985165], [77.776576, 12.984865], [77.776613, 12.984589], [77.776542, 12.984197], [77.776095, 12.982498], [77.77565, 12.982142], [77.775421, 12.981489], [77.775028, 12.98109], [77.774759, 12.980702], [77.77472, 12.980522], [77.775911, 12.979932], [77.776529, 12.97932], [77.776622, 12.979103], [77.77716, 12.978503], [77.777413, 12.978369], [77.777793, 12.978592], [77.778425, 12.978562], [77.778827, 12.977163], [77.778625, 12.976797], [77.778244, 12.976224], [77.777669, 12.976177], [77.777259, 12.976536], [77.776976, 12.976408], [77.776678, 12.976018], [77.776675, 12.975717], [77.776484, 12.975352], [77.77616, 12.97497], [77.776874, 12.974002], [77.777684, 12.973706], [77.778149, 12.973398], [77.779243, 12.972236], [77.778628, 12.971084], [77.778673, 12.97048], [77.779211, 12.970244], [77.780217, 12.970164], [77.780835, 12.970319], [77.781149, 12.970771], [77.781974, 12.970962], [77.782861, 12.970993], [77.783262, 12.970891], [77.783647, 12.970616], [77.783912, 12.969357], [77.784361, 12.968558], [77.78418, 12.966789], [77.784078, 12.966563], [77.781848, 12.966135], [77.781584, 12.966381], [77.781397, 12.966816], [77.781224, 12.966957], [77.780535, 12.967124], [77.779883, 12.967147], [77.778596, 12.966765], [77.778474, 12.966994], [77.778656, 12.967718], [77.777451, 12.968224], [77.777221, 12.968133], [77.777177, 12.967898], [77.776479, 12.967758], [77.776089, 12.967424], [77.775097, 12.966881], [77.77459, 12.96651], [77.774031, 12.966379], [77.7735, 12.966093], [77.772106, 12.965867], [77.771984, 12.965923], [77.771234, 12.965045], [77.770689, 12.964233], [77.77047, 12.963395], [77.770517, 12.963333], [77.770476, 12.963038], [77.770204, 12.963056], [77.770157, 12.962648], [77.769812, 12.96177], [77.768821, 12.96153], [77.768229, 12.961128], [77.767962, 12.960342], [77.767299, 12.960066], [77.767097, 12.959467], [77.766947, 12.959461], [77.766993, 12.95936], [77.766603, 12.959216], [77.764881, 12.959895], [77.764793, 12.959461], [77.764567, 12.959491], [77.764423, 12.95877], [77.764331, 12.957583], [77.764377, 12.956119], [77.764579, 12.95563], [77.764573, 12.955088], [77.764469, 12.955028], [77.764543, 12.954883], [77.76456, 12.951914], [77.764644, 12.951372], [77.764924, 12.951078], [77.764919, 12.95048], [77.765286, 12.948762], [77.765524, 12.946593], [77.76551, 12.945403], [77.765253, 12.942657], [77.765519, 12.93805], [77.765512, 12.937016], [77.765632, 12.936895], [77.766345, 12.935018], [77.765688, 12.933378], [77.765593, 12.931803], [77.764651, 12.928775], [77.762288, 12.92838], [77.76133, 12.927926], [77.758404, 12.927013], [77.756652, 12.926337], [77.752216, 12.92526], [77.751379, 12.922083], [77.746099, 12.920136], [77.745685, 12.919902], [77.745464, 12.918807], [77.745185, 12.916156], [77.744734, 12.913721], [77.743183, 12.913836], [77.742358, 12.914056], [77.742074, 12.914236], [77.740795, 12.914546], [77.738617, 12.914305], [77.737506, 12.914722], [77.73735, 12.914642], [77.737284, 12.913503], [77.734447, 12.913197], [77.734361, 12.913543], [77.734361, 12.914182], [77.734278, 12.914127], [77.732667, 12.914182], [77.73207, 12.913924], [77.730496, 12.914208], [77.729033, 12.914368], [77.727949, 12.91446], [77.727569, 12.914412], [77.727662, 12.913841], [77.727612, 12.910887], [77.727336, 12.909845], [77.726277, 12.90661], [77.724528, 12.906927], [77.723304, 12.907273], [77.722809, 12.907262], [77.721383, 12.907861], [77.720764, 12.908221], [77.720746, 12.908893], [77.720399, 12.908901], [77.719672, 12.908754], [77.719699, 12.908135], [77.719213, 12.908137], [77.717856, 12.908374], [77.717913, 12.908872], [77.71764, 12.908966], [77.717289, 12.908746], [77.716122, 12.907387], [77.715604, 12.907494], [77.714228, 12.908083], [77.713388, 12.907942], [77.7113, 12.907863], [77.709487, 12.907943], [77.708353, 12.908147], [77.707997, 12.906449], [77.707092, 12.903301], [77.706871, 12.902026], [77.702847, 12.904041], [77.702396, 12.903576], [77.700818, 12.904032], [77.697853, 12.904545], [77.697659, 12.90418], [77.696964, 12.904068], [77.69636, 12.904126], [77.696261, 12.903994], [77.695877, 12.904021], [77.69563, 12.904237], [77.695341, 12.90407], [77.693935, 12.904296], [77.693394, 12.904489], [77.693094, 12.904446], [77.69281, 12.90414], [77.691527, 12.903976], [77.691395, 12.904391], [77.6912, 12.904408], [77.691192, 12.904914], [77.691081, 12.904916], [77.690925, 12.905525], [77.689923, 12.905487], [77.689925, 12.905413], [77.688255, 12.905488], [77.688119, 12.906132], [77.687752, 12.906442], [77.687368, 12.90654], [77.686848, 12.906449], [77.687311, 12.904728], [77.68578, 12.904433], [77.686319, 12.90388], [77.687582, 12.903338], [77.687447, 12.90245], [77.687276, 12.902357], [77.68616, 12.902368], [77.685529, 12.902184], [77.685323, 12.901875], [77.684455, 12.90187], [77.68422, 12.901644], [77.683972, 12.901675], [77.683013, 12.901559], [77.682449, 12.901426], [77.682359, 12.901346], [77.682219, 12.900871], [77.682174, 12.900159], [77.682277, 12.899959], [77.679592, 12.897598], [77.678053, 12.895303], [77.677491, 12.894691], [77.677244, 12.894289], [77.675999, 12.893924], [77.674843, 12.893729], [77.674073, 12.8937], [77.673839, 12.893194], [77.673174, 12.889547], [77.672896, 12.888555], [77.672934, 12.888132], [77.672539, 12.88659], [77.672328, 12.88465], [77.673753, 12.88437], [77.674341, 12.883833], [77.674029, 12.879823], [77.671041, 12.880301], [77.672474, 12.878457], [77.673243, 12.878049], [77.673752, 12.877071], [77.67426, 12.875783], [77.674577, 12.875354], [77.675289, 12.872633], [77.672799, 12.86929], [77.672893, 12.868252], [77.672265, 12.868204], [77.671145, 12.867814], [77.669865, 12.867176], [77.667821, 12.866407], [77.667086, 12.866335], [77.667046, 12.866205], [77.666559, 12.866215], [77.665198, 12.864054], [77.664926, 12.863395], [77.664668, 12.863072], [77.664506, 12.862373], [77.664007, 12.862427], [77.663837, 12.861919], [77.663745, 12.861019], [77.66357, 12.86068], [77.662332, 12.859667], [77.661142, 12.858868], [77.661149, 12.858774], [77.660537, 12.858586], [77.659307, 12.858618], [77.65766, 12.858146], [77.657491, 12.858387], [77.657551, 12.857197], [77.656586, 12.856961], [77.656382, 12.856998], [77.656443, 12.856504], [77.655754, 12.856377], [77.655848, 12.855717], [77.655509, 12.855525], [77.655284, 12.856233], [77.654913, 12.856188], [77.654934, 12.856053], [77.654446, 12.855855], [77.653077, 12.855494], [77.653118, 12.855317], [77.652604, 12.854967], [77.651816, 12.854739], [77.651614, 12.854767], [77.651336, 12.854607], [77.650625, 12.854391], [77.650344, 12.854394], [77.650394, 12.853874], [77.649949, 12.853689], [77.64996, 12.853178], [77.650008, 12.852971], [77.65014, 12.852912], [77.650278, 12.852183], [77.650077, 12.852102], [77.649795, 12.852241], [77.649619, 12.852928], [77.649215, 12.852752], [77.649312, 12.852134], [77.648655, 12.852106], [77.647727, 12.851858], [77.647595, 12.852354], [77.646629, 12.852116], [77.64617, 12.852098], [77.646145, 12.851874], [77.645754, 12.851698], [77.645596, 12.851969], [77.644905, 12.851753], [77.64491, 12.852156], [77.64313, 12.851138], [77.64288, 12.851208], [77.643015, 12.853694], [77.642901, 12.855931], [77.642844, 12.859434], [77.642005, 12.862324], [77.641793, 12.863654], [77.641478, 12.863704], [77.641265, 12.864271], [77.641224, 12.864401], [77.641332, 12.865049], [77.640517, 12.865048], [77.638836, 12.864906], [77.638449, 12.86331], [77.637394, 12.862891], [77.636805, 12.863104], [77.636429, 12.863129], [77.635769, 12.86297], [77.635245, 12.862956], [77.634544, 12.862635], [77.634184, 12.862143], [77.634254, 12.861924], [77.632943, 12.861566], [77.632192, 12.861229], [77.631168, 12.860481], [77.630638, 12.85993], [77.630393, 12.858582], [77.629063, 12.856912], [77.627276, 12.857055], [77.626826, 12.857166], [77.626349, 12.85744], [77.625479, 12.857551], [77.621399, 12.857942], [77.61972, 12.857973], [77.619043, 12.858137], [77.618849, 12.857828], [77.618908, 12.857589], [77.618063, 12.85744], [77.616795, 12.857566], [77.616398, 12.855827], [77.615488, 12.855294], [77.614361, 12.854252], [77.613198, 12.85261], [77.612702, 12.851654], [77.612216, 12.851691], [77.611572, 12.851491], [77.609176, 12.85126], [77.609064, 12.849594], [77.609065, 12.847539], [77.609323, 12.846045], [77.607186, 12.847477], [77.604554, 12.848242], [77.603928, 12.848352], [77.602672, 12.848398], [77.60128, 12.848104], [77.600487, 12.848102], [77.600401, 12.847999], [77.600196, 12.847939], [77.599183, 12.84806], [77.598616, 12.84825], [77.597778, 12.848329], [77.595617, 12.849161], [77.59485, 12.84745], [77.594524, 12.846334], [77.594391, 12.845612], [77.594305, 12.843486], [77.594073, 12.841938], [77.594161, 12.841932], [77.593851, 12.840446], [77.592854, 12.837119], [77.591537, 12.834512], [77.590542, 12.834911], [77.590536, 12.835539], [77.589561, 12.835448], [77.587079, 12.833625], [77.584326, 12.835382], [77.582432, 12.836898], [77.580607, 12.837838], [77.578949, 12.838253], [77.576863, 12.838468]]]}}]}