{"type": "FeatureCollection", "features": [{"type": "Feature", "properties": {"Corporation": "North"}, "geometry": {"type": "Polygon", "coordinates": [[[77.55004, 13.026052], [77.548802, 13.029062], [77.547688, 13.031476], [77.544842, 13.036979], [77.544508, 13.037503], [77.542955, 13.03929], [77.541951, 13.038312], [77.540749, 13.032502], [77.538979, 13.033688], [77.535164, 13.036655], [77.532935, 13.038119], [77.531925, 13.038905], [77.531214, 13.039597], [77.522192, 13.045901], [77.519057, 13.041077], [77.518501, 13.040146], [77.518441, 13.03989], [77.517621, 13.040578], [77.51673, 13.041484], [77.51628, 13.041794], [77.511617, 13.043411], [77.508417, 13.045055], [77.507781, 13.04519], [77.504991, 13.046043], [77.496654, 13.048958], [77.496661, 13.049206], [77.497294, 13.050614], [77.493201, 13.05154], [77.492465, 13.051571], [77.49248, 13.052448], [77.492343, 13.054619], [77.490999, 13.056969], [77.491423, 13.058463], [77.49272, 13.062134], [77.493062, 13.062121], [77.492762, 13.063784], [77.492732, 13.066623], [77.493106, 13.072092], [77.496051, 13.071946], [77.499238, 13.071963], [77.499446, 13.071892], [77.500255, 13.07244], [77.501004, 13.072636], [77.501433, 13.072845], [77.502143, 13.073869], [77.502471, 13.074165], [77.502707, 13.074655], [77.504108, 13.075394], [77.504796, 13.076477], [77.505457, 13.076932], [77.505722, 13.07702], [77.50601, 13.077422], [77.506332, 13.077613], [77.506899, 13.077892], [77.507369, 13.077949], [77.507708, 13.077823], [77.50861, 13.077724], [77.508782, 13.077771], [77.508963, 13.077976], [77.50914, 13.077583], [77.509353, 13.077409], [77.509358, 13.077225], [77.509479, 13.077123], [77.509565, 13.076854], [77.509941, 13.076744], [77.510432, 13.076155], [77.51081, 13.07598], [77.511307, 13.07558], [77.511462, 13.075821], [77.512541, 13.07559], [77.513077, 13.07555], [77.514288, 13.075158], [77.514442, 13.075356], [77.517971, 13.074254], [77.518262, 13.075504], [77.518212, 13.076702], [77.518845, 13.078667], [77.51898, 13.079665], [77.519143, 13.07962], [77.519419, 13.079358], [77.519629, 13.079437], [77.520883, 13.079151], [77.521281, 13.080405], [77.522067, 13.080352], [77.522243, 13.080547], [77.522716, 13.080782], [77.522849, 13.08096], [77.523222, 13.080925], [77.523299, 13.081508], [77.523414, 13.08158], [77.523586, 13.082875], [77.523436, 13.086038], [77.523448, 13.088114], [77.523779, 13.093068], [77.52642, 13.092875], [77.530043, 13.092415], [77.534394, 13.092137], [77.535452, 13.090174], [77.540723, 13.089969], [77.540781, 13.090074], [77.540775, 13.091883], [77.541633, 13.093187], [77.542205, 13.094295], [77.542457, 13.09558], [77.542395, 13.095658], [77.543344, 13.097979], [77.544081, 13.100103], [77.544429, 13.100788], [77.544245, 13.100803], [77.544229, 13.101319], [77.544901, 13.101381], [77.545174, 13.101274], [77.54715, 13.101177], [77.548072, 13.101031], [77.549662, 13.101032], [77.55079, 13.10095], [77.551047, 13.100839], [77.551927, 13.100822], [77.552457, 13.10068], [77.555076, 13.100343], [77.555215, 13.10046], [77.555551, 13.100315], [77.555612, 13.100408], [77.55616, 13.100225], [77.556552, 13.10071], [77.55733, 13.100416], [77.557462, 13.100734], [77.557129, 13.100872], [77.557295, 13.101165], [77.55785, 13.101682], [77.558388, 13.102394], [77.558913, 13.102903], [77.558985, 13.103082], [77.559357, 13.103386], [77.558923, 13.103344], [77.559027, 13.104338], [77.559716, 13.105603], [77.559958, 13.105845], [77.560951, 13.107932], [77.561095, 13.10837], [77.56096, 13.108917], [77.560535, 13.109035], [77.560047, 13.10931], [77.560284, 13.11056], [77.560313, 13.111151], [77.56013, 13.111744], [77.559812, 13.111794], [77.55971, 13.1119], [77.559675, 13.112111], [77.559814, 13.112403], [77.560089, 13.112359], [77.560403, 13.112959], [77.561062, 13.113775], [77.561608, 13.113767], [77.561683, 13.113937], [77.562354, 13.115564], [77.562574, 13.1164], [77.562687, 13.116345], [77.562568, 13.116447], [77.563119, 13.119385], [77.563264, 13.120516], [77.56339, 13.120939], [77.563868, 13.121875], [77.56551, 13.125955], [77.569573, 13.125005], [77.569939, 13.127443], [77.570718, 13.130818], [77.570868, 13.131039], [77.571317, 13.133296], [77.571334, 13.133936], [77.571766, 13.135267], [77.571911, 13.135973], [77.572227, 13.135897], [77.572384, 13.136252], [77.572653, 13.136249], [77.572789, 13.136324], [77.573426, 13.136089], [77.573671, 13.136949], [77.573966, 13.138679], [77.573934, 13.139728], [77.574027, 13.141203], [77.5744, 13.141336], [77.57425, 13.141561], [77.575142, 13.141638], [77.57727, 13.142102], [77.578241, 13.142454], [77.579999, 13.14266], [77.581214, 13.141335], [77.582384, 13.1402], [77.582864, 13.138281], [77.58361, 13.136462], [77.583826, 13.1353], [77.584033, 13.135192], [77.584086, 13.134522], [77.5849, 13.133091], [77.585194, 13.13282], [77.585601, 13.132693], [77.585895, 13.132768], [77.585748, 13.133305], [77.586792, 13.13336], [77.591173, 13.13323], [77.596535, 13.132776], [77.599663, 13.131774], [77.601034, 13.133355], [77.60182, 13.134146], [77.604517, 13.134163], [77.604498, 13.133863], [77.607608, 13.133817], [77.607573, 13.133397], [77.61201, 13.13324], [77.613863, 13.131643], [77.614926, 13.131121], [77.615207, 13.131015], [77.61571, 13.130981], [77.61954, 13.130958], [77.625029, 13.128157], [77.625981, 13.127532], [77.62618, 13.127522], [77.630485, 13.126039], [77.638714, 13.113271], [77.63807, 13.110872], [77.636991, 13.106251], [77.638545, 13.106155], [77.639924, 13.105829], [77.640901, 13.105746], [77.641923, 13.105485], [77.642928, 13.105488], [77.643804, 13.105752], [77.650443, 13.104806], [77.649545, 13.102749], [77.64956, 13.102472], [77.64912, 13.10163], [77.64907, 13.101073], [77.648154, 13.098679], [77.647706, 13.098078], [77.647533, 13.097632], [77.646734, 13.095087], [77.646119, 13.09393], [77.644489, 13.090354], [77.643351, 13.088221], [77.64283, 13.087071], [77.642752, 13.086759], [77.644992, 13.086411], [77.646131, 13.086338], [77.646524, 13.086147], [77.646603, 13.085152], [77.64552, 13.083392], [77.644551, 13.082317], [77.642528, 13.078655], [77.642146, 13.077826], [77.64142, 13.077216], [77.640974, 13.07696], [77.640237, 13.076931], [77.639559, 13.076668], [77.638309, 13.07516], [77.639491, 13.074935], [77.63944, 13.073218], [77.639527, 13.06969], [77.639023, 13.06758], [77.638696, 13.066544], [77.638195, 13.061533], [77.638172, 13.058965], [77.638359, 13.057503], [77.638297, 13.05519], [77.638153, 13.054637], [77.638339, 13.054535], [77.63812, 13.053804], [77.63778, 13.051809], [77.637796, 13.051661], [77.638428, 13.051554], [77.638136, 13.050096], [77.638334, 13.050064], [77.63809, 13.049233], [77.637781, 13.047379], [77.637314, 13.046035], [77.637101, 13.044682], [77.637118, 13.0435], [77.63729, 13.04281], [77.638008, 13.043217], [77.639263, 13.043314], [77.640391, 13.042959], [77.640722, 13.04266], [77.641075, 13.042642], [77.641326, 13.042486], [77.641429, 13.042312], [77.641468, 13.041906], [77.64146, 13.041713], [77.6413, 13.041376], [77.641394, 13.041259], [77.641445, 13.040674], [77.641458, 13.039511], [77.641808, 13.039434], [77.642167, 13.039034], [77.642368, 13.038977], [77.643768, 13.038966], [77.643837, 13.038492], [77.644138, 13.037737], [77.644421, 13.036226], [77.644907, 13.036024], [77.64494, 13.035881], [77.643231, 13.035906], [77.643158, 13.035325], [77.643268, 13.034067], [77.642185, 13.033997], [77.641177, 13.034327], [77.641032, 13.034259], [77.640769, 13.033682], [77.639852, 13.032578], [77.6396, 13.031751], [77.639398, 13.031385], [77.638188, 13.030334], [77.637916, 13.030015], [77.637744, 13.029501], [77.637605, 13.027986], [77.636948, 13.027909], [77.63658, 13.027773], [77.636354, 13.0278], [77.633496, 13.028689], [77.632716, 13.027773], [77.633887, 13.027262], [77.635815, 13.026632], [77.63715, 13.02632], [77.63965, 13.025885], [77.640115, 13.025707], [77.652745, 13.020168], [77.655634, 13.019058], [77.661707, 13.016407], [77.661936, 13.016204], [77.662095, 13.015726], [77.662328, 13.012409], [77.661798, 13.01205], [77.659514, 13.011217], [77.658131, 13.01045], [77.656203, 13.009069], [77.654086, 13.006789], [77.652876, 13.005815], [77.651262, 13.006079], [77.651568, 13.00669], [77.650634, 13.006961], [77.649737, 13.00746], [77.648569, 13.007576], [77.647982, 13.007595], [77.647981, 13.007529], [77.646704, 13.007991], [77.645793, 13.006925], [77.645528, 13.00639], [77.644549, 13.006388], [77.641094, 13.006051], [77.640111, 13.005846], [77.63882, 13.005441], [77.638068, 13.005438], [77.637593, 13.005171], [77.636339, 13.003884], [77.638566, 13.002633], [77.638908, 13.001764], [77.639654, 13.000744], [77.64058, 12.998919], [77.642719, 12.995803], [77.641324, 12.995778], [77.641232, 12.995388], [77.640659, 12.995684], [77.640449, 12.994871], [77.637939, 12.995101], [77.637901, 12.994236], [77.638057, 12.994202], [77.637962, 12.993818], [77.63789, 12.993635], [77.637471, 12.993671], [77.63734, 12.992682], [77.631607, 12.993846], [77.629098, 12.994274], [77.628892, 12.994186], [77.629155, 12.994475], [77.627675, 12.994745], [77.626232, 12.995185], [77.625426, 12.995548], [77.624617, 12.99605], [77.620183, 12.999965], [77.619413, 12.99941], [77.618977, 12.99877], [77.617936, 12.998284], [77.617394, 12.99724], [77.61678, 12.995749], [77.617345, 12.995362], [77.617599, 12.99509], [77.618861, 12.992768], [77.619358, 12.991692], [77.619554, 12.989858], [77.619496, 12.988404], [77.619307, 12.987203], [77.619079, 12.987182], [77.61823, 12.987778], [77.617205, 12.988696], [77.613046, 12.991081], [77.612593, 12.991293], [77.611772, 12.991497], [77.611159, 12.991753], [77.610283, 12.992307], [77.608815, 12.993457], [77.607536, 12.993538], [77.607356, 12.993406], [77.607274, 12.993017], [77.607162, 12.99032], [77.606393, 12.990151], [77.605363, 12.99015], [77.605287, 12.990642], [77.604981, 12.99135], [77.60457, 12.991957], [77.604276, 12.992091], [77.603872, 12.992727], [77.603352, 12.992497], [77.602857, 12.992404], [77.602395, 12.992392], [77.601821, 12.992485], [77.601264, 12.992632], [77.596593, 12.994442], [77.596577, 12.994543], [77.600676, 12.9957], [77.603138, 12.995114], [77.605629, 12.994241], [77.608769, 12.998973], [77.607372, 12.999428], [77.606851, 12.999492], [77.606746, 12.999425], [77.606468, 12.997823], [77.606251, 12.997759], [77.605093, 12.997795], [77.6048, 12.99851], [77.604598, 12.998673], [77.603775, 12.999084], [77.602395, 12.999516], [77.601849, 12.999876], [77.601702, 13.000554], [77.60159, 13.000505], [77.601516, 13.001436], [77.602332, 13.001324], [77.602587, 13.001559], [77.60387, 13.003528], [77.603797, 13.004316], [77.604705, 13.006065], [77.60494, 13.005981], [77.605237, 13.006669], [77.596861, 13.01081], [77.595768, 13.011217], [77.594989, 13.009101], [77.594752, 13.009233], [77.594436, 13.008094], [77.593968, 13.00692], [77.593328, 13.005588], [77.592965, 13.00634], [77.591701, 13.008419], [77.589112, 13.012233], [77.58812, 13.0135], [77.587583, 13.013931], [77.586667, 13.014298], [77.585251, 13.014489], [77.583973, 13.014513], [77.583918, 13.01969], [77.583971, 13.020389], [77.584655, 13.022912], [77.583685, 13.023671], [77.582737, 13.024551], [77.582349, 13.02479], [77.581279, 13.025215], [77.581096, 13.025412], [77.581016, 13.025696], [77.580657, 13.025926], [77.580085, 13.026539], [77.577727, 13.026888], [77.577684, 13.027259], [77.574022, 13.027889], [77.571251, 13.028462], [77.57011, 13.031702], [77.569477, 13.032876], [77.56787, 13.034985], [77.56544, 13.037669], [77.562112, 13.041976], [77.561056, 13.040101], [77.560483, 13.039506], [77.560083, 13.039216], [77.558766, 13.038679], [77.557297, 13.038578], [77.557389, 13.038176], [77.557576, 13.03611], [77.557372, 13.035004], [77.557381, 13.034678], [77.559976, 13.030931], [77.557721, 13.025714], [77.556931, 13.023191], [77.556185, 13.021302], [77.555486, 13.019842], [77.554342, 13.019816], [77.553911, 13.019221], [77.553765, 13.019322], [77.55004, 13.026052]]]}}, {"type": "Feature", "properties": {"Corporation": "West"}, "geometry": {"type": "Polygon", "coordinates": [[[77.5122, 12.891892], [77.510634, 12.889681], [77.509898, 12.888861], [77.508772, 12.887909], [77.508135, 12.887469], [77.507591, 12.887144], [77.50341, 12.885154], [77.501067, 12.883827], [77.499101, 12.882496], [77.497641, 12.881353], [77.497346, 12.881284], [77.497046, 12.880866], [77.496417, 12.880562], [77.496485, 12.879884], [77.495724, 12.880034], [77.495575, 12.879544], [77.495034, 12.87914], [77.494241, 12.878172], [77.493939, 12.877655], [77.493254, 12.877233], [77.492833, 12.876533], [77.490151, 12.873003], [77.489018, 12.871777], [77.488883, 12.87182], [77.482247, 12.864475], [77.476716, 12.865229], [77.477087, 12.866088], [77.477635, 12.866656], [77.47746, 12.866636], [77.477241, 12.866755], [77.476925, 12.866288], [77.476559, 12.866731], [77.476016, 12.866759], [77.475984, 12.867252], [77.476393, 12.867345], [77.47647, 12.867748], [77.476426, 12.868418], [77.478171, 12.868471], [77.478033, 12.868639], [77.477717, 12.869776], [77.477495, 12.871444], [77.47749, 12.872032], [77.477638, 12.872031], [77.477748, 12.877933], [77.475706, 12.878171], [77.475594, 12.87826], [77.475708, 12.878442], [77.475827, 12.87843], [77.47565, 12.878826], [77.474824, 12.880048], [77.474865, 12.880417], [77.474943, 12.880677], [77.475158, 12.88095], [77.476183, 12.881682], [77.477355, 12.882748], [77.478507, 12.884107], [77.478902, 12.88445], [77.479018, 12.884683], [77.478885, 12.88524], [77.4789, 12.885562], [77.478752, 12.885823], [77.478767, 12.88612], [77.478945, 12.886205], [77.479336, 12.886227], [77.480141, 12.885947], [77.481126, 12.88595], [77.482078, 12.885756], [77.482633, 12.885763], [77.48285, 12.885946], [77.482968, 12.886402], [77.482509, 12.887552], [77.482243, 12.888778], [77.482009, 12.8893], [77.481842, 12.889556], [77.481342, 12.890031], [77.481128, 12.890132], [77.480699, 12.890124], [77.479989, 12.889759], [77.479685, 12.889699], [77.47942, 12.889714], [77.479307, 12.88979], [77.479205, 12.891858], [77.47907, 12.892172], [77.477832, 12.893024], [77.477295, 12.8937], [77.476994, 12.894209], [77.476737, 12.894471], [77.476422, 12.894442], [77.476146, 12.894266], [77.475862, 12.894197], [77.475585, 12.894276], [77.47549, 12.894424], [77.475489, 12.894773], [77.475867, 12.895593], [77.477333, 12.896505], [77.47669, 12.896999], [77.474693, 12.898134], [77.474111, 12.898314], [77.473359, 12.898403], [77.472395, 12.896825], [77.470221, 12.894095], [77.469381, 12.891925], [77.468368, 12.888477], [77.467795, 12.889323], [77.465796, 12.891899], [77.462173, 12.897285], [77.462246, 12.89735], [77.461543, 12.89872], [77.460677, 12.898499], [77.460713, 12.90003], [77.460282, 12.900209], [77.4602, 12.900387], [77.460131, 12.904765], [77.460051, 12.905067], [77.460317, 12.906611], [77.462226, 12.906442], [77.463718, 12.906483], [77.465081, 12.906587], [77.466672, 12.906878], [77.466499, 12.910147], [77.467214, 12.911258], [77.468189, 12.912292], [77.468968, 12.913414], [77.469439, 12.914359], [77.470027, 12.915129], [77.470902, 12.918572], [77.472434, 12.923483], [77.473192, 12.926664], [77.475887, 12.926696], [77.477397, 12.92647], [77.479595, 12.925917], [77.479623, 12.926218], [77.479733, 12.926399], [77.479475, 12.926564], [77.479259, 12.926904], [77.479109, 12.927015], [77.479119, 12.927227], [77.479523, 12.927488], [77.480263, 12.927641], [77.480987, 12.927406], [77.481244, 12.928003], [77.481461, 12.928129], [77.481645, 12.928378], [77.481917, 12.928913], [77.482316, 12.928955], [77.48252, 12.929271], [77.482872, 12.93014], [77.483229, 12.93069], [77.483204, 12.930876], [77.482895, 12.931261], [77.483031, 12.931343], [77.483319, 12.931344], [77.48347, 12.93156], [77.483472, 12.931842], [77.483071, 12.932497], [77.483073, 12.932685], [77.48321, 12.932828], [77.483313, 12.932792], [77.483529, 12.932923], [77.483573, 12.933255], [77.48352, 12.933422], [77.483634, 12.933639], [77.483621, 12.933936], [77.483805, 12.934238], [77.484042, 12.935272], [77.484127, 12.93616], [77.484044, 12.936235], [77.48416, 12.936478], [77.484181, 12.936894], [77.482102, 12.9372], [77.478357, 12.937562], [77.476273, 12.938309], [77.476398, 12.938617], [77.474736, 12.939915], [77.473875, 12.940215], [77.473252, 12.940333], [77.474232, 12.942115], [77.474745, 12.943422], [77.47507, 12.945468], [77.475536, 12.946993], [77.476279, 12.948823], [77.475524, 12.949117], [77.473703, 12.949212], [77.473058, 12.949328], [77.472731, 12.949266], [77.472433, 12.94955], [77.471059, 12.949586], [77.471122, 12.950725], [77.472142, 12.950869], [77.472512, 12.951601], [77.472513, 12.951806], [77.471477, 12.952268], [77.471637, 12.953767], [77.471891, 12.954346], [77.471995, 12.955043], [77.4721, 12.955055], [77.472474, 12.955949], [77.472858, 12.956066], [77.473505, 12.957108], [77.474712, 12.959467], [77.475284, 12.960389], [77.472913, 12.96359], [77.472284, 12.963671], [77.473176, 12.966403], [77.473485, 12.966986], [77.473272, 12.967102], [77.475017, 12.970042], [77.475085, 12.97294], [77.474865, 12.97435], [77.474837, 12.975671], [77.474303, 12.979588], [77.474044, 12.980625], [77.473793, 12.982224], [77.473454, 12.983319], [77.473278, 12.98366], [77.473063, 12.984002], [77.472259, 12.984847], [77.471686, 12.985123], [77.470857, 12.985723], [77.469803, 12.9863], [77.468405, 12.986709], [77.470087, 12.989917], [77.470363, 12.990654], [77.471096, 12.993303], [77.47133, 12.993857], [77.47123, 12.994236], [77.471253, 12.994604], [77.471657, 12.99541], [77.471807, 12.995489], [77.47245, 12.996806], [77.472882, 12.996726], [77.473567, 12.998871], [77.474202, 12.999219], [77.474535, 13.000597], [77.474781, 13.000746], [77.475266, 13.002557], [77.47542, 13.003393], [77.475194, 13.003426], [77.475171, 13.004374], [77.474999, 13.004865], [77.475398, 13.006447], [77.474219, 13.006879], [77.472839, 13.007268], [77.473121, 13.008829], [77.473443, 13.008762], [77.473989, 13.009652], [77.474904, 13.011609], [77.475261, 13.013114], [77.476952, 13.014872], [77.477471, 13.017303], [77.478372, 13.019068], [77.478963, 13.022023], [77.478436, 13.022158], [77.478439, 13.024363], [77.478683, 13.026253], [77.479607, 13.029274], [77.477652, 13.030935], [77.477285, 13.031173], [77.476939, 13.031537], [77.478841, 13.035067], [77.479898, 13.035721], [77.480047, 13.037906], [77.480748, 13.038496], [77.481343, 13.039557], [77.482175, 13.039883], [77.48257, 13.04058], [77.48192, 13.041095], [77.481665, 13.041177], [77.481507, 13.04168], [77.481458, 13.042725], [77.481346, 13.042913], [77.480795, 13.043224], [77.480027, 13.043347], [77.479745, 13.044163], [77.479572, 13.044354], [77.479541, 13.044905], [77.4796, 13.045242], [77.479779, 13.045145], [77.479821, 13.045794], [77.47953, 13.046389], [77.480005, 13.047942], [77.480075, 13.048509], [77.482539, 13.048021], [77.484119, 13.047452], [77.486244, 13.046574], [77.489118, 13.045812], [77.490992, 13.045072], [77.492026, 13.048093], [77.492205, 13.050676], [77.492465, 13.051571], [77.493201, 13.05154], [77.497294, 13.050614], [77.496661, 13.049206], [77.496653, 13.048958], [77.504991, 13.046043], [77.507781, 13.04519], [77.508417, 13.045055], [77.511617, 13.043411], [77.51628, 13.041794], [77.51673, 13.041484], [77.517621, 13.040578], [77.518441, 13.03989], [77.518501, 13.040146], [77.519057, 13.041077], [77.522192, 13.045901], [77.531214, 13.039597], [77.531925, 13.038905], [77.532935, 13.038119], [77.535164, 13.036655], [77.538979, 13.033688], [77.540749, 13.032502], [77.541951, 13.038312], [77.542955, 13.03929], [77.544508, 13.037503], [77.544842, 13.036979], [77.547688, 13.031476], [77.548802, 13.029062], [77.55004, 13.026052], [77.553765, 13.019322], [77.553911, 13.019221], [77.554342, 13.019816], [77.555486, 13.019842], [77.556185, 13.021302], [77.556931, 13.023191], [77.557721, 13.025714], [77.559976, 13.030931], [77.557381, 13.034678], [77.557372, 13.035004], [77.557576, 13.03611], [77.557389, 13.038176], [77.557297, 13.038578], [77.558766, 13.038679], [77.560083, 13.039216], [77.560483, 13.039506], [77.561056, 13.040101], [77.562112, 13.041976], [77.56544, 13.037669], [77.56787, 13.034985], [77.569477, 13.032876], [77.57011, 13.031702], [77.571251, 13.028462], [77.574022, 13.027889], [77.577684, 13.027259], [77.577727, 13.026888], [77.580085, 13.026539], [77.580657, 13.025926], [77.581016, 13.025696], [77.581096, 13.025412], [77.581279, 13.025215], [77.582349, 13.02479], [77.582737, 13.024551], [77.583685, 13.023671], [77.584655, 13.022912], [77.583971, 13.020389], [77.583918, 13.01969], [77.583973, 13.014513], [77.585251, 13.014489], [77.586522, 13.014326], [77.587175, 13.014115], [77.587795, 13.013791], [77.588287, 13.01331], [77.589112, 13.012233], [77.591701, 13.008419], [77.592965, 13.00634], [77.593263, 13.005654], [77.593555, 13.00446], [77.595659, 12.997747], [77.596254, 12.994974], [77.596103, 12.99469], [77.594676, 12.995357], [77.59395, 12.995482], [77.589679, 12.995329], [77.589491, 12.995701], [77.587996, 12.996474], [77.586552, 12.997505], [77.584361, 12.997827], [77.584172, 12.999098], [77.584186, 12.999463], [77.582998, 12.999251], [77.582084, 12.998507], [77.580839, 12.997235], [77.579445, 12.997331], [77.579446, 12.997462], [77.578316, 12.997504], [77.578433, 12.999127], [77.578335, 12.999161], [77.577947, 12.999184], [77.576907, 12.998921], [77.573975, 12.998906], [77.573799, 13.000961], [77.572579, 13.001003], [77.572558, 13.001859], [77.572277, 13.001862], [77.572166, 13.003372], [77.571295, 13.003321], [77.571456, 12.996856], [77.568728, 12.996753], [77.566787, 12.996857], [77.5661, 12.996609], [77.567179, 12.994788], [77.56833, 12.993369], [77.567811, 12.99338], [77.567933, 12.988396], [77.565111, 12.988536], [77.565104, 12.988301], [77.56399, 12.988363], [77.563956, 12.988183], [77.56145, 12.988282], [77.561557, 12.98777], [77.56185, 12.98738], [77.561848, 12.987204], [77.561031, 12.98696], [77.560785, 12.986689], [77.561038, 12.985927], [77.561006, 12.984886], [77.561351, 12.984132], [77.561458, 12.98302], [77.561729, 12.981916], [77.561182, 12.981758], [77.560982, 12.980954], [77.56076, 12.980461], [77.560354, 12.980227], [77.559249, 12.97995], [77.559112, 12.979161], [77.558939, 12.978893], [77.558119, 12.978825], [77.557354, 12.978521], [77.556655, 12.978216], [77.555446, 12.977484], [77.555162, 12.977033], [77.554472, 12.975573], [77.558712, 12.975736], [77.558669, 12.975318], [77.558451, 12.974719], [77.557897, 12.973739], [77.55795, 12.973719], [77.557979, 12.97302], [77.557375, 12.970246], [77.557176, 12.970289], [77.557113, 12.969384], [77.556534, 12.969403], [77.554501, 12.96889], [77.554383, 12.96906], [77.554501, 12.96889], [77.551592, 12.968049], [77.551019, 12.967602], [77.550063, 12.966389], [77.548495, 12.965141], [77.547789, 12.964787], [77.546372, 12.964301], [77.546001, 12.96424], [77.54477, 12.964291], [77.544353, 12.96422], [77.543865, 12.963993], [77.544424, 12.963281], [77.54455, 12.963312], [77.544749, 12.963099], [77.545528, 12.96269], [77.545524, 12.962594], [77.545171, 12.962238], [77.546235, 12.960556], [77.548969, 12.955588], [77.549581, 12.954711], [77.549346, 12.954731], [77.549123, 12.952348], [77.550898, 12.952059], [77.551212, 12.952132], [77.551477, 12.951982], [77.551583, 12.952071], [77.553188, 12.950024], [77.552767, 12.950563], [77.553128, 12.950807], [77.553535, 12.950803], [77.553948, 12.950733], [77.554254, 12.950542], [77.554604, 12.949843], [77.554796, 12.949789], [77.554989, 12.950563], [77.556354, 12.950251], [77.556767, 12.949969], [77.558073, 12.950142], [77.558064, 12.950314], [77.557665, 12.950415], [77.557613, 12.950784], [77.55714, 12.951181], [77.556308, 12.951372], [77.55565, 12.951658], [77.555969, 12.952405], [77.556534, 12.95326], [77.558482, 12.953132], [77.558478, 12.953187], [77.558808, 12.953219], [77.559811, 12.95368], [77.560357, 12.953655], [77.561024, 12.953365], [77.561692, 12.953368], [77.561794, 12.95165], [77.562293, 12.95081], [77.562272, 12.950358], [77.562121, 12.949909], [77.561495, 12.949356], [77.561495, 12.949258], [77.561634, 12.949238], [77.562191, 12.948875], [77.562826, 12.949106], [77.563441, 12.948795], [77.564239, 12.948519], [77.564202, 12.947179], [77.564296, 12.941738], [77.565099, 12.941747], [77.564979, 12.941007], [77.563973, 12.939305], [77.565907, 12.939332], [77.565988, 12.940001], [77.56617, 12.940182], [77.566648, 12.940176], [77.566728, 12.941148], [77.566849, 12.941529], [77.567493, 12.942269], [77.567845, 12.942803], [77.567835, 12.943601], [77.57378, 12.943681], [77.573788, 12.940695], [77.573845, 12.940628], [77.577757, 12.940596], [77.577676, 12.939689], [77.580035, 12.936775], [77.584909, 12.936633], [77.584861, 12.9329], [77.579617, 12.933045], [77.579702, 12.923436], [77.573589, 12.923559], [77.573561, 12.921026], [77.574402, 12.920838], [77.574233, 12.919744], [77.573513, 12.917826], [77.573534, 12.916979], [77.572893, 12.916633], [77.572028, 12.916532], [77.571103, 12.916541], [77.570404, 12.916335], [77.569975, 12.915651], [77.569567, 12.915502], [77.568775, 12.917184], [77.568667, 12.91754], [77.568699, 12.91815], [77.566027, 12.918765], [77.565467, 12.917404], [77.564855, 12.916751], [77.564279, 12.918113], [77.563577, 12.919246], [77.563253, 12.919572], [77.562203, 12.920248], [77.561612, 12.92161], [77.559117, 12.922083], [77.556281, 12.922978], [77.555646, 12.920999], [77.555119, 12.921022], [77.554897, 12.920962], [77.554386, 12.921017], [77.554155, 12.92096], [77.553506, 12.92062], [77.553026, 12.92026], [77.552639, 12.91966], [77.552518, 12.91964], [77.552173, 12.91977], [77.551903, 12.918613], [77.551998, 12.918207], [77.551956, 12.917879], [77.551531, 12.917052], [77.550919, 12.916469], [77.550676, 12.916124], [77.550604, 12.915784], [77.548036, 12.916492], [77.548101, 12.91716], [77.548455, 12.917175], [77.548624, 12.91803], [77.546857, 12.918326], [77.546724, 12.91803], [77.544764, 12.918287], [77.544698, 12.917519], [77.543172, 12.917643], [77.541929, 12.918221], [77.541987, 12.918799], [77.541774, 12.918813], [77.540965, 12.918366], [77.540577, 12.918049], [77.540351, 12.918047], [77.539308, 12.917519], [77.538698, 12.917828], [77.538157, 12.918233], [77.53785, 12.918562], [77.536429, 12.919249], [77.534427, 12.91836], [77.531782, 12.917793], [77.531376, 12.914298], [77.531086, 12.913104], [77.530128, 12.910997], [77.529498, 12.909917], [77.528428, 12.908316], [77.526383, 12.904981], [77.525871, 12.904291], [77.517833, 12.897868], [77.513112, 12.893014], [77.5122, 12.891892]]]}}, {"type": "Feature", "properties": {"Corporation": "East"}, "geometry": {"type": "Polygon", "coordinates": [[[77.673572, 12.91612], [77.673436, 12.916648], [77.673186, 12.91696], [77.670415, 12.91834], [77.668725, 12.918861], [77.665132, 12.920595], [77.66477, 12.920619], [77.665182, 12.92107], [77.666619, 12.920982], [77.667793, 12.921564], [77.668202, 12.923236], [77.668773, 12.923316], [77.668933, 12.926206], [77.668898, 12.927151], [77.668726, 12.927485], [77.668459, 12.928708], [77.667691, 12.928793], [77.668035, 12.931243], [77.667529, 12.931281], [77.666921, 12.931199], [77.666402, 12.931006], [77.665855, 12.930351], [77.665115, 12.928355], [77.664933, 12.928137], [77.664594, 12.928052], [77.663763, 12.928038], [77.663024, 12.928332], [77.661817, 12.928961], [77.66133, 12.929671], [77.661085, 12.929827], [77.660747, 12.929809], [77.660544, 12.9297], [77.659124, 12.929418], [77.655021, 12.934968], [77.657163, 12.936053], [77.659336, 12.93755], [77.660564, 12.938029], [77.660434, 12.938269], [77.660291, 12.938325], [77.65891, 12.938297], [77.658908, 12.937915], [77.658139, 12.937896], [77.658056, 12.939851], [77.657802, 12.939863], [77.657428, 12.940109], [77.656001, 12.940087], [77.6544, 12.940248], [77.652705, 12.941208], [77.652308, 12.941337], [77.651849, 12.941622], [77.651657, 12.941646], [77.649157, 12.94293], [77.647821, 12.943796], [77.647329, 12.944285], [77.647552, 12.944467], [77.647574, 12.944762], [77.647455, 12.944967], [77.646911, 12.945253], [77.645069, 12.946681], [77.643022, 12.948427], [77.642066, 12.949425], [77.640615, 12.950457], [77.639885, 12.95128], [77.639739, 12.951534], [77.640773, 12.953294], [77.641667, 12.95362], [77.642073, 12.953944], [77.642514, 12.953956], [77.644254, 12.953334], [77.644499, 12.951723], [77.645041, 12.949997], [77.645403, 12.949401], [77.646533, 12.947867], [77.646762, 12.947681], [77.647773, 12.947168], [77.648293, 12.9466], [77.648803, 12.946133], [77.649025, 12.946013], [77.649374, 12.947401], [77.649089, 12.947747], [77.649051, 12.947902], [77.649079, 12.948513], [77.649255, 12.949072], [77.650542, 12.950638], [77.651518, 12.95144], [77.652298, 12.951837], [77.652524, 12.952523], [77.658729, 12.952936], [77.660983, 12.952869], [77.660992, 12.954328], [77.662368, 12.954237], [77.6624, 12.954784], [77.662387, 12.954919], [77.661776, 12.954955], [77.661818, 12.955393], [77.660847, 12.955419], [77.660913, 12.955666], [77.66337, 12.955722], [77.663029, 12.956828], [77.663374, 12.958092], [77.663582, 12.958892], [77.663588, 12.958916], [77.662153, 12.959187], [77.660889, 12.959254], [77.659664, 12.959062], [77.659791, 12.960217], [77.6599, 12.960255], [77.660164, 12.96087], [77.659773, 12.961026], [77.659968, 12.961689], [77.66082, 12.961607], [77.660947, 12.962212], [77.661447, 12.962137], [77.661708, 12.962902], [77.661791, 12.964272], [77.661087, 12.964154], [77.660796, 12.964853], [77.660534, 12.9649], [77.660546, 12.964962], [77.66072, 12.965194], [77.661, 12.965178], [77.661069, 12.965452], [77.661559, 12.965532], [77.661646, 12.965633], [77.661787, 12.966192], [77.661965, 12.966306], [77.661645, 12.966804], [77.658461, 12.967192], [77.658492, 12.967434], [77.657952, 12.968165], [77.657274, 12.968244], [77.657702, 12.970712], [77.658104, 12.970984], [77.658735, 12.971254], [77.658637, 12.971453], [77.659596, 12.971586], [77.661518, 12.97162], [77.661566, 12.971979], [77.661984, 12.971787], [77.663057, 12.971538], [77.665335, 12.971844], [77.665531, 12.971578], [77.666158, 12.971446], [77.666512, 12.97192], [77.666573, 12.97245], [77.666965, 12.972618], [77.666661, 12.973009], [77.666732, 12.973192], [77.666842, 12.973258], [77.666792, 12.973347], [77.666914, 12.974301], [77.666902, 12.974381], [77.666611, 12.974425], [77.666516, 12.975333], [77.667314, 12.975574], [77.668135, 12.975547], [77.668847, 12.975403], [77.670101, 12.974954], [77.670295, 12.974827], [77.674491, 12.973488], [77.678116, 12.972709], [77.678916, 12.975287], [77.679299, 12.976162], [77.679378, 12.976514], [77.679314, 12.976894], [77.679338, 12.977976], [77.679505, 12.979047], [77.679653, 12.97947], [77.679751, 12.980232], [77.680381, 12.982321], [77.680439, 12.982755], [77.680014, 12.983414], [77.679842, 12.983568], [77.679068, 12.983989], [77.678591, 12.984081], [77.678472, 12.984269], [77.678242, 12.984439], [77.677719, 12.984657], [77.674924, 12.986368], [77.672933, 12.98637], [77.672139, 12.985994], [77.671712, 12.985878], [77.671353, 12.986026], [77.671283, 12.9859], [77.669796, 12.986156], [77.66948, 12.986122], [77.668884, 12.985976], [77.667973, 12.985491], [77.667817, 12.985874], [77.667526, 12.985937], [77.667492, 12.987219], [77.667366, 12.988], [77.66741, 12.988671], [77.667629, 12.989526], [77.667885, 12.989757], [77.668164, 12.989842], [77.668362, 12.990196], [77.666907, 12.991053], [77.66626, 12.991582], [77.665532, 12.992383], [77.664164, 12.994475], [77.663206, 12.996162], [77.662791, 12.99676], [77.66407, 12.997484], [77.663592, 12.998259], [77.663189, 13.004557], [77.662569, 13.008193], [77.662504, 13.009977], [77.662095, 13.015726], [77.661936, 13.016204], [77.661798, 13.016336], [77.655634, 13.019058], [77.652745, 13.020168], [77.640115, 13.025707], [77.63965, 13.025885], [77.63715, 13.02632], [77.635815, 13.026632], [77.633887, 13.027262], [77.632716, 13.027773], [77.633496, 13.028689], [77.636354, 13.0278], [77.63658, 13.027773], [77.636948, 13.027909], [77.637605, 13.027986], [77.637744, 13.029501], [77.637916, 13.030015], [77.638188, 13.030334], [77.639398, 13.031385], [77.6396, 13.031751], [77.639852, 13.032578], [77.640769, 13.033682], [77.641032, 13.034259], [77.641177, 13.034327], [77.642185, 13.033997], [77.643268, 13.034067], [77.643158, 13.035325], [77.643231, 13.035906], [77.64494, 13.035881], [77.644907, 13.036024], [77.644421, 13.036226], [77.644138, 13.037737], [77.643837, 13.038492], [77.643768, 13.038966], [77.642368, 13.038977], [77.642167, 13.039034], [77.641808, 13.039434], [77.641458, 13.039511], [77.641445, 13.040674], [77.641394, 13.041259], [77.6413, 13.041376], [77.641471, 13.041794], [77.641391, 13.042415], [77.641075, 13.042642], [77.640722, 13.04266], [77.640391, 13.042959], [77.639263, 13.043314], [77.638008, 13.043217], [77.63729, 13.04281], [77.637118, 13.0435], [77.637101, 13.044682], [77.637314, 13.046035], [77.637781, 13.047379], [77.63809, 13.049233], [77.638334, 13.050064], [77.638136, 13.050096], [77.638428, 13.051554], [77.637796, 13.051661], [77.63778, 13.051809], [77.63812, 13.053804], [77.638339, 13.054535], [77.638153, 13.054637], [77.638297, 13.05519], [77.638359, 13.057503], [77.638172, 13.058965], [77.638195, 13.061533], [77.638696, 13.066544], [77.639023, 13.06758], [77.639527, 13.06969], [77.63944, 13.073218], [77.639491, 13.074935], [77.638309, 13.07516], [77.639559, 13.076668], [77.640237, 13.076931], [77.640974, 13.07696], [77.64142, 13.077216], [77.642146, 13.077826], [77.642528, 13.078655], [77.644551, 13.082317], [77.64552, 13.083392], [77.646603, 13.085152], [77.649672, 13.081236], [77.652609, 13.081622], [77.653535, 13.081812], [77.654763, 13.08197], [77.654857, 13.081913], [77.655812, 13.077181], [77.656275, 13.075876], [77.656431, 13.074863], [77.656532, 13.07485], [77.6578, 13.073042], [77.659142, 13.069738], [77.659727, 13.068044], [77.660155, 13.067725], [77.660731, 13.06768], [77.662624, 13.067065], [77.663595, 13.066977], [77.665795, 13.066205], [77.667022, 13.065903], [77.667146, 13.063946], [77.670052, 13.065955], [77.67241, 13.065613], [77.673447, 13.065352], [77.673434, 13.06526], [77.674085, 13.065193], [77.675093, 13.064838], [77.675905, 13.064926], [77.67633, 13.065059], [77.676926, 13.065061], [77.677174, 13.064957], [77.676668, 13.063585], [77.676856, 13.063532], [77.676837, 13.062913], [77.678236, 13.062742], [77.678804, 13.062736], [77.678968, 13.062786], [77.67899, 13.062858], [77.679505, 13.061947], [77.679485, 13.061257], [77.67933, 13.060979], [77.679295, 13.060522], [77.679444, 13.058583], [77.679111, 13.058005], [77.679002, 13.058024], [77.678958, 13.057822], [77.67907, 13.057525], [77.679172, 13.057541], [77.679213, 13.057372], [77.679426, 13.055768], [77.679308, 13.055532], [77.678899, 13.055219], [77.678375, 13.052347], [77.679939, 13.052412], [77.681063, 13.051734], [77.683338, 13.04995], [77.684945, 13.04527], [77.684856, 13.044018], [77.684876, 13.042907], [77.684601, 13.041399], [77.684643, 13.040924], [77.684474, 13.040525], [77.684494, 13.040161], [77.684293, 13.039399], [77.684029, 13.037619], [77.683913, 13.03733], [77.683996, 13.036675], [77.683884, 13.036275], [77.683738, 13.034969], [77.683619, 13.03476], [77.683654, 13.034177], [77.683539, 13.03312], [77.683691, 13.033206], [77.685106, 13.03338], [77.686321, 13.033501], [77.686881, 13.033476], [77.688208, 13.033176], [77.688856, 13.032944], [77.690855, 13.032558], [77.691485, 13.031444], [77.693846, 13.027748], [77.694404, 13.026725], [77.696999, 13.026971], [77.700492, 13.027429], [77.701698, 13.027438], [77.701269, 13.024966], [77.703275, 13.025752], [77.705963, 13.026287], [77.708021, 13.025872], [77.709244, 13.025269], [77.710709, 13.026144], [77.712067, 13.028381], [77.715083, 13.031992], [77.716083, 13.031819], [77.716091, 13.031646], [77.717392, 13.031557], [77.717341, 13.031704], [77.717371, 13.032917], [77.719583, 13.033371], [77.720722, 13.033771], [77.721179, 13.033846], [77.72152, 13.034115], [77.721511, 13.033807], [77.721625, 13.033715], [77.723427, 13.033267], [77.723958, 13.033367], [77.724066, 13.033318], [77.724229, 13.032303], [77.724724, 13.032249], [77.724723, 13.032166], [77.724845, 13.032157], [77.724875, 13.032029], [77.7249, 13.031487], [77.72483, 13.031052], [77.724919, 13.03044], [77.724752, 13.029957], [77.724637, 13.029221], [77.725003, 13.028343], [77.72525, 13.027019], [77.725168, 13.025785], [77.725677, 13.025755], [77.725609, 13.025717], [77.727355, 13.023309], [77.729438, 13.020197], [77.729898, 13.019686], [77.730056, 13.018734], [77.729377, 13.016299], [77.72866, 13.014449], [77.728415, 13.01326], [77.72828, 13.011799], [77.728011, 13.01048], [77.730482, 13.010783], [77.732441, 13.010801], [77.732842, 13.010771], [77.733065, 13.010667], [77.733894, 13.010123], [77.735671, 13.010933], [77.736232, 13.010762], [77.736245, 13.009118], [77.736101, 13.007486], [77.736523, 13.007829], [77.738143, 13.007577], [77.740774, 13.008133], [77.74099, 13.007147], [77.743366, 13.007071], [77.744252, 13.007181], [77.745154, 13.007171], [77.746188, 13.007005], [77.747168, 13.006714], [77.747198, 13.007007], [77.746971, 13.007097], [77.74706, 13.009652], [77.74705, 13.010123], [77.746925, 13.010438], [77.747364, 13.011629], [77.747826, 13.011567], [77.747968, 13.012619], [77.749324, 13.012005], [77.749745, 13.011648], [77.749721, 13.01151], [77.750334, 13.011284], [77.750688, 13.011364], [77.7517, 13.0109], [77.752169, 13.010852], [77.752686, 13.010658], [77.753022, 13.010283], [77.754116, 13.009445], [77.754432, 13.008921], [77.754842, 13.008848], [77.755069, 13.009345], [77.755076, 13.009654], [77.755302, 13.010335], [77.756014, 13.010072], [77.75671, 13.009563], [77.757354, 13.008872], [77.758111, 13.008575], [77.758597, 13.008211], [77.758892, 13.007877], [77.759294, 13.007841], [77.759439, 13.007751], [77.759614, 13.007466], [77.759636, 13.006985], [77.759377, 13.006224], [77.759409, 13.005897], [77.760764, 13.004907], [77.761633, 13.005182], [77.761992, 13.005119], [77.762404, 13.004676], [77.762827, 13.003698], [77.763472, 13.002851], [77.763675, 13.002882], [77.763833, 13.003111], [77.764124, 13.004082], [77.766189, 13.003481], [77.767417, 13.003246], [77.768699, 13.00269], [77.769261, 13.003978], [77.769397, 13.004579], [77.769287, 13.004699], [77.76966, 13.005906], [77.769759, 13.006584], [77.769701, 13.008864], [77.769869, 13.008853], [77.769928, 13.009136], [77.769893, 13.009328], [77.769782, 13.009365], [77.770106, 13.010142], [77.770375, 13.011595], [77.770511, 13.011755], [77.770541, 13.01197], [77.771048, 13.013193], [77.77128, 13.014473], [77.771505, 13.015099], [77.773114, 13.014642], [77.77316, 13.014459], [77.773097, 13.013862], [77.773175, 13.013675], [77.773428, 13.013485], [77.773642, 13.01342], [77.774374, 13.013491], [77.774443, 13.013302], [77.774345, 13.013015], [77.773855, 13.012479], [77.773911, 13.011753], [77.773741, 13.011498], [77.773714, 13.011249], [77.773775, 13.010999], [77.773948, 13.010834], [77.774002, 13.010646], [77.773401, 13.010352], [77.77328, 13.010183], [77.773277, 13.009925], [77.773425, 13.009658], [77.773224, 13.009431], [77.773164, 13.009104], [77.773252, 13.008441], [77.773453, 13.007909], [77.773481, 13.007559], [77.773365, 13.006378], [77.773482, 13.00619], [77.773776, 13.006155], [77.773968, 13.006215], [77.774225, 13.006432], [77.774415, 13.006436], [77.775016, 13.006104], [77.77568, 13.006015], [77.775854, 13.005881], [77.775889, 13.005491], [77.775734, 13.005127], [77.775674, 13.004707], [77.775696, 13.00397], [77.775619, 13.003511], [77.775498, 13.003325], [77.775241, 13.003102], [77.774769, 13.002881], [77.774022, 13.002975], [77.773499, 13.00316], [77.772769, 13.002969], [77.772505, 13.002801], [77.77247, 13.002521], [77.772862, 13.001944], [77.773661, 13.001877], [77.773822, 13.001249], [77.774765, 13.001146], [77.774991, 13.000859], [77.775001, 13.000649], [77.774846, 13.000231], [77.774832, 12.999714], [77.774985, 12.998829], [77.77508, 12.997555], [77.774959, 12.997527], [77.77511, 12.997049], [77.774848, 12.996005], [77.7748, 12.995308], [77.774183, 12.992003], [77.775209, 12.992105], [77.776028, 12.991712], [77.776114, 12.991533], [77.775997, 12.990659], [77.77615, 12.989904], [77.776347, 12.989446], [77.776496, 12.988315], [77.775942, 12.988294], [77.776148, 12.98792], [77.775904, 12.986392], [77.776068, 12.985872], [77.776662, 12.985352], [77.776941, 12.985377], [77.777147, 12.985165], [77.776576, 12.984865], [77.776613, 12.984589], [77.776542, 12.984197], [77.776095, 12.982498], [77.77565, 12.982142], [77.775421, 12.981489], [77.775028, 12.98109], [77.774759, 12.980702], [77.77472, 12.980522], [77.775911, 12.979932], [77.776529, 12.97932], [77.776622, 12.979103], [77.77716, 12.978503], [77.777413, 12.978369], [77.777793, 12.978592], [77.778425, 12.978562], [77.778827, 12.977163], [77.778625, 12.976797], [77.778244, 12.976224], [77.777669, 12.976177], [77.777259, 12.976536], [77.776976, 12.976408], [77.776678, 12.976018], [77.776675, 12.975717], [77.776484, 12.975352], [77.77616, 12.97497], [77.776874, 12.974002], [77.777684, 12.973706], [77.778149, 12.973398], [77.779243, 12.972236], [77.778628, 12.971084], [77.778673, 12.97048], [77.779211, 12.970244], [77.780217, 12.970164], [77.780835, 12.970319], [77.781149, 12.970771], [77.781974, 12.970962], [77.782861, 12.970993], [77.783262, 12.970891], [77.783647, 12.970616], [77.783912, 12.969357], [77.784361, 12.968558], [77.78418, 12.966789], [77.784078, 12.966563], [77.781848, 12.966135], [77.781584, 12.966381], [77.781397, 12.966816], [77.781224, 12.966957], [77.780535, 12.967124], [77.779883, 12.967147], [77.778596, 12.966765], [77.778474, 12.966994], [77.778656, 12.967718], [77.777451, 12.968224], [77.777221, 12.968133], [77.777177, 12.967898], [77.776479, 12.967758], [77.776089, 12.967424], [77.775097, 12.966881], [77.77459, 12.96651], [77.774031, 12.966379], [77.7735, 12.966093], [77.772106, 12.965867], [77.771984, 12.965923], [77.771234, 12.965045], [77.770689, 12.964233], [77.77047, 12.963395], [77.770517, 12.963333], [77.770476, 12.963038], [77.770204, 12.963056], [77.770157, 12.962648], [77.769812, 12.96177], [77.768821, 12.96153], [77.768229, 12.961128], [77.767962, 12.960342], [77.767299, 12.960066], [77.767097, 12.959467], [77.766947, 12.959461], [77.766993, 12.95936], [77.766603, 12.959216], [77.764881, 12.959895], [77.764793, 12.959461], [77.764567, 12.959491], [77.764423, 12.95877], [77.764331, 12.957583], [77.764377, 12.956119], [77.764579, 12.95563], [77.764573, 12.955088], [77.764469, 12.955028], [77.764543, 12.954883], [77.76456, 12.951914], [77.764644, 12.951372], [77.764924, 12.951078], [77.764919, 12.95048], [77.765286, 12.948762], [77.765524, 12.946593], [77.76551, 12.945403], [77.765253, 12.942657], [77.765519, 12.93805], [77.765512, 12.937016], [77.765632, 12.936895], [77.766345, 12.935018], [77.765688, 12.933378], [77.765593, 12.931803], [77.764651, 12.928775], [77.762288, 12.92838], [77.76133, 12.927926], [77.758404, 12.927013], [77.756652, 12.926337], [77.752216, 12.92526], [77.751379, 12.922083], [77.746099, 12.920136], [77.745685, 12.919902], [77.745464, 12.918807], [77.745185, 12.916156], [77.744734, 12.913721], [77.743183, 12.913836], [77.742358, 12.914056], [77.742074, 12.914236], [77.740795, 12.914546], [77.738617, 12.914305], [77.737506, 12.914722], [77.73735, 12.914642], [77.737284, 12.913503], [77.734447, 12.913197], [77.734361, 12.913543], [77.734361, 12.914182], [77.734278, 12.914127], [77.732667, 12.914182], [77.73207, 12.913924], [77.730496, 12.914208], [77.729033, 12.914368], [77.727949, 12.91446], [77.727569, 12.914412], [77.727662, 12.913841], [77.727612, 12.910887], [77.727336, 12.909845], [77.726277, 12.90661], [77.724528, 12.906927], [77.723304, 12.907273], [77.722809, 12.907262], [77.721383, 12.907861], [77.720764, 12.908221], [77.720746, 12.908893], [77.720399, 12.908901], [77.719672, 12.908754], [77.719699, 12.908135], [77.719213, 12.908137], [77.717856, 12.908374], [77.717913, 12.908872], [77.71764, 12.908966], [77.717289, 12.908746], [77.716122, 12.907387], [77.715604, 12.907494], [77.714228, 12.908083], [77.713388, 12.907942], [77.7113, 12.907863], [77.709487, 12.907943], [77.708353, 12.908147], [77.707997, 12.906449], [77.707092, 12.903301], [77.706871, 12.902026], [77.70355, 12.90365], [77.702847, 12.904041], [77.702887, 12.904088], [77.699064, 12.906175], [77.694766, 12.907453], [77.689691, 12.90878], [77.68803, 12.909359], [77.682824, 12.911437], [77.679154, 12.913317], [77.677615, 12.913963], [77.675531, 12.914569], [77.673984, 12.91559], [77.673572, 12.91612]]]}}, {"type": "Feature", "properties": {"Corporation": "South"}, "geometry": {"type": "Polygon", "coordinates": [[[77.576863, 12.838468], [77.574286, 12.838869], [77.573138, 12.839131], [77.571074, 12.839234], [77.565681, 12.83968], [77.562199, 12.83902], [77.559982, 12.84032], [77.557279, 12.841534], [77.557293, 12.843132], [77.55718, 12.843933], [77.556465, 12.844978], [77.554952, 12.847673], [77.554482, 12.848012], [77.553246, 12.847769], [77.553262, 12.847543], [77.553034, 12.847136], [77.552023, 12.847488], [77.551369, 12.847961], [77.544865, 12.847691], [77.544873, 12.847597], [77.544683, 12.847616], [77.544651, 12.8474], [77.544358, 12.84699], [77.544495, 12.846729], [77.544576, 12.846312], [77.544389, 12.845279], [77.544314, 12.844369], [77.543724, 12.844055], [77.542775, 12.843371], [77.542253, 12.843287], [77.541677, 12.843325], [77.541486, 12.843533], [77.541272, 12.844287], [77.540492, 12.844962], [77.539045, 12.845319], [77.538334, 12.845304], [77.538346, 12.844891], [77.537931, 12.84341], [77.537877, 12.842468], [77.537575, 12.841737], [77.535108, 12.840954], [77.533914, 12.839924], [77.533612, 12.839909], [77.533434, 12.839702], [77.531281, 12.840051], [77.526057, 12.840642], [77.523518, 12.839945], [77.522705, 12.843765], [77.522288, 12.845292], [77.521641, 12.84836], [77.5216, 12.84893], [77.521032, 12.850146], [77.519148, 12.855], [77.518409, 12.861166], [77.518909, 12.861654], [77.519551, 12.862118], [77.519754, 12.863965], [77.52022, 12.866343], [77.522919, 12.870559], [77.522982, 12.870566], [77.520267, 12.872178], [77.519437, 12.87179], [77.51729, 12.869598], [77.516368, 12.868804], [77.516351, 12.868515], [77.516717, 12.868486], [77.516794, 12.866637], [77.515571, 12.862606], [77.516098, 12.862399], [77.515925, 12.861679], [77.515475, 12.860985], [77.515843, 12.860597], [77.515827, 12.859326], [77.516535, 12.858489], [77.516545, 12.857849], [77.503842, 12.857865], [77.504294, 12.860014], [77.505069, 12.860153], [77.506029, 12.861271], [77.506899, 12.863467], [77.506783, 12.864301], [77.50877, 12.865158], [77.49912, 12.871792], [77.497995, 12.872785], [77.497578, 12.872149], [77.497022, 12.870629], [77.496612, 12.868753], [77.495319, 12.868516], [77.491878, 12.868434], [77.490963, 12.868864], [77.489864, 12.86851], [77.490107, 12.865362], [77.487775, 12.864789], [77.487061, 12.864758], [77.486763, 12.864252], [77.485565, 12.862777], [77.485356, 12.862354], [77.485318, 12.861309], [77.485392, 12.860736], [77.48557, 12.86019], [77.48301, 12.860803], [77.482988, 12.860728], [77.482907, 12.860749], [77.482926, 12.860824], [77.482847, 12.860843], [77.482904, 12.861077], [77.480969, 12.861543], [77.480568, 12.861517], [77.480226, 12.860986], [77.478365, 12.862106], [77.478235, 12.86189], [77.477753, 12.862141], [77.478307, 12.862887], [77.479211, 12.863799], [77.48101, 12.862777], [77.482247, 12.864475], [77.488873, 12.871821], [77.489018, 12.871777], [77.49061, 12.873534], [77.492833, 12.876533], [77.493254, 12.877233], [77.493939, 12.877655], [77.494241, 12.878172], [77.495034, 12.87914], [77.495575, 12.879544], [77.495724, 12.880034], [77.496485, 12.879884], [77.496417, 12.880562], [77.497046, 12.880866], [77.497346, 12.881284], [77.497641, 12.881353], [77.499101, 12.882496], [77.501067, 12.883827], [77.50341, 12.885154], [77.507591, 12.887144], [77.508772, 12.887909], [77.509431, 12.888436], [77.510634, 12.889681], [77.5122, 12.891892], [77.513112, 12.893014], [77.514382, 12.894318], [77.514323, 12.894018], [77.514382, 12.894318], [77.517833, 12.897868], [77.525871, 12.904291], [77.526383, 12.904981], [77.528428, 12.908316], [77.529498, 12.909917], [77.530128, 12.910997], [77.531086, 12.913104], [77.531376, 12.914298], [77.531782, 12.917793], [77.534427, 12.91836], [77.536429, 12.919249], [77.53785, 12.918562], [77.538157, 12.918233], [77.538698, 12.917828], [77.539308, 12.917519], [77.540361, 12.918051], [77.540577, 12.918049], [77.540965, 12.918366], [77.541774, 12.918813], [77.541987, 12.918799], [77.541929, 12.918221], [77.543172, 12.917643], [77.544698, 12.917519], [77.544764, 12.918287], [77.546724, 12.91803], [77.546857, 12.918326], [77.548624, 12.91803], [77.548455, 12.917175], [77.548101, 12.91716], [77.548036, 12.916492], [77.550604, 12.915784], [77.550681, 12.916135], [77.551009, 12.916573], [77.551619, 12.917168], [77.551956, 12.917879], [77.551998, 12.918207], [77.551903, 12.918613], [77.552173, 12.91977], [77.552518, 12.91964], [77.552639, 12.91966], [77.553026, 12.92026], [77.553506, 12.92062], [77.554155, 12.92096], [77.554386, 12.921017], [77.554897, 12.920962], [77.555119, 12.921022], [77.555646, 12.920999], [77.556281, 12.922978], [77.559117, 12.922083], [77.561612, 12.92161], [77.562203, 12.920248], [77.563358, 12.919492], [77.563889, 12.918779], [77.564498, 12.917654], [77.564686, 12.917172], [77.564851, 12.916761], [77.564897, 12.916647], [77.564855, 12.916751], [77.565467, 12.917404], [77.566027, 12.918765], [77.568699, 12.91815], [77.568667, 12.91754], [77.568775, 12.917184], [77.569567, 12.915502], [77.569975, 12.915651], [77.570404, 12.916335], [77.571103, 12.916541], [77.572028, 12.916532], [77.572893, 12.916633], [77.573534, 12.916979], [77.573513, 12.917826], [77.574233, 12.919744], [77.574402, 12.920838], [77.573561, 12.921026], [77.573589, 12.923559], [77.579702, 12.923436], [77.579617, 12.933045], [77.584861, 12.9329], [77.584909, 12.936633], [77.585731, 12.936604], [77.586272, 12.936399], [77.586709, 12.93587], [77.587554, 12.935247], [77.587816, 12.935163], [77.588729, 12.93555], [77.589135, 12.935811], [77.589623, 12.935524], [77.589937, 12.9355], [77.590116, 12.936321], [77.590556, 12.936128], [77.591042, 12.93667], [77.591306, 12.936494], [77.591741, 12.936339], [77.5927, 12.936205], [77.592728, 12.935275], [77.592498, 12.928475], [77.600496, 12.928295], [77.600705, 12.931517], [77.601698, 12.937089], [77.599933, 12.937428], [77.599377, 12.937607], [77.599093, 12.937778], [77.598474, 12.938402], [77.598068, 12.939044], [77.597659, 12.939954], [77.597255, 12.943187], [77.598143, 12.942938], [77.600935, 12.942495], [77.602629, 12.942139], [77.602862, 12.943161], [77.602844, 12.944096], [77.602552, 12.94552], [77.602426, 12.947356], [77.602653, 12.948439], [77.603147, 12.949602], [77.603443, 12.950509], [77.60569, 12.950116], [77.605832, 12.94967], [77.605792, 12.949798], [77.611037, 12.948966], [77.611436, 12.949021], [77.611665, 12.949307], [77.616858, 12.949246], [77.619319, 12.947451], [77.620903, 12.950283], [77.621499, 12.951664], [77.623326, 12.950812], [77.625421, 12.950339], [77.625919, 12.950152], [77.627013, 12.949317], [77.627508, 12.9488], [77.628438, 12.947172], [77.629106, 12.946163], [77.63044, 12.94338], [77.631951, 12.939881], [77.632924, 12.937905], [77.633302, 12.937341], [77.634567, 12.936237], [77.634577, 12.936123], [77.637169, 12.933254], [77.637873, 12.932326], [77.638094, 12.931844], [77.638812, 12.930904], [77.639523, 12.930556], [77.639466, 12.93025], [77.639579, 12.929686], [77.641004, 12.9294], [77.641245, 12.929449], [77.641901, 12.929255], [77.64187, 12.928211], [77.64132, 12.926164], [77.641096, 12.925967], [77.64055, 12.92594], [77.639738, 12.926032], [77.639166, 12.925843], [77.639116, 12.92567], [77.639316, 12.924823], [77.639291, 12.924058], [77.641243, 12.923368], [77.645166, 12.92446], [77.646391, 12.924483], [77.649193, 12.924695], [77.649631, 12.924641], [77.650265, 12.924386], [77.651738, 12.924221], [77.651493, 12.923], [77.651501, 12.921184], [77.6536, 12.920962], [77.653612, 12.920451], [77.654664, 12.92045], [77.660354, 12.916345], [77.661995, 12.918261], [77.662216, 12.918791], [77.66279, 12.921198], [77.66116, 12.921612], [77.662472, 12.926142], [77.663099, 12.927431], [77.663265, 12.927632], [77.663286, 12.928229], [77.663763, 12.928038], [77.664594, 12.928052], [77.664933, 12.928137], [77.665115, 12.928355], [77.665855, 12.930351], [77.666402, 12.931006], [77.666921, 12.931199], [77.667529, 12.931281], [77.668035, 12.931243], [77.667691, 12.928793], [77.668459, 12.928708], [77.668726, 12.927485], [77.668898, 12.927151], [77.668933, 12.926206], [77.668773, 12.923316], [77.668202, 12.923236], [77.667793, 12.921564], [77.666619, 12.920982], [77.665182, 12.92107], [77.66477, 12.920619], [77.665132, 12.920595], [77.668725, 12.918861], [77.670415, 12.91834], [77.673186, 12.91696], [77.673436, 12.916648], [77.673572, 12.91612], [77.673984, 12.91559], [77.675531, 12.914569], [77.677615, 12.913963], [77.678485, 12.913626], [77.682824, 12.911437], [77.688818, 12.909052], [77.694766, 12.907453], [77.698784, 12.90629], [77.702887, 12.904088], [77.702396, 12.903576], [77.700818, 12.904032], [77.697853, 12.904545], [77.697659, 12.90418], [77.696964, 12.904068], [77.69636, 12.904126], [77.696261, 12.903994], [77.695877, 12.904021], [77.69563, 12.904237], [77.695341, 12.90407], [77.693935, 12.904296], [77.693394, 12.904489], [77.693094, 12.904446], [77.69281, 12.90414], [77.691527, 12.903976], [77.691395, 12.904391], [77.6912, 12.904408], [77.691192, 12.904914], [77.691081, 12.904916], [77.690925, 12.905525], [77.689923, 12.905487], [77.689925, 12.905413], [77.688255, 12.905488], [77.688119, 12.906132], [77.687752, 12.906442], [77.687368, 12.90654], [77.686848, 12.906449], [77.687311, 12.904728], [77.68578, 12.904433], [77.686319, 12.90388], [77.687582, 12.903338], [77.687447, 12.90245], [77.687276, 12.902357], [77.68616, 12.902368], [77.685529, 12.902184], [77.685323, 12.901875], [77.684455, 12.90187], [77.68422, 12.901644], [77.683972, 12.901675], [77.683013, 12.901559], [77.682449, 12.901426], [77.682359, 12.901346], [77.682219, 12.900871], [77.682174, 12.900159], [77.682277, 12.899959], [77.679592, 12.897598], [77.678053, 12.895303], [77.677491, 12.894691], [77.677244, 12.894289], [77.675999, 12.893924], [77.674843, 12.893729], [77.674073, 12.8937], [77.673839, 12.893194], [77.673174, 12.889547], [77.672896, 12.888555], [77.672934, 12.888132], [77.672539, 12.88659], [77.672328, 12.88465], [77.673753, 12.88437], [77.674341, 12.883833], [77.674029, 12.879823], [77.671041, 12.880301], [77.672474, 12.878457], [77.673243, 12.878049], [77.673752, 12.877071], [77.67426, 12.875783], [77.674577, 12.875354], [77.675289, 12.872633], [77.672799, 12.86929], [77.672893, 12.868252], [77.672265, 12.868204], [77.671145, 12.867814], [77.669865, 12.867176], [77.667821, 12.866407], [77.667086, 12.866335], [77.667046, 12.866205], [77.666559, 12.866215], [77.665198, 12.864054], [77.664926, 12.863395], [77.664668, 12.863072], [77.664506, 12.862373], [77.664007, 12.862427], [77.663837, 12.861919], [77.663745, 12.861019], [77.66357, 12.86068], [77.662332, 12.859667], [77.661142, 12.858868], [77.661149, 12.858774], [77.660537, 12.858586], [77.659307, 12.858618], [77.65766, 12.858146], [77.657491, 12.858387], [77.657551, 12.857197], [77.656586, 12.856961], [77.656382, 12.856998], [77.656443, 12.856504], [77.655754, 12.856377], [77.655848, 12.855717], [77.655509, 12.855525], [77.655284, 12.856233], [77.654913, 12.856188], [77.654934, 12.856053], [77.654446, 12.855855], [77.653077, 12.855494], [77.653118, 12.855317], [77.652604, 12.854967], [77.651816, 12.854739], [77.651614, 12.854767], [77.651336, 12.854607], [77.650625, 12.854391], [77.650344, 12.854394], [77.650394, 12.853874], [77.649949, 12.853689], [77.64996, 12.853178], [77.650008, 12.852971], [77.65014, 12.852912], [77.650278, 12.852183], [77.650077, 12.852102], [77.649795, 12.852241], [77.649619, 12.852928], [77.649215, 12.852752], [77.649312, 12.852134], [77.648655, 12.852106], [77.647727, 12.851858], [77.647595, 12.852354], [77.646629, 12.852116], [77.64617, 12.852098], [77.646145, 12.851874], [77.645754, 12.851698], [77.645596, 12.851969], [77.644905, 12.851753], [77.64491, 12.852156], [77.64313, 12.851138], [77.64288, 12.851208], [77.643015, 12.853694], [77.642901, 12.855931], [77.642844, 12.859434], [77.642005, 12.862324], [77.641793, 12.863654], [77.641478, 12.863704], [77.641265, 12.864271], [77.641224, 12.864401], [77.641332, 12.865049], [77.640517, 12.865048], [77.638836, 12.864906], [77.638449, 12.86331], [77.637394, 12.862891], [77.636805, 12.863104], [77.636429, 12.863129], [77.635769, 12.86297], [77.635245, 12.862956], [77.634544, 12.862635], [77.634184, 12.862143], [77.634254, 12.861924], [77.632943, 12.861566], [77.632192, 12.861229], [77.631168, 12.860481], [77.630638, 12.85993], [77.630393, 12.858582], [77.629063, 12.856912], [77.627276, 12.857055], [77.626826, 12.857166], [77.626349, 12.85744], [77.625479, 12.857551], [77.621399, 12.857942], [77.61972, 12.857973], [77.619043, 12.858137], [77.618849, 12.857828], [77.618908, 12.857589], [77.618063, 12.85744], [77.616795, 12.857566], [77.616398, 12.855827], [77.615488, 12.855294], [77.614361, 12.854252], [77.613198, 12.85261], [77.612702, 12.851654], [77.612216, 12.851691], [77.611572, 12.851491], [77.609176, 12.85126], [77.609064, 12.849594], [77.609065, 12.847539], [77.609323, 12.846045], [77.607186, 12.847477], [77.604554, 12.848242], [77.603928, 12.848352], [77.602672, 12.848398], [77.60128, 12.848104], [77.600487, 12.848102], [77.600401, 12.847999], [77.600196, 12.847939], [77.599183, 12.84806], [77.598616, 12.84825], [77.597778, 12.848329], [77.595617, 12.849161], [77.59485, 12.84745], [77.594524, 12.846334], [77.594391, 12.845612], [77.594305, 12.843486], [77.594073, 12.841938], [77.594161, 12.841932], [77.593851, 12.840446], [77.592854, 12.837119], [77.591537, 12.834512], [77.590542, 12.834911], [77.590536, 12.835539], [77.589561, 12.835448], [77.587079, 12.833625], [77.584326, 12.835382], [77.582432, 12.836898], [77.581279, 12.83752], [77.580607, 12.837838], [77.579768, 12.838083], [77.578949, 12.838253], [77.576863, 12.838468]]]}}, {"type": "Feature", "properties": {"Corporation": "Central"}, "geometry": {"type": "Polygon", "coordinates": [[[77.565988, 12.940001], [77.565907, 12.939332], [77.563973, 12.939305], [77.564979, 12.941007], [77.565099, 12.941747], [77.564296, 12.941738], [77.564202, 12.947179], [77.564239, 12.948519], [77.563441, 12.948795], [77.562826, 12.949106], [77.562191, 12.948875], [77.561634, 12.949238], [77.561495, 12.949258], [77.561495, 12.949356], [77.562121, 12.949909], [77.562272, 12.950358], [77.562293, 12.95081], [77.561794, 12.95165], [77.561692, 12.953368], [77.561024, 12.953365], [77.560357, 12.953655], [77.559811, 12.95368], [77.558808, 12.953219], [77.558478, 12.953187], [77.558482, 12.953132], [77.556534, 12.95326], [77.555969, 12.952405], [77.55565, 12.951658], [77.556308, 12.951372], [77.55714, 12.951181], [77.557613, 12.950784], [77.557665, 12.950415], [77.558064, 12.950314], [77.558073, 12.950142], [77.556767, 12.949969], [77.556354, 12.950251], [77.554989, 12.950563], [77.554796, 12.949789], [77.554604, 12.949843], [77.554254, 12.950542], [77.553948, 12.950733], [77.553197, 12.950826], [77.552767, 12.950563], [77.551583, 12.952071], [77.551477, 12.951982], [77.551212, 12.952132], [77.550898, 12.952059], [77.549123, 12.952348], [77.549346, 12.954731], [77.549581, 12.954711], [77.548969, 12.955588], [77.546235, 12.960556], [77.545171, 12.962238], [77.545524, 12.962594], [77.545528, 12.96269], [77.544749, 12.963099], [77.54455, 12.963312], [77.544424, 12.963281], [77.543865, 12.963993], [77.544353, 12.96422], [77.54477, 12.964291], [77.546001, 12.96424], [77.546372, 12.964301], [77.547789, 12.964787], [77.548495, 12.965141], [77.550063, 12.966389], [77.551019, 12.967602], [77.551592, 12.968049], [77.555663, 12.969198], [77.556534, 12.969403], [77.557113, 12.969384], [77.557176, 12.970289], [77.557375, 12.970246], [77.557979, 12.97302], [77.55795, 12.973719], [77.557897, 12.973739], [77.558451, 12.974719], [77.558669, 12.975318], [77.558712, 12.975736], [77.554493, 12.975574], [77.555162, 12.977033], [77.555446, 12.977484], [77.556655, 12.978216], [77.557354, 12.978521], [77.558119, 12.978825], [77.558939, 12.978893], [77.559112, 12.979161], [77.559249, 12.97995], [77.560354, 12.980227], [77.56076, 12.980461], [77.560982, 12.980954], [77.561182, 12.981758], [77.561729, 12.981916], [77.561458, 12.98302], [77.561351, 12.984132], [77.561006, 12.984886], [77.561038, 12.985927], [77.560785, 12.986689], [77.561031, 12.98696], [77.561848, 12.987204], [77.56185, 12.98738], [77.561557, 12.98777], [77.56145, 12.988282], [77.563956, 12.988183], [77.56399, 12.988363], [77.565104, 12.988301], [77.565111, 12.988536], [77.567933, 12.988396], [77.567811, 12.99338], [77.56833, 12.993369], [77.567179, 12.994788], [77.5661, 12.996609], [77.566787, 12.996857], [77.568728, 12.996753], [77.571456, 12.996856], [77.571295, 13.003321], [77.572166, 13.003372], [77.572277, 13.001862], [77.572558, 13.001859], [77.572579, 13.001003], [77.573799, 13.000961], [77.573975, 12.998906], [77.576907, 12.998921], [77.577947, 12.999184], [77.578335, 12.999161], [77.578433, 12.999127], [77.578316, 12.997504], [77.579446, 12.997462], [77.579445, 12.997331], [77.580839, 12.997235], [77.582084, 12.998507], [77.582998, 12.999251], [77.584186, 12.999463], [77.584172, 12.999098], [77.584361, 12.997827], [77.586552, 12.997505], [77.587996, 12.996474], [77.589491, 12.995701], [77.589679, 12.995329], [77.594176, 12.995463], [77.594676, 12.995357], [77.596103, 12.99469], [77.596254, 12.994974], [77.595659, 12.997747], [77.593555, 13.00446], [77.593263, 13.005654], [77.593328, 13.005588], [77.594086, 13.007201], [77.594436, 13.008094], [77.594752, 13.009233], [77.594989, 13.009101], [77.595768, 13.011217], [77.596861, 13.01081], [77.605237, 13.006669], [77.60494, 13.005981], [77.604705, 13.006065], [77.603797, 13.004316], [77.60387, 13.003528], [77.602587, 13.001559], [77.602332, 13.001324], [77.601516, 13.001436], [77.60159, 13.000505], [77.601702, 13.000554], [77.601849, 12.999876], [77.602395, 12.999516], [77.603775, 12.999084], [77.604598, 12.998673], [77.6048, 12.99851], [77.605093, 12.997795], [77.606251, 12.997759], [77.606468, 12.997823], [77.606746, 12.999425], [77.606851, 12.999492], [77.607372, 12.999428], [77.608769, 12.998973], [77.605629, 12.994241], [77.603138, 12.995114], [77.600676, 12.9957], [77.596577, 12.994543], [77.596593, 12.994442], [77.601264, 12.992632], [77.601821, 12.992485], [77.602395, 12.992392], [77.602857, 12.992404], [77.603352, 12.992497], [77.603872, 12.992727], [77.604276, 12.992091], [77.60457, 12.991957], [77.604981, 12.99135], [77.605287, 12.990642], [77.605363, 12.99015], [77.606393, 12.990151], [77.607162, 12.99032], [77.607274, 12.993017], [77.607356, 12.993406], [77.607536, 12.993538], [77.608815, 12.993457], [77.610283, 12.992307], [77.611159, 12.991753], [77.611772, 12.991497], [77.612593, 12.991293], [77.613859, 12.990653], [77.614996, 12.989931], [77.617205, 12.988696], [77.61823, 12.987778], [77.619079, 12.987182], [77.619307, 12.987203], [77.619496, 12.988404], [77.619554, 12.989858], [77.619358, 12.991692], [77.618861, 12.992768], [77.617599, 12.99509], [77.617345, 12.995362], [77.61678, 12.995749], [77.617394, 12.99724], [77.617936, 12.998284], [77.618977, 12.99877], [77.619413, 12.99941], [77.620183, 12.999965], [77.624617, 12.99605], [77.625426, 12.995548], [77.626232, 12.995185], [77.627675, 12.994745], [77.629155, 12.994475], [77.628892, 12.994186], [77.629098, 12.994274], [77.631607, 12.993846], [77.63734, 12.992682], [77.637471, 12.993671], [77.63789, 12.993635], [77.637962, 12.993818], [77.638057, 12.994202], [77.637901, 12.994236], [77.637939, 12.995101], [77.640449, 12.994871], [77.640659, 12.995684], [77.641232, 12.995388], [77.641324, 12.995778], [77.642719, 12.995803], [77.64058, 12.998919], [77.639654, 13.000744], [77.638908, 13.001764], [77.638566, 13.002633], [77.636339, 13.003884], [77.637593, 13.005171], [77.638068, 13.005438], [77.63882, 13.005441], [77.640111, 13.005846], [77.641094, 13.006051], [77.644549, 13.006388], [77.645528, 13.00639], [77.645793, 13.006925], [77.646704, 13.007991], [77.647981, 13.007529], [77.647982, 13.007595], [77.648569, 13.007576], [77.649737, 13.00746], [77.650634, 13.006961], [77.651568, 13.00669], [77.651262, 13.006079], [77.652876, 13.005815], [77.654086, 13.006789], [77.656203, 13.009069], [77.658131, 13.01045], [77.659514, 13.011217], [77.661798, 13.01205], [77.662298, 13.012389], [77.662504, 13.009977], [77.662569, 13.008193], [77.663189, 13.004557], [77.663592, 12.998259], [77.66407, 12.997484], [77.662791, 12.99676], [77.663206, 12.996162], [77.664164, 12.994475], [77.665532, 12.992383], [77.66626, 12.991582], [77.666907, 12.991053], [77.668364, 12.990195], [77.668164, 12.989842], [77.667885, 12.989757], [77.667629, 12.989526], [77.66741, 12.988671], [77.667366, 12.988], [77.667492, 12.987219], [77.667526, 12.985937], [77.667817, 12.985874], [77.667973, 12.985491], [77.668884, 12.985976], [77.66948, 12.986122], [77.669796, 12.986156], [77.671283, 12.9859], [77.671353, 12.986026], [77.671712, 12.985878], [77.672139, 12.985994], [77.672933, 12.98637], [77.674924, 12.986368], [77.677719, 12.984657], [77.678242, 12.984439], [77.678472, 12.984269], [77.678591, 12.984081], [77.679068, 12.983989], [77.679842, 12.983568], [77.680014, 12.983414], [77.680439, 12.982755], [77.680381, 12.982321], [77.679751, 12.980232], [77.679653, 12.97947], [77.679505, 12.979047], [77.679338, 12.977976], [77.679314, 12.976894], [77.679378, 12.976514], [77.679299, 12.976162], [77.678916, 12.975287], [77.678116, 12.972709], [77.674491, 12.973488], [77.670295, 12.974827], [77.670101, 12.974954], [77.668847, 12.975403], [77.668135, 12.975547], [77.667314, 12.975574], [77.666516, 12.975333], [77.666611, 12.974425], [77.666902, 12.974381], [77.666914, 12.974301], [77.666792, 12.973347], [77.666842, 12.973258], [77.666732, 12.973192], [77.666661, 12.973009], [77.666965, 12.972618], [77.666573, 12.97245], [77.666512, 12.97192], [77.666158, 12.971446], [77.665531, 12.971578], [77.665335, 12.971844], [77.663057, 12.971538], [77.661984, 12.971787], [77.661566, 12.971979], [77.661518, 12.97162], [77.659596, 12.971586], [77.658637, 12.971453], [77.658735, 12.971254], [77.658104, 12.970984], [77.657702, 12.970712], [77.657274, 12.968244], [77.657952, 12.968165], [77.658492, 12.967434], [77.658461, 12.967192], [77.661645, 12.966804], [77.661965, 12.966306], [77.661787, 12.966192], [77.661646, 12.965633], [77.661559, 12.965532], [77.661069, 12.965452], [77.661, 12.965178], [77.66072, 12.965194], [77.660546, 12.964962], [77.660534, 12.9649], [77.660796, 12.964853], [77.661087, 12.964154], [77.661791, 12.964272], [77.661708, 12.962902], [77.661447, 12.962137], [77.660947, 12.962212], [77.66082, 12.961607], [77.659968, 12.961689], [77.659773, 12.961026], [77.660164, 12.96087], [77.6599, 12.960255], [77.659791, 12.960217], [77.659664, 12.959062], [77.661144, 12.959243], [77.662153, 12.959187], [77.663582, 12.958892], [77.663029, 12.956828], [77.66337, 12.955722], [77.660913, 12.955666], [77.660847, 12.955419], [77.661818, 12.955393], [77.661776, 12.954955], [77.662387, 12.954919], [77.6624, 12.954784], [77.662368, 12.954237], [77.660992, 12.954328], [77.660983, 12.952869], [77.658729, 12.952936], [77.652524, 12.952523], [77.652298, 12.951837], [77.651518, 12.95144], [77.650542, 12.950638], [77.649255, 12.949072], [77.649079, 12.948513], [77.649051, 12.947902], [77.649089, 12.947747], [77.649374, 12.947401], [77.649025, 12.946013], [77.648803, 12.946133], [77.648293, 12.9466], [77.647773, 12.947168], [77.646762, 12.947681], [77.646533, 12.947867], [77.645403, 12.949401], [77.645041, 12.949997], [77.644499, 12.951723], [77.644254, 12.953334], [77.642514, 12.953956], [77.642073, 12.953944], [77.641667, 12.95362], [77.640773, 12.953294], [77.639739, 12.951534], [77.639885, 12.95128], [77.640615, 12.950457], [77.642066, 12.949425], [77.643022, 12.948427], [77.645069, 12.946681], [77.646911, 12.945253], [77.647455, 12.944967], [77.647574, 12.944762], [77.647552, 12.944467], [77.647329, 12.944285], [77.647821, 12.943796], [77.649157, 12.94293], [77.651657, 12.941646], [77.651849, 12.941622], [77.652308, 12.941337], [77.652705, 12.941208], [77.6544, 12.940248], [77.656001, 12.940087], [77.657428, 12.940109], [77.657802, 12.939863], [77.658056, 12.939851], [77.658139, 12.937896], [77.658908, 12.937915], [77.65891, 12.938297], [77.660291, 12.938325], [77.660434, 12.938269], [77.660564, 12.93803], [77.659336, 12.93755], [77.657163, 12.936053], [77.655021, 12.934968], [77.659124, 12.929418], [77.660544, 12.9297], [77.660747, 12.929809], [77.661085, 12.929827], [77.66133, 12.929671], [77.661817, 12.928961], [77.663286, 12.928229], [77.663265, 12.927632], [77.663099, 12.927431], [77.662472, 12.926142], [77.66116, 12.921612], [77.66279, 12.921198], [77.662216, 12.918791], [77.661995, 12.918261], [77.660354, 12.916345], [77.654664, 12.92045], [77.653612, 12.920451], [77.6536, 12.920962], [77.651501, 12.921184], [77.651493, 12.923], [77.651738, 12.924221], [77.650265, 12.924386], [77.649631, 12.924641], [77.649193, 12.924695], [77.646391, 12.924483], [77.645166, 12.92446], [77.641243, 12.923368], [77.639291, 12.924058], [77.639316, 12.924823], [77.639116, 12.92567], [77.639166, 12.925843], [77.639738, 12.926032], [77.64055, 12.92594], [77.641096, 12.925967], [77.64132, 12.926164], [77.64187, 12.928211], [77.641901, 12.929255], [77.641245, 12.929449], [77.641004, 12.9294], [77.639579, 12.929686], [77.639466, 12.93025], [77.639523, 12.930556], [77.638812, 12.930904], [77.638094, 12.931844], [77.637873, 12.932326], [77.637169, 12.933254], [77.634577, 12.936123], [77.634567, 12.936237], [77.633302, 12.937341], [77.633114, 12.93759], [77.631951, 12.939881], [77.62967, 12.945075], [77.629106, 12.946163], [77.628438, 12.947172], [77.627651, 12.948588], [77.627283, 12.949068], [77.625919, 12.950152], [77.625421, 12.950339], [77.623326, 12.950812], [77.621499, 12.951664], [77.620903, 12.950283], [77.619319, 12.947451], [77.616858, 12.949246], [77.611665, 12.949307], [77.611436, 12.949021], [77.611037, 12.948966], [77.605792, 12.949798], [77.60569, 12.950116], [77.603447, 12.950521], [77.603147, 12.949602], [77.602653, 12.948439], [77.602426, 12.947356], [77.602552, 12.94552], [77.602844, 12.944096], [77.602862, 12.943161], [77.602629, 12.942139], [77.600935, 12.942495], [77.598143, 12.942938], [77.597255, 12.943187], [77.597659, 12.939954], [77.598068, 12.939044], [77.598474, 12.938402], [77.599093, 12.937778], [77.599377, 12.937607], [77.599933, 12.937428], [77.601698, 12.937089], [77.600705, 12.931517], [77.600496, 12.928295], [77.592498, 12.928475], [77.592728, 12.935275], [77.5927, 12.936205], [77.591741, 12.936339], [77.591306, 12.936494], [77.591042, 12.93667], [77.590556, 12.936128], [77.590116, 12.936321], [77.589937, 12.9355], [77.589623, 12.935524], [77.589135, 12.935811], [77.588729, 12.93555], [77.587749, 12.935166], [77.586709, 12.93587], [77.586272, 12.936399], [77.585731, 12.936604], [77.580035, 12.936775], [77.577676, 12.939689], [77.577757, 12.940596], [77.573845, 12.940628], [77.573788, 12.940695], [77.57378, 12.943681], [77.567835, 12.943602], [77.567845, 12.942803], [77.567493, 12.942269], [77.566849, 12.941529], [77.566728, 12.941148], [77.566648, 12.940176], [77.56617, 12.940182], [77.565988, 12.940001]]]}}]}