{"type": "FeatureCollection", "features": [{"type": "Feature", "properties": {"name": "Vasantapura Kere", "area_acres": 3.26, "year": "1969", "valley": "Vrishabhavati Valley", "subvalley": "VV_1", "ward_name": "5 - Kane Muneshwara Ward", "Corporation": "South"}, "geometry": {"type": "Polygon", "coordinates": [[[77.559903, 12.896344, 0.0], [77.560017, 12.896294, 0.0], [77.56015, 12.896019, 0.0], [77.5603, 12.895373, 0.0], [77.560093, 12.89503, 0.0], [77.559779, 12.89491, 0.0], [77.559492, 12.89509, 0.0], [77.559211, 12.895921, 0.0], [77.55924, 12.896061, 0.0], [77.559903, 12.896344, 0.0]]]}}, {"type": "Feature", "properties": {"name": "Yalchenahalli Kere", "area_acres": 3.54, "year": "1969", "valley": "Vrishabhavati Valley", "subvalley": "VV_1", "ward_name": "46 - Yelachenahalli", "Corporation": "South"}, "geometry": {"type": "Polygon", "coordinates": [[[77.573518, 12.901596, 0.0], [77.573161, 12.900296, 0.0], [77.57254, 12.900025, 0.0], [77.572383, 12.9003, 0.0], [77.572396, 12.900464, 0.0], [77.573073, 12.901522, 0.0], [77.573289, 12.90209, 0.0], [77.573314, 12.902398, 0.0], [77.573413, 12.902527, 0.0], [77.573521, 12.90229, 0.0], [77.573518, 12.901596, 0.0]]]}}, {"type": "Feature", "properties": {"name": "Kamakshipalya kere 2", "area_acres": 3.87, "year": "1969", "valley": "Vrishabhavati Valley", "subvalley": "VV_1", "ward_name": "45 - Shakthi Ganapathi Nagara", "Corporation": "West"}, "geometry": {"type": "Polygon", "coordinates": [[[77.528309, 12.994322, 0.0], [77.528398, 12.994303, 0.0], [77.52869, 12.994492, 0.0], [77.52894, 12.994792, 0.0], [77.529119, 12.994834, 0.0], [77.529284, 12.994742, 0.0], [77.529256, 12.994344, 0.0], [77.52912, 12.994038, 0.0], [77.529146, 12.993927, 0.0], [77.528879, 12.993365, 0.0], [77.528876, 12.99312, 0.0], [77.528286, 12.99357, 0.0], [77.527788, 12.993782, 0.0], [77.527678, 12.993905, 0.0], [77.527664, 12.993975, 0.0], [77.528309, 12.994322, 0.0]]]}}, {"type": "Feature", "properties": {"name": "Vijayanagar Chord Road lake", "area_acres": 2.56, "year": "1969", "current_use": "Vijayanagar Bus Depot", "valley": "Vrishabhavati Valley", "subvalley": "VV_1", "ward_name": "77 - Maruthi Mandira Ward", "Corporation": "West"}, "geometry": {"type": "Polygon", "coordinates": [[[77.532776, 12.965645, 0.0], [77.532962, 12.965459, 0.0], [77.533397, 12.965369, 0.0], [77.533956, 12.96539, 0.0], [77.534143, 12.96546, 0.0], [77.534336, 12.965231, 0.0], [77.534383, 12.964922, 0.0], [77.533469, 12.965049, 0.0], [77.533192, 12.964981, 0.0], [77.532904, 12.964734, 0.0], [77.532743, 12.96474, 0.0], [77.532602, 12.965463, 0.0], [77.532776, 12.965645, 0.0]]]}}, {"type": "Feature", "properties": {"name": "Kurubarahalli Kere", "area_acres": 2.65, "year": "1969", "current_use": "Kurubarahalli Kempegowda Park", "valley": "Vrishabhavati Valley", "subvalley": "VV_1", "ward_name": "44 - Shankar Mutt", "Corporation": "West"}, "geometry": {"type": "Polygon", "coordinates": [[[77.535582, 12.997075, 0.0], [77.535619, 12.997611, 0.0], [77.535396, 12.998307, 0.0], [77.535499, 12.998309, 0.0], [77.535796, 12.998085, 0.0], [77.535852, 12.997782, 0.0], [77.535933, 12.9977, 0.0], [77.536153, 12.997806, 0.0], [77.53607, 12.997983, 0.0], [77.536183, 12.998124, 0.0], [77.536322, 12.998209, 0.0], [77.536485, 12.998155, 0.0], [77.536321, 12.997667, 0.0], [77.536493, 12.997578, 0.0], [77.536555, 12.997326, 0.0], [77.536257, 12.997221, 0.0], [77.536035, 12.996993, 0.0], [77.535639, 12.99697, 0.0], [77.535582, 12.997075, 0.0]]]}}, {"type": "Feature", "properties": {"name": "Agrahara Dasarahalli Kere", "area_acres": 8.19, "year": "1969", "valley": "Vrishabhavati Valley", "subvalley": "VV_1", "ward_name": "70 - Dr Rajkumar Ward", "Corporation": "West"}, "geometry": {"type": "Polygon", "coordinates": [[[77.542699, 12.98269, 0.0], [77.543206, 12.983806, 0.0], [77.543032, 12.98487, 0.0], [77.54306, 12.985134, 0.0], [77.543186, 12.985132, 0.0], [77.543303, 12.985016, 0.0], [77.543648, 12.984238, 0.0], [77.543807, 12.984245, 0.0], [77.543943, 12.984342, 0.0], [77.544226, 12.9849, 0.0], [77.544419, 12.984931, 0.0], [77.544493, 12.984757, 0.0], [77.544407, 12.984527, 0.0], [77.54481, 12.984515, 0.0], [77.544469, 12.984032, 0.0], [77.544433, 12.983835, 0.0], [77.544503, 12.9832, 0.0], [77.544774, 12.982628, 0.0], [77.543785, 12.982902, 0.0], [77.542826, 12.982763, 0.0], [77.542699, 12.98269, 0.0]]]}}, {"type": "Feature", "properties": {"name": "Sanegoravanahalli Kere", "area_acres": 14.05, "year": "1969", "current_use": "KSPCB Buildings and Netaji Subash Chandra Bose Park", "valley": "Vrishabhavati Valley", "subvalley": "VV_1", "ward_name": "66 - Sane Guruvana Halli", "Corporation": "West"}, "geometry": {"type": "Polygon", "coordinates": [[[77.543287, 12.989941, 0.0], [77.543323, 12.989986, 0.0], [77.543227, 12.990067, 0.0], [77.543207, 12.990267, 0.0], [77.543014, 12.990612, 0.0], [77.542929, 12.991041, 0.0], [77.543054, 12.991662, 0.0], [77.543196, 12.991791, 0.0], [77.543953, 12.991762, 0.0], [77.544339, 12.991848, 0.0], [77.545219, 12.991426, 0.0], [77.545846, 12.991666, 0.0], [77.546137, 12.991708, 0.0], [77.545654, 12.991145, 0.0], [77.545439, 12.990586, 0.0], [77.545273, 12.990411, 0.0], [77.545312, 12.990154, 0.0], [77.545033, 12.989356, 0.0], [77.544834, 12.989339, 0.0], [77.544585, 12.989851, 0.0], [77.544229, 12.989988, 0.0], [77.5439, 12.989909, 0.0], [77.543488, 12.989678, 0.0], [77.543287, 12.989941, 0.0]]]}}, {"type": "Feature", "properties": {"name": "Vijayanagar Marsh Land", "area_acres": 115.3, "year": "1969", "valley": "Vrishabhavati Valley", "subvalley": "VV_1", "ward_name": "86 - Vidyaranyanagara", "Corporation": "West"}, "geometry": {"type": "Polygon", "coordinates": [[[77.547259, 12.969708, 0.0], [77.547289, 12.969617, 0.0], [77.547475, 12.969732, 0.0], [77.547955, 12.969732, 0.0], [77.547995, 12.970157, 0.0], [77.548295, 12.970895, 0.0], [77.548493, 12.971085, 0.0], [77.548854, 12.971212, 0.0], [77.549185, 12.971112, 0.0], [77.549541, 12.970725, 0.0], [77.550147, 12.970533, 0.0], [77.550501, 12.970517, 0.0], [77.55116, 12.97068, 0.0], [77.551335, 12.97117, 0.0], [77.551547, 12.971392, 0.0], [77.55164, 12.971609, 0.0], [77.551641, 12.972631, 0.0], [77.551795, 12.972671, 0.0], [77.55181, 12.972788, 0.0], [77.551916, 12.972853, 0.0], [77.552551, 12.972899, 0.0], [77.552978, 12.973184, 0.0], [77.5533, 12.973247, 0.0], [77.552708, 12.973632, 0.0], [77.552561, 12.97381, 0.0], [77.553117, 12.974518, 0.0], [77.553184, 12.974962, 0.0], [77.553295, 12.975038, 0.0], [77.553363, 12.974991, 0.0], [77.553331, 12.974884, 0.0], [77.554739, 12.974944, 0.0], [77.555715, 12.975217, 0.0], [77.555868, 12.975014, 0.0], [77.556157, 12.974912, 0.0], [77.556227, 12.974736, 0.0], [77.556239, 12.974432, 0.0], [77.55608, 12.973987, 0.0], [77.556234, 12.973573, 0.0], [77.556543, 12.973361, 0.0], [77.557417, 12.973168, 0.0], [77.557851, 12.972719, 0.0], [77.557985, 12.972047, 0.0], [77.55814, 12.971987, 0.0], [77.557989, 12.972021, 0.0], [77.55793, 12.971965, 0.0], [77.557895, 12.972056, 0.0], [77.557249, 12.972346, 0.0], [77.557237, 12.971976, 0.0], [77.556953, 12.971718, 0.0], [77.556181, 12.971661, 0.0], [77.556117, 12.971532, 0.0], [77.555578, 12.971545, 0.0], [77.555237, 12.971451, 0.0], [77.554839, 12.971029, 0.0], [77.554463, 12.970087, 0.0], [77.554106, 12.969917, 0.0], [77.553655, 12.970037, 0.0], [77.553598, 12.969968, 0.0], [77.5535, 12.969997, 0.0], [77.553277, 12.969661, 0.0], [77.55313, 12.969638, 0.0], [77.553074, 12.969508, 0.0], [77.552822, 12.969342, 0.0], [77.552724, 12.969068, 0.0], [77.552215, 12.968616, 0.0], [77.551862, 12.96852, 0.0], [77.551602, 12.968284, 0.0], [77.551469, 12.968301, 0.0], [77.551453, 12.968446, 0.0], [77.551273, 12.96847, 0.0], [77.551102, 12.968595, 0.0], [77.550856, 12.968379, 0.0], [77.550429, 12.968403, 0.0], [77.549274, 12.967141, 0.0], [77.548716, 12.966817, 0.0], [77.548131, 12.965975, 0.0], [77.548113, 12.965823, 0.0], [77.547993, 12.965751, 0.0], [77.547039, 12.966466, 0.0], [77.546559, 12.966612, 0.0], [77.546465, 12.966734, 0.0], [77.545905, 12.966652, 0.0], [77.545471, 12.966451, 0.0], [77.546477, 12.967878, 0.0], [77.546815, 12.969168, 0.0], [77.547229, 12.96956, 0.0], [77.547259, 12.969708, 0.0]]]}}, {"type": "Feature", "properties": {"name": "Oddarapalya lake", "area_acres": 4.89, "year": "1969", "current_use": "Rajajinagar (Industrial area)", "valley": "Vrishabhavati Valley", "subvalley": "VV_1", "ward_name": "70 - Dr Rajkumar Ward", "Corporation": "West"}, "geometry": {"type": "Polygon", "coordinates": [[[77.548215, 12.983731, 0.0], [77.548912, 12.983459, 0.0], [77.548918, 12.983177, 0.0], [77.549015, 12.983015, 0.0], [77.548895, 12.982904, 0.0], [77.548872, 12.982198, 0.0], [77.547945, 12.982879, 0.0], [77.547357, 12.982937, 0.0], [77.54728, 12.982999, 0.0], [77.547322, 12.98361, 0.0], [77.547486, 12.983778, 0.0], [77.548049, 12.983755, 0.0], [77.548136, 12.983632, 0.0], [77.548123, 12.983719, 0.0], [77.548215, 12.983731, 0.0]]]}}, {"type": "Feature", "properties": {"name": "Hegganahalli Kere", "area_acres": 2.52, "year": "1969", "valley": "Vrishabhavati Valley", "subvalley": "VV_1", "ward_name": "36 - Nalwadi Krishnaraja Wadiyar Ward", "Corporation": "West"}, "geometry": {"type": "Polygon", "coordinates": [[[77.551293, 13.015396, 0.0], [77.550478, 13.01579, 0.0], [77.550329, 13.016065, 0.0], [77.550397, 13.016253, 0.0], [77.550953, 13.016627, 0.0], [77.551097, 13.016613, 0.0], [77.551188, 13.016503, 0.0], [77.551236, 13.01601, 0.0], [77.551468, 13.015678, 0.0], [77.551459, 13.015469, 0.0], [77.551293, 13.015396, 0.0]]]}}, {"type": "Feature", "properties": {"name": "Ketamarnahalli Kere", "area_acres": 4.16, "year": "1969", "current_use": "Temple Complex Rajajinagar", "valley": "Vrishabhavati Valley", "subvalley": "VV_1", "ward_name": "43 - Kethamaranahalli", "Corporation": "West"}, "geometry": {"type": "Polygon", "coordinates": [[[77.55164, 13.003485, 0.0], [77.5515, 13.003726, 0.0], [77.551675, 13.003868, 0.0], [77.551816, 13.003707, 0.0], [77.551979, 13.003712, 0.0], [77.55207, 13.004039, 0.0], [77.552171, 13.004109, 0.0], [77.552343, 13.004076, 0.0], [77.552455, 13.003911, 0.0], [77.552485, 13.003453, 0.0], [77.552412, 13.002922, 0.0], [77.552313, 13.002829, 0.0], [77.552353, 13.00278, 0.0], [77.552172, 13.002369, 0.0], [77.551965, 13.002191, 0.0], [77.551739, 13.002281, 0.0], [77.551552, 13.00283, 0.0], [77.551328, 13.002949, 0.0], [77.551226, 13.003158, 0.0], [77.551297, 13.003263, 0.0], [77.551542, 13.003234, 0.0], [77.551645, 13.003317, 0.0], [77.55164, 13.003485, 0.0]], [[77.552313, 13.002829, 0.0], [77.552305, 13.002828, 0.0], [77.552259, 13.002804, 0.0], [77.552313, 13.002829, 0.0]]]}}, {"type": "Feature", "properties": {"name": "Agasana Tank", "area_acres": 21.17, "year": "1897", "current_use": "Mariyappna Palya Park", "valley": "Vrishabhavati Valley", "subvalley": "VV_1", "ward_name": "60 - Prakash Nagara", "Corporation": "West"}, "geometry": {"type": "Polygon", "coordinates": [[[77.554878, 12.998651, 0.0], [77.555103, 12.998732, 0.0], [77.555629, 12.998659, 0.0], [77.556073, 12.998875, 0.0], [77.556467, 12.998772, 0.0], [77.557119, 12.998819, 0.0], [77.557294, 12.998475, 0.0], [77.557251, 12.998058, 0.0], [77.557363, 12.997646, 0.0], [77.557358, 12.997228, 0.0], [77.557662, 12.996617, 0.0], [77.558298, 12.995927, 0.0], [77.55753, 12.995866, 0.0], [77.556572, 12.996073, 0.0], [77.556122, 12.996085, 0.0], [77.555851, 12.996073, 0.0], [77.555182, 12.995867, 0.0], [77.555349, 12.996245, 0.0], [77.555376, 12.996625, 0.0], [77.555124, 12.996977, 0.0], [77.554639, 12.997301, 0.0], [77.554518, 12.997583, 0.0], [77.554608, 12.998015, 0.0], [77.554937, 12.998384, 0.0], [77.554878, 12.998651, 0.0]]]}}, {"type": "Feature", "properties": {"name": "Tumkur Kere", "area_acres": 5.77, "year": "1897", "current_use": "Mysore Lamps", "valley": "Vrishabhavati Valley", "subvalley": "VV_1", "ward_name": "53 - Malleshwaram", "Corporation": "West"}, "geometry": {"type": "Polygon", "coordinates": [[[77.557294, 13.018183, 0.0], [77.557335, 13.017681, 0.0], [77.557261, 13.016511, 0.0], [77.557382, 13.016221, 0.0], [77.558104, 13.01553, 0.0], [77.558351, 13.015422, 0.0], [77.559391, 13.015624, 0.0], [77.559185, 13.015125, 0.0], [77.558596, 13.015191, 0.0], [77.558349, 13.015285, 0.0], [77.55758, 13.015824, 0.0], [77.557228, 13.016269, 0.0], [77.55638, 13.016718, 0.0], [77.555735, 13.017317, 0.0], [77.555767, 13.017423, 0.0], [77.55614, 13.01745, 0.0], [77.556762, 13.017687, 0.0], [77.55709, 13.017911, 0.0], [77.557294, 13.018183, 0.0]]]}}, {"type": "Feature", "properties": {"name": "Ramashetty Palya kere", "area_acres": 9.8, "year": "1969", "current_use": "Kanteerva Sangolli Rayanna park", "valley": "Vrishabhavati Valley", "subvalley": "VV_1", "ward_name": "55 - Subramanyanagara", "Corporation": "West"}, "geometry": {"type": "Polygon", "coordinates": [[[77.558852, 13.006337, 0.0], [77.558594, 13.006362, 0.0], [77.558425, 13.006458, 0.0], [77.558001, 13.006841, 0.0], [77.557966, 13.006952, 0.0], [77.557106, 13.007014, 0.0], [77.556996, 13.007078, 0.0], [77.557123, 13.007586, 0.0], [77.557322, 13.00779, 0.0], [77.558405, 13.007715, 0.0], [77.558607, 13.007806, 0.0], [77.558438, 13.007929, 0.0], [77.55752, 13.00802, 0.0], [77.557399, 13.008116, 0.0], [77.557432, 13.008238, 0.0], [77.557704, 13.008493, 0.0], [77.55767, 13.009364, 0.0], [77.557763, 13.00969, 0.0], [77.557869, 13.009801, 0.0], [77.557948, 13.009775, 0.0], [77.558046, 13.009345, 0.0], [77.558334, 13.009242, 0.0], [77.558582, 13.00901, 0.0], [77.558656, 13.008625, 0.0], [77.558871, 13.008315, 0.0], [77.558801, 13.007473, 0.0], [77.558867, 13.007227, 0.0], [77.558693, 13.006883, 0.0], [77.55893, 13.006445, 0.0], [77.558852, 13.006337, 0.0]]]}}, {"type": "Feature", "properties": {"name": "Gangashetty Kere", "area_acres": 6.25, "year": "1897", "current_use": "Minerva Mills", "valley": "Vrishabhavati Valley", "subvalley": "VV_1", "ward_name": "56 - Gopalpura", "Corporation": "Central"}, "geometry": {"type": "Polygon", "coordinates": [[[77.559471, 12.980304, 0.0], [77.559703, 12.980553, 0.0], [77.560162, 12.980667, 0.0], [77.560552, 12.98061, 0.0], [77.560914, 12.980435, 0.0], [77.561305, 12.980392, 0.0], [77.561195, 12.980261, 0.0], [77.561055, 12.979733, 0.0], [77.560904, 12.979457, 0.0], [77.560832, 12.978982, 0.0], [77.560434, 12.978299, 0.0], [77.56041, 12.978603, 0.0], [77.560014, 12.979334, 0.0], [77.55987, 12.979785, 0.0], [77.559471, 12.980304, 0.0]]]}}, {"type": "Feature", "properties": {"name": "Agrahar Hosa Kere", "area_acres": 19.68, "year": "1969", "current_use": "Binny Mill Police Quarters and Grounds", "valley": "Vrishabhavati Valley", "subvalley": "VV_1", "ward_name": "47 - IPD Salappa Ward", "Corporation": "Central"}, "geometry": {"type": "Polygon", "coordinates": [[[77.562182, 12.965333, 0.0], [77.56293, 12.96649, 0.0], [77.5632, 12.967387, 0.0], [77.563648, 12.96781, 0.0], [77.563897, 12.968164, 0.0], [77.564303, 12.968408, 0.0], [77.564417, 12.968726, 0.0], [77.564748, 12.96859, 0.0], [77.565043, 12.968029, 0.0], [77.565238, 12.967833, 0.0], [77.565663, 12.967619, 0.0], [77.566532, 12.96744, 0.0], [77.566191, 12.966636, 0.0], [77.565799, 12.966198, 0.0], [77.565601, 12.9662, 0.0], [77.565061, 12.966733, 0.0], [77.564784, 12.96672, 0.0], [77.564656, 12.966612, 0.0], [77.56435, 12.966057, 0.0], [77.563858, 12.965984, 0.0], [77.5638, 12.965659, 0.0], [77.563671, 12.965458, 0.0], [77.563124, 12.965347, 0.0], [77.562844, 12.965063, 0.0], [77.562654, 12.965065, 0.0], [77.562513, 12.965206, 0.0], [77.562182, 12.965333, 0.0]]]}}, {"type": "Feature", "properties": {"name": "Agrahar - 2", "area_acres": 6.78, "year": "1897", "valley": "Vrishabhavati Valley", "subvalley": "VV_1", "ward_name": "56 - Gopalpura", "Corporation": "Central"}, "geometry": {"type": "Polygon", "coordinates": [[[77.564551, 12.979653, 0.0], [77.564965, 12.979239, 0.0], [77.565448, 12.979076, 0.0], [77.566081, 12.979056, 0.0], [77.566621, 12.979183, 0.0], [77.567038, 12.979033, 0.0], [77.566714, 12.978984, 0.0], [77.566549, 12.978721, 0.0], [77.566519, 12.978417, 0.0], [77.566598, 12.978192, 0.0], [77.566502, 12.978034, 0.0], [77.566659, 12.977636, 0.0], [77.566445, 12.977757, 0.0], [77.566028, 12.977841, 0.0], [77.565623, 12.977713, 0.0], [77.565473, 12.977569, 0.0], [77.565207, 12.977915, 0.0], [77.564851, 12.978659, 0.0], [77.564788, 12.979056, 0.0], [77.564551, 12.979653, 0.0]]]}}, {"type": "Feature", "properties": {"name": "Jakraya lake", "area_acres": 11.02, "year": "1870", "current_use": "Krishna Flour Mills", "valley": "Vrishabhavati Valley", "subvalley": "VV_1", "ward_name": "62 - Swatantra Palya Ward", "Corporation": "Central"}, "geometry": {"type": "Polygon", "coordinates": [[[77.570261, 12.989281, 0.0], [77.570363, 12.989388, 0.0], [77.570523, 12.989394, 0.0], [77.570689, 12.989236, 0.0], [77.570907, 12.98916, 0.0], [77.571222, 12.988778, 0.0], [77.571625, 12.988708, 0.0], [77.57196, 12.987806, 0.0], [77.57195, 12.987674, 0.0], [77.571609, 12.987151, 0.0], [77.571632, 12.986969, 0.0], [77.571824, 12.986827, 0.0], [77.572177, 12.986799, 0.0], [77.572309, 12.986575, 0.0], [77.572264, 12.986353, 0.0], [77.572053, 12.986273, 0.0], [77.571667, 12.986277, 0.0], [77.57149, 12.986188, 0.0], [77.571378, 12.985966, 0.0], [77.571007, 12.985863, 0.0], [77.570846, 12.985733, 0.0], [77.570663, 12.985833, 0.0], [77.570773, 12.986796, 0.0], [77.570651, 12.987943, 0.0], [77.570261, 12.989281, 0.0]]]}}, {"type": "Feature", "properties": {"name": "Dharmambudh Tank", "area_acres": 49.93, "year": "1870", "current_use": "Majestic Bus Stand", "valley": "Koramangala Challaghatta Valley", "subvalley": "VV_1", "ward_name": "59 - Nehru Nagar", "Corporation": "Central"}, "geometry": {"type": "Polygon", "coordinates": [[[77.571836, 12.980416, 0.0], [77.572874, 12.980545, 0.0], [77.573251, 12.979654, 0.0], [77.574852, 12.977277, 0.0], [77.575027, 12.976568, 0.0], [77.574653, 12.974738, 0.0], [77.572907, 12.974855, 0.0], [77.572418, 12.97479, 0.0], [77.57097, 12.975203, 0.0], [77.571136, 12.97557, 0.0], [77.571361, 12.979683, 0.0], [77.571836, 12.980416, 0.0]]]}}, {"type": "Feature", "properties": {"name": "Unknown", "area_acres": 32.97, "year": "1854", "valley": "Vrishabhavati Valley", "subvalley": "VV_1", "ward_name": "59 - Nehru Nagar", "Corporation": "Central"}, "geometry": {"type": "Polygon", "coordinates": [[[77.575659, 12.991091, 0.0], [77.577134, 12.98995, 0.0], [77.578118, 12.989595, 0.0], [77.578846, 12.989456, 0.0], [77.579913, 12.989405, 0.0], [77.580775, 12.989079, 0.0], [77.58095, 12.988944, 0.0], [77.580514, 12.988657, 0.0], [77.579837, 12.988531, 0.0], [77.578843, 12.987865, 0.0], [77.578123, 12.987474, 0.0], [77.577863, 12.987238, 0.0], [77.577533, 12.986685, 0.0], [77.576891, 12.986002, 0.0], [77.576656, 12.98554, 0.0], [77.576249, 12.985359, 0.0], [77.575992, 12.985375, 0.0], [77.575917, 12.985959, 0.0], [77.576327, 12.987718, 0.0], [77.576335, 12.988433, 0.0], [77.576102, 12.98947, 0.0], [77.575679, 12.990428, 0.0], [77.57547, 12.99112, 0.0], [77.575659, 12.991091, 0.0]]]}}, {"type": "Feature", "properties": {"name": "Kamakshipalya Kere", "area_acres": 5.97, "year": "1969", "valley": "Vrishabhavati Valley", "subvalley": "VV_1", "ward_name": "68 - Kamakshipalya", "Corporation": "West"}, "geometry": {"type": "Polygon", "coordinates": [[[77.528924, 12.983708, 0.0], [77.529228, 12.984669, 0.0], [77.529229, 12.985616, 0.0], [77.529357, 12.98578, 0.0], [77.529584, 12.985811, 0.0], [77.529742, 12.985718, 0.0], [77.529865, 12.985412, 0.0], [77.530153, 12.983976, 0.0], [77.530236, 12.983835, 0.0], [77.530678, 12.983501, 0.0], [77.530665, 12.983097, 0.0], [77.53035, 12.983455, 0.0], [77.52994, 12.983624, 0.0], [77.529663, 12.983667, 0.0], [77.529133, 12.983582, 0.0], [77.528924, 12.983708, 0.0]]]}}, {"type": "Feature", "properties": {"name": "Mudalapalya Kere", "area_acres": 2.15, "year": "1969", "valley": "Vrishabhavati Valley", "subvalley": "VV_1", "ward_name": "77 - Maruthi Mandira Ward", "Corporation": "West"}, "geometry": {"type": "Polygon", "coordinates": [[[77.527566, 12.970723, 0.0], [77.527652, 12.97057, 0.0], [77.527641, 12.970281, 0.0], [77.527747, 12.96993, 0.0], [77.528519, 12.96947, 0.0], [77.528413, 12.969396, 0.0], [77.52801, 12.969355, 0.0], [77.527734, 12.969123, 0.0], [77.527583, 12.969524, 0.0], [77.527175, 12.969878, 0.0], [77.527207, 12.97017, 0.0], [77.527566, 12.970723, 0.0]]]}}, {"type": "Feature", "properties": {"name": "Mudalapalya - 2", "area_acres": 0.67, "year": "1969", "valley": "Vrishabhavati Valley", "subvalley": "VV_1", "ward_name": "73 - Dr. Vishnuvardhan Ward", "Corporation": "West"}, "geometry": {"type": "Polygon", "coordinates": [[[77.530327, 12.973666, 0.0], [77.530612, 12.973593, 0.0], [77.530668, 12.973349, 0.0], [77.530498, 12.973096, 0.0], [77.530304, 12.97304, 0.0], [77.530151, 12.972889, 0.0], [77.530327, 12.973666, 0.0]]]}}, {"type": "Feature", "properties": {"name": "Goraguntepalya kere", "area_acres": 0.96, "year": "1969", "valley": "Vrishabhavati Valley", "subvalley": "VV_1", "ward_name": "35 - Goraguntepalya", "Corporation": "West"}, "geometry": {"type": "Polygon", "coordinates": [[[77.537198, 13.02334, 0.0], [77.537119, 13.02356, 0.0], [77.537613, 13.023756, 0.0], [77.537768, 13.02375, 0.0], [77.537956, 13.023658, 0.0], [77.537967, 13.023246, 0.0], [77.537198, 13.02334, 0.0]]]}}, {"type": "Feature", "properties": {"name": "Reservoir", "area_acres": 2.08, "year": "1969", "valley": "Vrishabhavati Valley", "subvalley": "VV_1", "ward_name": "4 - Sampangirama Nagar", "Corporation": "Central"}, "geometry": {"type": "Polygon", "coordinates": [[[77.584495, 12.982932, 0.0], [77.584519, 12.983753, 0.0], [77.585378, 12.983668, 0.0], [77.585385, 12.982886, 0.0], [77.584495, 12.982932, 0.0]]]}}, {"type": "Feature", "properties": {"name": "Arehalli - 2", "area_acres": 0.87, "year": "1969", "valley": "Vrishabhavati Valley", "subvalley": "VV_1", "ward_name": "51 - Subramanyapura", "Corporation": "South"}, "geometry": {"type": "Polygon", "coordinates": [[[77.534591, 12.914544, 0.0], [77.534637, 12.914472, 0.0], [77.534478, 12.914254, 0.0], [77.534445, 12.914054, 0.0], [77.534036, 12.913874, 0.0], [77.534028, 12.91455, 0.0], [77.534591, 12.914544, 0.0]]]}}, {"type": "Feature", "properties": {"name": "Bovimaranahalli\nKere", "area_acres": 16.43, "year": "1969", "valley": "Vrishabhavati Valley", "subvalley": "VV_1", "ward_name": "22 - Bangarappa Nagara", "Corporation": "West"}, "geometry": {"type": "Polygon", "coordinates": [[[77.521882, 12.915496, 0.0], [77.522387, 12.915928, 0.0], [77.522878, 12.91653, 0.0], [77.523197, 12.917148, 0.0], [77.523331, 12.917591, 0.0], [77.523639, 12.917633, 0.0], [77.523868, 12.91755, 0.0], [77.524044, 12.917233, 0.0], [77.525096, 12.916194, 0.0], [77.525186, 12.915992, 0.0], [77.52536, 12.915938, 0.0], [77.525292, 12.915463, 0.0], [77.525218, 12.915375, 0.0], [77.525231, 12.915144, 0.0], [77.52489, 12.915129, 0.0], [77.524753, 12.914848, 0.0], [77.524603, 12.914762, 0.0], [77.523645, 12.914874, 0.0], [77.522975, 12.915247, 0.0], [77.522603, 12.915331, 0.0], [77.521762, 12.915205, 0.0], [77.521521, 12.9153, 0.0], [77.521882, 12.915496, 0.0]]]}}, {"type": "Feature", "properties": {"name": "Arehalli Kere", "area_acres": 1.21, "year": "1969", "valley": "Vrishabhavati Valley", "subvalley": "VV_1", "ward_name": "51 - Subramanyapura", "Corporation": "South"}, "geometry": {"type": "Polygon", "coordinates": [[[77.531939, 12.91526, 0.0], [77.532126, 12.915243, 0.0], [77.532309, 12.91475, 0.0], [77.532241, 12.914687, 0.0], [77.531905, 12.914765, 0.0], [77.531529, 12.915003, 0.0], [77.53133, 12.915374, 0.0], [77.5318, 12.915444, 0.0], [77.531939, 12.91526, 0.0]]]}}, {"type": "Feature", "properties": {"name": "Karisandra lake", "area_acres": 1.53, "year": "1969", "valley": "Vrishabhavati Valley", "subvalley": "VV_1", "ward_name": "107 - Dharmagiri Ward", "Corporation": "West"}, "geometry": {"type": "Polygon", "coordinates": [[[77.571912, 12.919821, 0.0], [77.572024, 12.919556, 0.0], [77.572052, 12.918836, 0.0], [77.571894, 12.918623, 0.0], [77.571727, 12.918564, 0.0], [77.571551, 12.918661, 0.0], [77.571514, 12.918786, 0.0], [77.571687, 12.919791, 0.0], [77.571912, 12.919821, 0.0]]]}}, {"type": "Feature", "properties": {"name": "Ittamadu Kere", "area_acres": 11.33, "year": "1969", "valley": "Vrishabhavati Valley", "subvalley": "VV_1", "ward_name": "110 - Chikkalasandra", "Corporation": "West"}, "geometry": {"type": "Polygon", "coordinates": [[[77.545377, 12.919926, 0.0], [77.545354, 12.920157, 0.0], [77.545861, 12.920424, 0.0], [77.54604, 12.92076, 0.0], [77.546386, 12.920872, 0.0], [77.546697, 12.920869, 0.0], [77.54704, 12.92075, 0.0], [77.547699, 12.920257, 0.0], [77.548027, 12.920295, 0.0], [77.548735, 12.920626, 0.0], [77.548937, 12.920624, 0.0], [77.549162, 12.9204, 0.0], [77.549158, 12.920062, 0.0], [77.549248, 12.91983, 0.0], [77.549079, 12.919667, 0.0], [77.548413, 12.919468, 0.0], [77.547989, 12.919109, 0.0], [77.547652, 12.918981, 0.0], [77.547328, 12.918498, 0.0], [77.547261, 12.918573, 0.0], [77.546892, 12.918601, 0.0], [77.546913, 12.918971, 0.0], [77.547196, 12.919537, 0.0], [77.547158, 12.919933, 0.0], [77.54679, 12.920101, 0.0], [77.546437, 12.92008, 0.0], [77.546091, 12.919968, 0.0], [77.545377, 12.919926, 0.0]]]}}, {"type": "Feature", "properties": {"name": "Kadirenehalli Kere", "area_acres": 8.41, "year": "1969", "current_use": "Regional Institute of Cooperative Management", "valley": "Vrishabhavati Valley", "subvalley": "VV_1", "ward_name": "2 - Kadirenahalli", "Corporation": "South"}, "geometry": {"type": "Polygon", "coordinates": [[[77.558716, 12.922011, 0.0], [77.559711, 12.921995, 0.0], [77.560695, 12.922411, 0.0], [77.5608, 12.922427, 0.0], [77.560843, 12.922361, 0.0], [77.560796, 12.922014, 0.0], [77.560687, 12.921828, 0.0], [77.560283, 12.921773, 0.0], [77.560046, 12.921645, 0.0], [77.560019, 12.92105, 0.0], [77.5594, 12.920782, 0.0], [77.559229, 12.920638, 0.0], [77.558899, 12.920121, 0.0], [77.558525, 12.919977, 0.0], [77.558346, 12.919821, 0.0], [77.55821, 12.919969, 0.0], [77.558222, 12.920222, 0.0], [77.558611, 12.92175, 0.0], [77.558716, 12.922011, 0.0]]]}}, {"type": "Feature", "properties": {"name": "Thyagaraja Nagara Kere", "area_acres": 29.9, "year": "1969", "current_use": "Chennamanna Kere Grounds and Residential layouts", "valley": "Vrishabhavati Valley", "subvalley": "VV_1", "ward_name": "104 - Thyagarajnagar", "Corporation": "West"}, "geometry": {"type": "MultiPolygon", "coordinates": [[[[77.564259, 12.933686, 0.0], [77.564483, 12.93342, 0.0], [77.564506, 12.933197, 0.0], [77.564279, 12.932326, 0.0], [77.564239, 12.931708, 0.0], [77.564127, 12.931429, 0.0], [77.564644, 12.93107, 0.0], [77.564962, 12.93096, 0.0], [77.565557, 12.930855, 0.0], [77.566347, 12.930839, 0.0], [77.566589, 12.930746, 0.0], [77.566655, 12.930572, 0.0], [77.566499, 12.930129, 0.0], [77.566798, 12.929772, 0.0], [77.566828, 12.929475, 0.0], [77.566534, 12.929412, 0.0], [77.566173, 12.929489, 0.0], [77.565988, 12.929425, 0.0], [77.56493, 12.929493, 0.0], [77.56421, 12.929723, 0.0], [77.563876, 12.929907, 0.0], [77.563641, 12.929935, 0.0], [77.56327, 12.929848, 0.0], [77.563244, 12.929732, 0.0], [77.56253, 12.929706, 0.0], [77.562192, 12.929487, 0.0], [77.562124, 12.93032, 0.0], [77.562169, 12.931366, 0.0], [77.562426, 12.931833, 0.0], [77.562662, 12.931971, 0.0], [77.563147, 12.932576, 0.0], [77.56325, 12.932806, 0.0], [77.563279, 12.933135, 0.0], [77.563778, 12.933501, 0.0], [77.563918, 12.934068, 0.0], [77.564054, 12.934182, 0.0], [77.564146, 12.934148, 0.0], [77.564259, 12.933686, 0.0]]], [[[77.556638, 12.92978, 0.0], [77.556645, 12.929733, 0.0], [77.556645, 12.929725, 0.0], [77.556638, 12.92978, 0.0]]]]}}, {"type": "Feature", "properties": {"name": "Avalhalli Kere", "area_acres": 2.88, "year": "1969", "valley": "Vrishabhavati Valley", "subvalley": "VV_1", "ward_name": "95 - Swamy Vivekananda Ward", "Corporation": "West"}, "geometry": {"type": "Polygon", "coordinates": [[[77.54814, 12.934992, 0.0], [77.548499, 12.934708, 0.0], [77.54918, 12.934442, 0.0], [77.54909, 12.934262, 0.0], [77.548778, 12.934133, 0.0], [77.548634, 12.933994, 0.0], [77.548568, 12.933711, 0.0], [77.548125, 12.933896, 0.0], [77.547622, 12.934, 0.0], [77.54814, 12.934992, 0.0]]]}}, {"type": "Feature", "properties": {"name": "Gundopanth lake", "area_acres": 2.67, "year": "1969", "valley": "Vrishabhavati Valley", "subvalley": "VV_1", "ward_name": "22 - Bangarappa Nagara", "Corporation": "West"}, "geometry": {"type": "Polygon", "coordinates": [[[77.528195, 12.93643, 0.0], [77.528348, 12.936586, 0.0], [77.528529, 12.937045, 0.0], [77.528629, 12.937811, 0.0], [77.528738, 12.937834, 0.0], [77.529264, 12.937458, 0.0], [77.529969, 12.937419, 0.0], [77.529933, 12.937163, 0.0], [77.529167, 12.937056, 0.0], [77.528642, 12.936583, 0.0], [77.528195, 12.93643, 0.0]]]}}, {"type": "Feature", "properties": {"name": "Karanji Tank", "area_acres": 77.09, "year": "1870", "current_use": "National College Grounds and School", "valley": "Vrishabhavati Valley", "subvalley": "VV_1", "ward_name": "42 - Sunkenahalli", "Corporation": "Central"}, "geometry": {"type": "Polygon", "coordinates": [[[77.57244, 12.956703, 0.0], [77.573175, 12.956472, 0.0], [77.574685, 12.95644, 0.0], [77.574696, 12.954709, 0.0], [77.574402, 12.954006, 0.0], [77.574056, 12.95194, 0.0], [77.575556, 12.950041, 0.0], [77.575839, 12.949789, 0.0], [77.576563, 12.949443, 0.0], [77.576951, 12.949454, 0.0], [77.577203, 12.949317, 0.0], [77.577255, 12.948688, 0.0], [77.576206, 12.948646, 0.0], [77.574801, 12.948352, 0.0], [77.572807, 12.948457, 0.0], [77.570793, 12.95001, 0.0], [77.571979, 12.953388, 0.0], [77.572178, 12.956126, 0.0], [77.57244, 12.956703, 0.0]]]}}, {"type": "Feature", "properties": {"name": "Laripalya Kere", "area_acres": 10.6, "year": "1969", "current_use": "Kanaka Bhavan Temple Complex", "valley": "Vrishabhavati Valley", "subvalley": "VV_1", "ward_name": "79 - Nagarbhavi", "Corporation": "West"}, "geometry": {"type": "Polygon", "coordinates": [[[77.522726, 12.950134, 0.0], [77.522924, 12.950463, 0.0], [77.523453, 12.951856, 0.0], [77.523712, 12.951953, 0.0], [77.52455, 12.951802, 0.0], [77.524703, 12.951713, 0.0], [77.524613, 12.950617, 0.0], [77.524708, 12.950237, 0.0], [77.524982, 12.949946, 0.0], [77.524884, 12.949634, 0.0], [77.524785, 12.949643, 0.0], [77.524839, 12.949702, 0.0], [77.524586, 12.949649, 0.0], [77.524108, 12.949809, 0.0], [77.523712, 12.949842, 0.0], [77.522492, 12.949717, 0.0], [77.522368, 12.949803, 0.0], [77.522726, 12.950134, 0.0]]]}}, {"type": "Feature", "properties": {"name": "Guthalli Kere", "area_acres": 2.76, "year": "1897", "valley": "Vrishabhavati Valley", "subvalley": "VV_1", "ward_name": "43 - Devaraj Urs Ward", "Corporation": "Central"}, "geometry": {"type": "Polygon", "coordinates": [[[77.566623, 12.949767, 0.0], [77.5668, 12.94997, 0.0], [77.567537, 12.950227, 0.0], [77.56834, 12.950299, 0.0], [77.568467, 12.950218, 0.0], [77.568478, 12.950007, 0.0], [77.568382, 12.949849, 0.0], [77.568193, 12.949792, 0.0], [77.567789, 12.949842, 0.0], [77.56756, 12.949798, 0.0], [77.567383, 12.949687, 0.0], [77.56728, 12.949477, 0.0], [77.567158, 12.949432, 0.0], [77.567035, 12.949248, 0.0], [77.566934, 12.949229, 0.0], [77.566623, 12.949767, 0.0]]]}}, {"type": "Feature", "properties": {"name": "Timberyard Kere", "area_acres": 9.63, "year": "1969", "current_use": "Timberyard layout", "valley": "Vrishabhavati Valley", "subvalley": "VV_1", "ward_name": "100 - Srinagar", "Corporation": "West"}, "geometry": {"type": "Polygon", "coordinates": [[[77.548917, 12.951263, 0.0], [77.548793, 12.951394, 0.0], [77.54879, 12.951556, 0.0], [77.548934, 12.951718, 0.0], [77.549192, 12.951708, 0.0], [77.549365, 12.952652, 0.0], [77.549555, 12.952659, 0.0], [77.550062, 12.952508, 0.0], [77.550941, 12.952092, 0.0], [77.550855, 12.951939, 0.0], [77.55085, 12.951367, 0.0], [77.550344, 12.950819, 0.0], [77.550414, 12.950757, 0.0], [77.550345, 12.950726, 0.0], [77.550353, 12.95063, 0.0], [77.550577, 12.95039, 0.0], [77.550598, 12.95024, 0.0], [77.55001, 12.949711, 0.0], [77.549903, 12.949711, 0.0], [77.549732, 12.949858, 0.0], [77.54961, 12.950182, 0.0], [77.549766, 12.950592, 0.0], [77.549772, 12.951029, 0.0], [77.549466, 12.951127, 0.0], [77.5494, 12.951074, 0.0], [77.549, 12.951305, 0.0], [77.548917, 12.951263, 0.0]]]}}, {"type": "Feature", "properties": {"name": "Guddalahalli Kere", "area_acres": 1.7, "year": "1969", "valley": "Vrishabhavati Valley", "subvalley": "VV_1", "ward_name": "50 - JJR Nagara", "Corporation": "Central"}, "geometry": {"type": "Polygon", "coordinates": [[[77.551557, 12.959097, 0.0], [77.551735, 12.958831, 0.0], [77.552264, 12.958838, 0.0], [77.552209, 12.958019, 0.0], [77.551462, 12.958059, 0.0], [77.551588, 12.958474, 0.0], [77.551557, 12.959097, 0.0]]]}}, {"type": "Feature", "properties": {"name": "Medarlingenhalli", "area_acres": 2.89, "year": "1897", "valley": "Hebbal Nagawara Valley", "subvalley": "HN_1", "ward_name": "50 - Sadashiva Nagara", "Corporation": "West"}, "geometry": {"type": "Polygon", "coordinates": [[[77.57148, 13.022298, 0.0], [77.571652, 13.022479, 0.0], [77.57221, 13.022443, 0.0], [77.572615, 13.022644, 0.0], [77.572714, 13.022476, 0.0], [77.572688, 13.022263, 0.0], [77.572327, 13.021811, 0.0], [77.572199, 13.021432, 0.0], [77.57202, 13.021335, 0.0], [77.571672, 13.021399, 0.0], [77.571623, 13.021954, 0.0], [77.57148, 13.022298, 0.0]]]}}, {"type": "Feature", "properties": {"name": "Medarlingenhalli Kere", "area_acres": 2.89, "year": "1897", "valley": "Hebbal Nagawara Valley", "subvalley": "HN_1", "ward_name": "50 - Sadashiva Nagara", "Corporation": "West"}, "geometry": {"type": "Polygon", "coordinates": [[[77.57148, 13.022298, 0.0], [77.571652, 13.022479, 0.0], [77.57221, 13.022443, 0.0], [77.572615, 13.022644, 0.0], [77.572714, 13.022476, 0.0], [77.572688, 13.022263, 0.0], [77.572327, 13.021811, 0.0], [77.572199, 13.021432, 0.0], [77.57202, 13.021335, 0.0], [77.571672, 13.021399, 0.0], [77.571623, 13.021954, 0.0], [77.57148, 13.022298, 0.0]]]}}, {"type": "Feature", "properties": {"name": "Kodugondanahalli", "area_acres": 24.64, "year": "1969", "current_use": "Dr Ambedkar Medical College", "valley": "Hebbal Nagawara Valley", "subvalley": "HN_1", "ward_name": "26 - Samadhana Nagar", "Corporation": "North"}, "geometry": {"type": "Polygon", "coordinates": [[[77.614362, 13.026895, 0.0], [77.614614, 13.026876, 0.0], [77.614813, 13.026561, 0.0], [77.614434, 13.025757, 0.0], [77.614171, 13.024705, 0.0], [77.614186, 13.024474, 0.0], [77.614502, 13.024191, 0.0], [77.61482, 13.024039, 0.0], [77.616097, 13.02406, 0.0], [77.616483, 13.02399, 0.0], [77.616899, 13.02359, 0.0], [77.616529, 13.023544, 0.0], [77.616393, 13.023447, 0.0], [77.615839, 13.023452, 0.0], [77.615636, 13.023372, 0.0], [77.61538, 13.022996, 0.0], [77.614773, 13.022755, 0.0], [77.614571, 13.02279, 0.0], [77.614788, 13.022623, 0.0], [77.61482, 13.022425, 0.0], [77.614463, 13.022082, 0.0], [77.614142, 13.021921, 0.0], [77.613822, 13.021891, 0.0], [77.613636, 13.021728, 0.0], [77.613248, 13.021617, 0.0], [77.612912, 13.02162, 0.0], [77.61241, 13.021856, 0.0], [77.612345, 13.022005, 0.0], [77.612416, 13.022366, 0.0], [77.612603, 13.022628, 0.0], [77.612623, 13.022908, 0.0], [77.612327, 13.02357, 0.0], [77.612783, 13.02378, 0.0], [77.613277, 13.024368, 0.0], [77.613808, 13.025319, 0.0], [77.614358, 13.026532, 0.0], [77.614362, 13.026895, 0.0]]]}}, {"type": "Feature", "properties": {"name": "Geddalahalli lake", "area_acres": 20.65, "year": "1969", "current_use": "RMV 2nd stage 1st block", "valley": "Hebbal Nagawara Valley", "subvalley": "HN_1", "ward_name": "59 - Geddalahalli", "Corporation": "North"}, "geometry": {"type": "Polygon", "coordinates": [[[77.572711, 13.029245, 0.0], [77.574031, 13.02953, 0.0], [77.574394, 13.029803, 0.0], [77.574846, 13.030684, 0.0], [77.574976, 13.030863, 0.0], [77.575064, 13.030866, 0.0], [77.575377, 13.029948, 0.0], [77.575571, 13.0298, 0.0], [77.575439, 13.029579, 0.0], [77.575463, 13.029378, 0.0], [77.575952, 13.028359, 0.0], [77.57611, 13.027272, 0.0], [77.576044, 13.026868, 0.0], [77.576133, 13.026505, 0.0], [77.575481, 13.026768, 0.0], [77.574728, 13.026887, 0.0], [77.574538, 13.026986, 0.0], [77.573759, 13.027004, 0.0], [77.573969, 13.027314, 0.0], [77.574016, 13.027585, 0.0], [77.573793, 13.028336, 0.0], [77.573558, 13.028709, 0.0], [77.572828, 13.029094, 0.0], [77.572711, 13.029245, 0.0]]]}}, {"type": "Feature", "properties": {"name": "Nagashettihalli lake", "area_acres": 36.8, "year": "1969", "current_use": "RMV 2nd stage 2nd block", "valley": "Hebbal Nagawara Valley", "subvalley": "HN_1", "ward_name": "58 - Nagashettyhalli", "Corporation": "North"}, "geometry": {"type": "Polygon", "coordinates": [[[77.567735, 13.036976, 0.0], [77.566913, 13.037083, 0.0], [77.566807, 13.037293, 0.0], [77.566731, 13.037303, 0.0], [77.566164, 13.037138, 0.0], [77.566049, 13.03719, 0.0], [77.566214, 13.037437, 0.0], [77.566458, 13.037557, 0.0], [77.567543, 13.037867, 0.0], [77.568737, 13.037741, 0.0], [77.569524, 13.037732, 0.0], [77.569834, 13.037838, 0.0], [77.570229, 13.038279, 0.0], [77.570323, 13.03827, 0.0], [77.570285, 13.038363, 0.0], [77.570571, 13.039557, 0.0], [77.571006, 13.039797, 0.0], [77.571173, 13.039793, 0.0], [77.570881, 13.03944, 0.0], [77.570714, 13.038259, 0.0], [77.570853, 13.03805, 0.0], [77.570919, 13.037514, 0.0], [77.571034, 13.037366, 0.0], [77.571161, 13.036835, 0.0], [77.571102, 13.036398, 0.0], [77.571282, 13.036222, 0.0], [77.571379, 13.035814, 0.0], [77.5715, 13.035702, 0.0], [77.571428, 13.03463, 0.0], [77.571572, 13.034359, 0.0], [77.571754, 13.034328, 0.0], [77.571966, 13.034176, 0.0], [77.571921, 13.033874, 0.0], [77.571989, 13.033526, 0.0], [77.571819, 13.033356, 0.0], [77.57163, 13.033312, 0.0], [77.571588, 13.032998, 0.0], [77.571301, 13.032898, 0.0], [77.571149, 13.032935, 0.0], [77.570367, 13.03355, 0.0], [77.570225, 13.0339, 0.0], [77.57021, 13.034584, 0.0], [77.570052, 13.035238, 0.0], [77.56992, 13.035271, 0.0], [77.56957, 13.035086, 0.0], [77.569362, 13.035107, 0.0], [77.568764, 13.035944, 0.0], [77.568304, 13.036125, 0.0], [77.568237, 13.036456, 0.0], [77.568023, 13.036835, 0.0], [77.567735, 13.036976, 0.0]]]}}, {"type": "Feature", "properties": {"name": "Geddalhalli Kere 2", "area_acres": 10.19, "year": "1897", "valley": "Hebbal Nagawara Valley", "subvalley": "HN_1", "ward_name": "57 - Bhoopasandra", "Corporation": "North"}, "geometry": {"type": "Polygon", "coordinates": [[[77.577724, 13.037099, 0.0], [77.578557, 13.03741, 0.0], [77.579712, 13.037444, 0.0], [77.580106, 13.037356, 0.0], [77.580824, 13.03706, 0.0], [77.580907, 13.036801, 0.0], [77.580916, 13.036262, 0.0], [77.580843, 13.035928, 0.0], [77.580694, 13.035702, 0.0], [77.580596, 13.035209, 0.0], [77.580313, 13.0349, 0.0], [77.580003, 13.035655, 0.0], [77.579491, 13.036321, 0.0], [77.578628, 13.036847, 0.0], [77.578334, 13.036873, 0.0], [77.577724, 13.037099, 0.0]]]}}, {"type": "Feature", "properties": {"name": "J P Park Kere", "area_acres": 0.0, "year": "1969", "valley": "Hebbal Nagawara Valley", "subvalley": "HN_1", "ward_name": "63 - J.P PARK", "Corporation": "North"}, "geometry": {"type": "Polygon", "coordinates": [[[77.550261, 13.037702, 0.0], [77.550301, 13.037747, 0.0], [77.550271, 13.037708, 0.0], [77.550261, 13.037702, 0.0]]]}}, {"type": "Feature", "properties": {"name": "Kaval Bhairsandra Kere", "area_acres": 3.86, "year": "1897", "valley": "Hebbal Nagawara Valley", "subvalley": "HN_1", "ward_name": "43 - Varalakshmi Nagar", "Corporation": "North"}, "geometry": {"type": "Polygon", "coordinates": [[[77.604442, 13.017402, 0.0], [77.604629, 13.01743, 0.0], [77.604813, 13.017246, 0.0], [77.604879, 13.016919, 0.0], [77.604809, 13.01616, 0.0], [77.604499, 13.016117, 0.0], [77.604043, 13.016259, 0.0], [77.6035, 13.016226, 0.0], [77.603403, 13.016546, 0.0], [77.604442, 13.017402, 0.0]]]}}, {"type": "Feature", "properties": {"name": "Unknown", "area_acres": 7.18, "year": "1969", "valley": "Hebbal Nagawara Valley", "subvalley": "HN_1", "ward_name": "43 - Varalakshmi Nagar", "Corporation": "North"}, "geometry": {"type": "Polygon", "coordinates": [[[77.604775, 13.011881, 0.0], [77.605219, 13.011762, 0.0], [77.60615, 13.010788, 0.0], [77.606448, 13.010406, 0.0], [77.606405, 13.010283, 0.0], [77.60627, 13.010219, 0.0], [77.605029, 13.010462, 0.0], [77.604233, 13.010717, 0.0], [77.604201, 13.010816, 0.0], [77.604455, 13.011011, 0.0], [77.604245, 13.010989, 0.0], [77.603894, 13.011198, 0.0], [77.603979, 13.011296, 0.0], [77.604417, 13.011374, 0.0], [77.604346, 13.011795, 0.0], [77.604122, 13.012119, 0.0], [77.604149, 13.012316, 0.0], [77.604519, 13.01228, 0.0], [77.604775, 13.011881, 0.0]]]}}, {"type": "Feature", "properties": {"name": "Vijanapura Kere", "area_acres": 18.61, "year": "1969", "current_use": "Rajarajeshwari layout", "valley": "Hebbal Nagawara Valley", "subvalley": "HN_2", "ward_name": "17 - Vijinapura", "Corporation": "East"}, "geometry": {"type": "MultiPolygon", "coordinates": [[[[77.676599, 13.005635, 0.0], [77.677003, 13.005781, 0.0], [77.677055, 13.005718, 0.0], [77.677123, 13.005358, 0.0], [77.677087, 13.004906, 0.0], [77.677018, 13.004968, 0.0], [77.67632, 13.004966, 0.0], [77.675982, 13.005143, 0.0], [77.675586, 13.005142, 0.0], [77.675452, 13.005279, 0.0], [77.675527, 13.005577, 0.0], [77.675608, 13.005619, 0.0], [77.675946, 13.0057, 0.0], [77.676367, 13.005589, 0.0], [77.676578, 13.005571, 0.0], [77.676599, 13.005635, 0.0]]], [[[77.671807, 13.004232, 0.0], [77.671795, 13.003996, 0.0], [77.671644, 13.003729, 0.0], [77.671332, 13.003707, 0.0], [77.671282, 13.003432, 0.0], [77.67126, 13.00357, 0.0], [77.671045, 13.003667, 0.0], [77.670263, 13.003858, 0.0], [77.670185, 13.004132, 0.0], [77.670249, 13.004753, 0.0], [77.670644, 13.005319, 0.0], [77.670698, 13.00573, 0.0], [77.670865, 13.005811, 0.0], [77.670918, 13.005952, 0.0], [77.670812, 13.006034, 0.0], [77.670893, 13.006535, 0.0], [77.671018, 13.006557, 0.0], [77.671086, 13.006752, 0.0], [77.672163, 13.006744, 0.0], [77.672171, 13.005629, 0.0], [77.672271, 13.00514, 0.0], [77.672721, 13.004715, 0.0], [77.672923, 13.004657, 0.0], [77.672922, 13.004449, 0.0], [77.67215, 13.004136, 0.0], [77.67185, 13.004167, 0.0], [77.671807, 13.004232, 0.0]], [[77.671808, 13.00437, 0.0], [77.671807, 13.004232, 0.0], [77.671807, 13.004232, 0.0], [77.671808, 13.00437, 0.0]]]]}}, {"type": "Feature", "properties": {"name": "Lingarajapura Kere", "area_acres": 14.58, "year": "1969", "valley": "Hebbal Nagawara Valley", "subvalley": "HN_1", "ward_name": "35 - Kammanahalli", "Corporation": "North"}, "geometry": {"type": "Polygon", "coordinates": [[[77.629982, 13.007448, 0.0], [77.63026, 13.007536, 0.0], [77.631453, 13.007508, 0.0], [77.631672, 13.00758, 0.0], [77.631952, 13.007873, 0.0], [77.632099, 13.008185, 0.0], [77.632337, 13.00927, 0.0], [77.632327, 13.00988, 0.0], [77.632444, 13.009887, 0.0], [77.632894, 13.009545, 0.0], [77.632755, 13.008244, 0.0], [77.632931, 13.008284, 0.0], [77.63309, 13.0082, 0.0], [77.633067, 13.007623, 0.0], [77.632888, 13.006562, 0.0], [77.63294, 13.005886, 0.0], [77.632878, 13.005582, 0.0], [77.631946, 13.00569, 0.0], [77.631679, 13.005825, 0.0], [77.631475, 13.006453, 0.0], [77.630836, 13.007217, 0.0], [77.629982, 13.007448, 0.0]]]}}, {"type": "Feature", "properties": {"name": "Byatagunte Palya Kere", "area_acres": 3.32, "year": "1969", "valley": "Hebbal Nagawara Valley", "subvalley": "HN_1", "ward_name": "34 - Subbayanapalya", "Corporation": "North"}, "geometry": {"type": "Polygon", "coordinates": [[[77.636723, 13.009536, 0.0], [77.636821, 13.009197, 0.0], [77.637007, 13.008997, 0.0], [77.638029, 13.008645, 0.0], [77.63803, 13.008369, 0.0], [77.637948, 13.008184, 0.0], [77.637771, 13.008095, 0.0], [77.637464, 13.00809, 0.0], [77.63721, 13.007875, 0.0], [77.636954, 13.007918, 0.0], [77.636724, 13.008407, 0.0], [77.636746, 13.008917, 0.0], [77.636636, 13.009265, 0.0], [77.636723, 13.009536, 0.0]]]}}, {"type": "Feature", "properties": {"name": "Banaswadi lake", "area_acres": 38.92, "year": "1969", "current_use": "Banaswadi Mini Forest", "valley": "Hebbal Nagawara Valley", "subvalley": "HN_2", "ward_name": "31 - Kalyanagar", "Corporation": "North"}, "geometry": {"type": "Polygon", "coordinates": [[[77.642844, 13.015728, 0.0], [77.643216, 13.015188, 0.0], [77.643843, 13.014819, 0.0], [77.645655, 13.014628, 0.0], [77.647019, 13.014812, 0.0], [77.646761, 13.014295, 0.0], [77.646593, 13.013523, 0.0], [77.646598, 13.013218, 0.0], [77.646828, 13.012655, 0.0], [77.646832, 13.012251, 0.0], [77.646434, 13.011975, 0.0], [77.646313, 13.011647, 0.0], [77.646126, 13.011418, 0.0], [77.645957, 13.011329, 0.0], [77.645402, 13.011335, 0.0], [77.643717, 13.01169, 0.0], [77.643078, 13.011622, 0.0], [77.642692, 13.011717, 0.0], [77.642535, 13.011916, 0.0], [77.642275, 13.012034, 0.0], [77.642218, 13.012175, 0.0], [77.642451, 13.012757, 0.0], [77.643173, 13.014258, 0.0], [77.64292, 13.014969, 0.0], [77.642844, 13.015728, 0.0]]]}}, {"type": "Feature", "properties": {"name": "Unknown", "area_acres": 0.38, "year": "1969", "valley": "Hebbal Nagawara Valley", "subvalley": "HN_2", "ward_name": "32 - Banaswadi", "Corporation": "North"}, "geometry": {"type": "Polygon", "coordinates": [[[77.651508, 13.013071, 0.0], [77.65175, 13.012945, 0.0], [77.65161, 13.012748, 0.0], [77.6514, 13.012775, 0.0], [77.65125, 13.0129, 0.0], [77.651294, 13.013048, 0.0], [77.651508, 13.013071, 0.0]]]}}, {"type": "Feature", "properties": {"name": "Unknown", "area_acres": 0.27, "year": "1969", "valley": "Hebbal Nagawara Valley", "subvalley": "HN_2", "ward_name": "32 - Banaswadi", "Corporation": "North"}, "geometry": {"type": "Polygon", "coordinates": [[[77.658158, 13.014164, 0.0], [77.658283, 13.014064, 0.0], [77.658252, 13.013937, 0.0], [77.658113, 13.013918, 0.0], [77.65787, 13.014019, 0.0], [77.657902, 13.014183, 0.0], [77.658158, 13.014164, 0.0]]]}}, {"type": "Feature", "properties": {"name": "Unknown", "area_acres": 52.21, "year": "1969", "valley": "Hebbal Nagawara Valley", "subvalley": "HN_1", "ward_name": "29 - Lingarajpura", "Corporation": "North"}, "geometry": {"type": "Polygon", "coordinates": [[[77.624484, 13.021045, 0.0], [77.624905, 13.021091, 0.0], [77.625354, 13.020641, 0.0], [77.625966, 13.019778, 0.0], [77.626688, 13.019688, 0.0], [77.626739, 13.019754, 0.0], [77.627329, 13.019863, 0.0], [77.627634, 13.020124, 0.0], [77.627839, 13.020468, 0.0], [77.628434, 13.021104, 0.0], [77.629026, 13.021428, 0.0], [77.628901, 13.019172, 0.0], [77.629131, 13.018658, 0.0], [77.629108, 13.018082, 0.0], [77.628571, 13.016604, 0.0], [77.628327, 13.0157, 0.0], [77.62802, 13.015358, 0.0], [77.627752, 13.015393, 0.0], [77.627251, 13.015728, 0.0], [77.626365, 13.016099, 0.0], [77.62563, 13.016519, 0.0], [77.624858, 13.016675, 0.0], [77.624866, 13.017449, 0.0], [77.624398, 13.017635, 0.0], [77.624602, 13.017897, 0.0], [77.624929, 13.018602, 0.0], [77.625035, 13.019095, 0.0], [77.625044, 13.019936, 0.0], [77.62493, 13.020266, 0.0], [77.624596, 13.020533, 0.0], [77.624431, 13.020782, 0.0], [77.624484, 13.021045, 0.0]]]}}, {"type": "Feature", "properties": {"name": "Unknown", "area_acres": 1.66, "year": "1969", "valley": "Hebbal Nagawara Valley", "subvalley": "HN_2", "ward_name": "32 - Banaswadi", "Corporation": "North"}, "geometry": {"type": "Polygon", "coordinates": [[[77.65446, 13.016508, 0.0], [77.654771, 13.016374, 0.0], [77.654993, 13.016579, 0.0], [77.655084, 13.016333, 0.0], [77.655303, 13.016159, 0.0], [77.655191, 13.016086, 0.0], [77.654863, 13.016136, 0.0], [77.654736, 13.015882, 0.0], [77.654386, 13.015481, 0.0], [77.654261, 13.015436, 0.0], [77.654185, 13.015728, 0.0], [77.654286, 13.016372, 0.0], [77.65446, 13.016508, 0.0]]]}}, {"type": "Feature", "properties": {"name": "Unknown", "area_acres": 0.56, "year": "1969", "valley": "Hebbal Nagawara Valley", "subvalley": "HN_2", "ward_name": "31 - Kalyanagar", "Corporation": "North"}, "geometry": {"type": "Polygon", "coordinates": [[[77.637581, 13.017415, 0.0], [77.637334, 13.017537, 0.0], [77.637396, 13.017808, 0.0], [77.637524, 13.017984, 0.0], [77.637722, 13.018093, 0.0], [77.63767, 13.017476, 0.0], [77.637581, 13.017415, 0.0]]]}}, {"type": "Feature", "properties": {"name": "Hennur Kere", "area_acres": 63.5, "year": "1969", "current_use": "Hennur Biodiversity Park and HBR Residential Layouts", "valley": "Hebbal Nagawara Valley", "subvalley": "HN_1", "ward_name": "24 - HBR Layout", "Corporation": "North"}, "geometry": {"type": "Polygon", "coordinates": [[[77.624173, 13.038566, 0.0], [77.624738, 13.038758, 0.0], [77.625041, 13.03873, 0.0], [77.625799, 13.038105, 0.0], [77.626627, 13.037717, 0.0], [77.627808, 13.037343, 0.0], [77.628435, 13.037048, 0.0], [77.62936, 13.036338, 0.0], [77.630082, 13.036257, 0.0], [77.630453, 13.036434, 0.0], [77.630356, 13.035982, 0.0], [77.629512, 13.035579, 0.0], [77.628133, 13.035494, 0.0], [77.628209, 13.034793, 0.0], [77.62818, 13.034398, 0.0], [77.62775, 13.033471, 0.0], [77.62755, 13.032863, 0.0], [77.627465, 13.032757, 0.0], [77.626985, 13.032663, 0.0], [77.626474, 13.031993, 0.0], [77.626245, 13.031855, 0.0], [77.62528, 13.031972, 0.0], [77.624401, 13.032244, 0.0], [77.624294, 13.032517, 0.0], [77.624277, 13.033292, 0.0], [77.623918, 13.03351, 0.0], [77.62406, 13.034167, 0.0], [77.624007, 13.034786, 0.0], [77.624799, 13.035717, 0.0], [77.625311, 13.036495, 0.0], [77.625521, 13.037226, 0.0], [77.625124, 13.037823, 0.0], [77.62487, 13.038452, 0.0], [77.624769, 13.038519, 0.0], [77.624173, 13.038566, 0.0]]]}}, {"type": "Feature", "properties": {"name": "Kodihalli Tank", "area_acres": 18.27, "year": "1969", "valley": "Koramangala Challaghatta Valley", "subvalley": "KC_1", "ward_name": "20 - Kodihalli", "Corporation": "Central"}, "geometry": {"type": "Polygon", "coordinates": [[[77.644246, 12.96712, 0.0], [77.645205, 12.967267, 0.0], [77.645473, 12.967494, 0.0], [77.645726, 12.967574, 0.0], [77.645833, 12.967739, 0.0], [77.646248, 12.967773, 0.0], [77.646438, 12.967986, 0.0], [77.647136, 12.967892, 0.0], [77.647663, 12.968127, 0.0], [77.647807, 12.967986, 0.0], [77.647707, 12.967496, 0.0], [77.647811, 12.967094, 0.0], [77.647738, 12.966971, 0.0], [77.647785, 12.966885, 0.0], [77.646795, 12.964915, 0.0], [77.646663, 12.964783, 0.0], [77.646559, 12.964829, 0.0], [77.64659, 12.964927, 0.0], [77.646498, 12.964983, 0.0], [77.646426, 12.965445, 0.0], [77.646205, 12.96581, 0.0], [77.645992, 12.966068, 0.0], [77.645884, 12.966078, 0.0], [77.645636, 12.966296, 0.0], [77.644964, 12.966508, 0.0], [77.644646, 12.966499, 0.0], [77.643511, 12.966676, 0.0], [77.643457, 12.96662, 0.0], [77.643146, 12.966637, 0.0], [77.642853, 12.966841, 0.0], [77.643268, 12.966989, 0.0], [77.643941, 12.966982, 0.0], [77.644155, 12.967139, 0.0], [77.64425, 12.967037, 0.0], [77.644246, 12.96712, 0.0]], [[77.64769, 12.96805, 0.0], [77.647655, 12.968015, 0.0], [77.647695, 12.968052, 0.0], [77.64769, 12.96805, 0.0]]]}}, {"type": "Feature", "properties": {"name": "Domlur Kere", "area_acres": 55.98, "year": "1870", "current_use": "Domlur 2nd Stage", "valley": "Koramangala Challaghatta Valley", "subvalley": "KC_1", "ward_name": "24 - Agaram", "Corporation": "Central"}, "geometry": {"type": "Polygon", "coordinates": [[[77.632301, 12.973914, 0.0], [77.633368, 12.973904, 0.0], [77.633382, 12.974262, 0.0], [77.633606, 12.97431, 0.0], [77.634103, 12.974235, 0.0], [77.634229, 12.973676, 0.0], [77.634499, 12.973244, 0.0], [77.635427, 12.970764, 0.0], [77.635657, 12.969407, 0.0], [77.636257, 12.968484, 0.0], [77.636375, 12.968104, 0.0], [77.634783, 12.967463, 0.0], [77.633934, 12.965977, 0.0], [77.633891, 12.965738, 0.0], [77.633568, 12.965901, 0.0], [77.633569, 12.96604, 0.0], [77.633027, 12.966624, 0.0], [77.633052, 12.967042, 0.0], [77.632797, 12.967941, 0.0], [77.632747, 12.968978, 0.0], [77.63345, 12.970127, 0.0], [77.633825, 12.971019, 0.0], [77.633603, 12.971141, 0.0], [77.633194, 12.970906, 0.0], [77.63332, 12.971304, 0.0], [77.63204, 12.971356, 0.0], [77.631959, 12.97325, 0.0], [77.632324, 12.973247, 0.0], [77.632301, 12.973914, 0.0]]]}}, {"type": "Feature", "properties": {"name": "Thippasandra kere", "area_acres": 4.48, "year": "1897", "current_use": "New Tippasandra/ Govt buildings", "valley": "Koramangala Challaghatta Valley", "subvalley": "KC_1", "ward_name": "16 - New Thippasandra", "Corporation": "Central"}, "geometry": {"type": "Polygon", "coordinates": [[[77.651379, 12.972825, 0.0], [77.651782, 12.971317, 0.0], [77.651437, 12.971001, 0.0], [77.651189, 12.970973, 0.0], [77.651007, 12.971294, 0.0], [77.650784, 12.972269, 0.0], [77.650403, 12.97285, 0.0], [77.650435, 12.972941, 0.0], [77.650591, 12.973, 0.0], [77.651087, 12.972995, 0.0], [77.651379, 12.972825, 0.0]]]}}, {"type": "Feature", "properties": {"name": "N.S. Palya", "area_acres": 2.35, "year": "1969", "valley": "Koramangala Challaghatta Valley", "subvalley": "KC_1", "ward_name": "17 - N.S Palya", "Corporation": "South"}, "geometry": {"type": "Polygon", "coordinates": [[[77.601708, 12.910002, 0.0], [77.60163, 12.910541, 0.0], [77.601732, 12.911008, 0.0], [77.602145, 12.91108, 0.0], [77.602786, 12.91099, 0.0], [77.60281, 12.910876, 0.0], [77.602654, 12.910685, 0.0], [77.601858, 12.910032, 0.0], [77.601708, 12.910002, 0.0]]]}}, {"type": "Feature", "properties": {"name": "Binnamangala Kere- 2", "area_acres": 8.11, "year": "1969", "valley": "Koramangala Challaghatta Valley", "subvalley": "KC_1", "ward_name": "15 - Indiranagar", "Corporation": "Central"}, "geometry": {"type": "Polygon", "coordinates": [[[77.640372, 12.983151, 0.0], [77.640714, 12.982917, 0.0], [77.640779, 12.982653, 0.0], [77.640937, 12.982486, 0.0], [77.642008, 12.982063, 0.0], [77.642095, 12.981601, 0.0], [77.642089, 12.981049, 0.0], [77.64207, 12.980852, 0.0], [77.641943, 12.980771, 0.0], [77.641934, 12.980672, 0.0], [77.640488, 12.980621, 0.0], [77.640416, 12.980951, 0.0], [77.640573, 12.981444, 0.0], [77.640595, 12.982004, 0.0], [77.640372, 12.983151, 0.0]]]}}, {"type": "Feature", "properties": {"name": "Byatarayanapura Quarry", "area_acres": 11.09, "year": "1969", "valley": "Koramangala Challaghatta Valley", "subvalley": "KC_2", "ward_name": "20 - A Narayanapura", "Corporation": "East"}, "geometry": {"type": "Polygon", "coordinates": [[[77.676143, 12.997085, 0.0], [77.676406, 12.99711, 0.0], [77.676883, 12.997323, 0.0], [77.677234, 12.997185, 0.0], [77.677473, 12.996959, 0.0], [77.677473, 12.996646, 0.0], [77.677084, 12.995993, 0.0], [77.677034, 12.995365, 0.0], [77.67682, 12.995215, 0.0], [77.676594, 12.995428, 0.0], [77.676406, 12.995428, 0.0], [77.676356, 12.995127, 0.0], [77.675753, 12.994838, 0.0], [77.675666, 12.994524, 0.0], [77.675289, 12.994399, 0.0], [77.675, 12.994148, 0.0], [77.674925, 12.994311, 0.0], [77.675051, 12.994863, 0.0], [77.675289, 12.99519, 0.0], [77.67549, 12.995918, 0.0], [77.675691, 12.996093, 0.0], [77.675866, 12.996395, 0.0], [77.675892, 12.996658, 0.0], [77.675741, 12.997148, 0.0], [77.675904, 12.99721, 0.0], [77.676143, 12.997085, 0.0]]]}}, {"type": "Feature", "properties": {"name": "Marenahalli Kere", "area_acres": 32.02, "year": "1969", "current_use": "Marenahalli Residential Layouts", "valley": "Koramangala Challaghatta Valley", "subvalley": "KC_1", "ward_name": "13 - Marenahalli South", "Corporation": "South"}, "geometry": {"type": "Polygon", "coordinates": [[[77.588231, 12.916212, 0.0], [77.587865, 12.917121, 0.0], [77.587493, 12.917455, 0.0], [77.5871, 12.918034, 0.0], [77.586987, 12.918101, 0.0], [77.58692, 12.918036, 0.0], [77.586875, 12.918167, 0.0], [77.586518, 12.918189, 0.0], [77.585857, 12.918556, 0.0], [77.585325, 12.918667, 0.0], [77.585293, 12.918779, 0.0], [77.585364, 12.918834, 0.0], [77.585271, 12.918904, 0.0], [77.585324, 12.919456, 0.0], [77.585262, 12.919602, 0.0], [77.58531, 12.919671, 0.0], [77.585277, 12.920386, 0.0], [77.585385, 12.920828, 0.0], [77.585329, 12.92088, 0.0], [77.585336, 12.921397, 0.0], [77.585423, 12.921549, 0.0], [77.585916, 12.921498, 0.0], [77.58619, 12.921542, 0.0], [77.586031, 12.920713, 0.0], [77.586161, 12.920268, 0.0], [77.586237, 12.920324, 0.0], [77.586352, 12.920277, 0.0], [77.586477, 12.919836, 0.0], [77.58756, 12.919145, 0.0], [77.587653, 12.91917, 0.0], [77.587621, 12.919272, 0.0], [77.587758, 12.919353, 0.0], [77.588028, 12.919283, 0.0], [77.588061, 12.919155, 0.0], [77.589146, 12.91849, 0.0], [77.589747, 12.917859, 0.0], [77.589968, 12.917822, 0.0], [77.590053, 12.917683, 0.0], [77.590884, 12.917433, 0.0], [77.591185, 12.917145, 0.0], [77.591108, 12.917014, 0.0], [77.59093, 12.91706, 0.0], [77.590895, 12.916964, 0.0], [77.590672, 12.916877, 0.0], [77.589829, 12.916729, 0.0], [77.589304, 12.916495, 0.0], [77.589141, 12.916495, 0.0], [77.588495, 12.915711, 0.0], [77.588311, 12.915765, 0.0], [77.588125, 12.915982, 0.0], [77.588135, 12.916146, 0.0], [77.588231, 12.916212, 0.0]]]}}, {"type": "Feature", "properties": {"name": "Siddapura Kere", "area_acres": 13.2, "year": "1969", "current_use": "Jayanagara 1st Block Residential Layouts", "valley": "Koramangala Challaghatta Valley", "subvalley": "KC_1", "ward_name": "39 - Venkat Reddy Nagara", "Corporation": "Central"}, "geometry": {"type": "Polygon", "coordinates": [[[77.591041, 12.944495, 0.0], [77.59092, 12.944516, 0.0], [77.590935, 12.944625, 0.0], [77.591735, 12.946403, 0.0], [77.592767, 12.945538, 0.0], [77.593279, 12.94527, 0.0], [77.594789, 12.944763, 0.0], [77.594844, 12.944641, 0.0], [77.594697, 12.94461, 0.0], [77.59466, 12.944353, 0.0], [77.593579, 12.944101, 0.0], [77.592636, 12.944196, 0.0], [77.591823, 12.944425, 0.0], [77.591405, 12.944387, 0.0], [77.591183, 12.944274, 0.0], [77.591052, 12.944346, 0.0], [77.591041, 12.944495, 0.0]]]}}, {"type": "Feature", "properties": {"name": "Sunnakal Tank", "area_acres": 85.54, "year": "1870", "current_use": "KSRTC and BMTC Depot", "valley": "Koramangala Challaghatta Valley", "subvalley": "KC_1", "ward_name": "31 - Shanthinagar", "Corporation": "Central"}, "geometry": {"type": "Polygon", "coordinates": [[[77.594176, 12.957019, 0.0], [77.597969, 12.955231, 0.0], [77.598869, 12.954705, 0.0], [77.598868, 12.954573, 0.0], [77.600336, 12.954107, 0.0], [77.600346, 12.953776, 0.0], [77.601836, 12.952767, 0.0], [77.601942, 12.952607, 0.0], [77.601029, 12.953106, 0.0], [77.60038, 12.953099, 0.0], [77.600026, 12.952917, 0.0], [77.599442, 12.951266, 0.0], [77.599933, 12.950373, 0.0], [77.600298, 12.949163, 0.0], [77.600459, 12.949016, 0.0], [77.600621, 12.949001, 0.0], [77.601669, 12.948394, 0.0], [77.601923, 12.9481, 0.0], [77.601715, 12.947625, 0.0], [77.601529, 12.947918, 0.0], [77.599312, 12.949173, 0.0], [77.599548, 12.94978, 0.0], [77.593083, 12.953861, 0.0], [77.593656, 12.955711, 0.0], [77.594176, 12.957019, 0.0]]]}}, {"type": "Feature", "properties": {"name": "Dorasanni Palya Kere", "area_acres": 52.57, "year": "1969", "current_use": "JP Nagar 4th Phase", "valley": "Koramangala Challaghatta Valley", "subvalley": "KC_1", "ward_name": "14 - J.P Nagar", "Corporation": "South"}, "geometry": {"type": "Polygon", "coordinates": [[[77.596223, 12.905281, 0.0], [77.596278, 12.905159, 0.0], [77.598052, 12.905202, 0.0], [77.599251, 12.905435, 0.0], [77.600182, 12.905744, 0.0], [77.600262, 12.905671, 0.0], [77.600341, 12.905739, 0.0], [77.600537, 12.905654, 0.0], [77.600542, 12.905545, 0.0], [77.599932, 12.905312, 0.0], [77.599455, 12.904899, 0.0], [77.5993, 12.904913, 0.0], [77.599338, 12.904744, 0.0], [77.599178, 12.904469, 0.0], [77.599059, 12.903984, 0.0], [77.599079, 12.902687, 0.0], [77.599326, 12.901801, 0.0], [77.599737, 12.901163, 0.0], [77.599684, 12.901064, 0.0], [77.599417, 12.901084, 0.0], [77.598609, 12.901629, 0.0], [77.596916, 12.902431, 0.0], [77.596201, 12.902427, 0.0], [77.595846, 12.902587, 0.0], [77.595035, 12.902634, 0.0], [77.594974, 12.902547, 0.0], [77.594917, 12.902621, 0.0], [77.594186, 12.902678, 0.0], [77.593114, 12.90248, 0.0], [77.592829, 12.902513, 0.0], [77.59269, 12.903139, 0.0], [77.592705, 12.903463, 0.0], [77.593058, 12.90376, 0.0], [77.593176, 12.903952, 0.0], [77.593144, 12.904008, 0.0], [77.593806, 12.904774, 0.0], [77.595345, 12.905083, 0.0], [77.596163, 12.905147, 0.0], [77.596223, 12.905281, 0.0]]]}}, {"type": "Feature", "properties": {"name": "Koramangala Kere", "area_acres": 95.21, "year": "1870", "current_use": "National Dairy Research Institute", "valley": "Koramangala Challaghatta Valley", "subvalley": "KC_1", "ward_name": "24 - A Adugodi", "Corporation": "South"}, "geometry": {"type": "Polygon", "coordinates": [[[77.609723, 12.949746, 0.0], [77.611043, 12.949673, 0.0], [77.618552, 12.952706, 0.0], [77.619261, 12.952539, 0.0], [77.616392, 12.948224, 0.0], [77.61656, 12.944895, 0.0], [77.615042, 12.945428, 0.0], [77.615007, 12.945926, 0.0], [77.612018, 12.94771, 0.0], [77.609523, 12.948094, 0.0], [77.609818, 12.949047, 0.0], [77.605983, 12.949604, 0.0], [77.606114, 12.948506, 0.0], [77.605894, 12.946835, 0.0], [77.606116, 12.946773, 0.0], [77.606095, 12.946693, 0.0], [77.605399, 12.946162, 0.0], [77.604904, 12.94547, 0.0], [77.605031, 12.945927, 0.0], [77.605852, 12.946736, 0.0], [77.605629, 12.946798, 0.0], [77.605969, 12.948229, 0.0], [77.6058, 12.949506, 0.0], [77.605944, 12.949744, 0.0], [77.606919, 12.949674, 0.0], [77.609637, 12.949228, 0.0], [77.609723, 12.949746, 0.0]]]}}, {"type": "Feature", "properties": {"name": "Sonnenahalli lake", "area_acres": 11.38, "year": "1870", "current_use": "Austin Town RES Colony", "valley": "Koramangala Challaghatta Valley", "subvalley": "KC_1", "ward_name": "26 - Vannarpet", "Corporation": "Central"}, "geometry": {"type": "Polygon", "coordinates": [[[77.617078, 12.959553, 0.0], [77.61738, 12.958742, 0.0], [77.617863, 12.958392, 0.0], [77.617968, 12.958126, 0.0], [77.618235, 12.957805, 0.0], [77.618289, 12.957778, 0.0], [77.618425, 12.957883, 0.0], [77.618342, 12.957658, 0.0], [77.617896, 12.957676, 0.0], [77.61684, 12.957474, 0.0], [77.615686, 12.956982, 0.0], [77.614802, 12.956474, 0.0], [77.614806, 12.956845, 0.0], [77.614875, 12.956977, 0.0], [77.615093, 12.957174, 0.0], [77.615464, 12.957753, 0.0], [77.616121, 12.958542, 0.0], [77.616461, 12.958764, 0.0], [77.61675, 12.959238, 0.0], [77.617078, 12.959553, 0.0]]]}}, {"type": "Feature", "properties": {"name": "Koramangala Kere -2", "area_acres": 9.97, "year": "1870", "valley": "Koramangala Challaghatta Valley", "subvalley": "KC_1", "ward_name": "24 - A Adugodi", "Corporation": "South"}, "geometry": {"type": "Polygon", "coordinates": [[[77.621384, 12.938427, 0.0], [77.621763, 12.938417, 0.0], [77.623683, 12.93788, 0.0], [77.623641, 12.936509, 0.0], [77.622559, 12.936387, 0.0], [77.621906, 12.936586, 0.0], [77.621798, 12.937283, 0.0], [77.621692, 12.937436, 0.0], [77.621384, 12.938427, 0.0]]]}}, {"type": "Feature", "properties": {"name": "Unknown", "area_acres": 2.4, "year": "1870", "valley": "Koramangala Challaghatta Valley", "subvalley": "KC_1", "ward_name": "27 - Sri Lakshmi Devi Ward", "Corporation": "South"}, "geometry": {"type": "Polygon", "coordinates": [[[77.624137, 12.935457, 0.0], [77.624564, 12.936214, 0.0], [77.62479, 12.936471, 0.0], [77.625102, 12.936613, 0.0], [77.625304, 12.936512, 0.0], [77.625281, 12.936234, 0.0], [77.625353, 12.936041, 0.0], [77.625133, 12.935692, 0.0], [77.624874, 12.935509, 0.0], [77.624456, 12.935526, 0.0], [77.624137, 12.935457, 0.0]]]}}, {"type": "Feature", "properties": {"name": "Vivekanagar Kere", "area_acres": 3.38, "year": "1969", "valley": "Koramangala Challaghatta Valley", "subvalley": "KC_1", "ward_name": "24 - Agaram", "Corporation": "Central"}, "geometry": {"type": "Polygon", "coordinates": [[[77.626008, 12.955146, 0.0], [77.626155, 12.955774, 0.0], [77.626205, 12.955617, 0.0], [77.626426, 12.955374, 0.0], [77.626784, 12.955155, 0.0], [77.626713, 12.95496, 0.0], [77.625808, 12.954145, 0.0], [77.625616, 12.953996, 0.0], [77.625527, 12.954016, 0.0], [77.625497, 12.953898, 0.0], [77.625273, 12.953727, 0.0], [77.62508, 12.953897, 0.0], [77.625042, 12.954136, 0.0], [77.625865, 12.954925, 0.0], [77.626008, 12.955146, 0.0]]]}}, {"type": "Feature", "properties": {"name": "Chinnagara Kere", "area_acres": 57.19, "year": "1969", "current_use": "Ejipura Residential and Commercial Layouts", "valley": "Koramangala Challaghatta Valley", "subvalley": "KC_1", "ward_name": "28 - Kormangala East", "Corporation": "South"}, "geometry": {"type": "Polygon", "coordinates": [[[77.627629, 12.935137, 0.0], [77.62731, 12.934704, 0.0], [77.627107, 12.934651, 0.0], [77.627447, 12.935234, 0.0], [77.627889, 12.935613, 0.0], [77.628212, 12.935599, 0.0], [77.628485, 12.935806, 0.0], [77.628818, 12.935892, 0.0], [77.629719, 12.935485, 0.0], [77.630154, 12.935756, 0.0], [77.629756, 12.93665, 0.0], [77.629737, 12.937006, 0.0], [77.630306, 12.936244, 0.0], [77.630866, 12.936266, 0.0], [77.631203, 12.936028, 0.0], [77.631655, 12.935839, 0.0], [77.632644, 12.935636, 0.0], [77.633, 12.935491, 0.0], [77.634061, 12.935379, 0.0], [77.634556, 12.935179, 0.0], [77.63474, 12.935007, 0.0], [77.634759, 12.93485, 0.0], [77.634137, 12.933767, 0.0], [77.633979, 12.933239, 0.0], [77.634119, 12.931874, 0.0], [77.634225, 12.931633, 0.0], [77.63418, 12.931568, 0.0], [77.63432, 12.93108, 0.0], [77.634295, 12.930934, 0.0], [77.634185, 12.930836, 0.0], [77.634093, 12.930861, 0.0], [77.633892, 12.931253, 0.0], [77.633004, 12.931713, 0.0], [77.632852, 12.931886, 0.0], [77.632531, 12.931973, 0.0], [77.632265, 12.931869, 0.0], [77.631919, 12.931962, 0.0], [77.630373, 12.932808, 0.0], [77.63027, 12.93299, 0.0], [77.630363, 12.933329, 0.0], [77.629887, 12.933776, 0.0], [77.629055, 12.93388, 0.0], [77.628603, 12.934228, 0.0], [77.628374, 12.934646, 0.0], [77.628178, 12.935285, 0.0], [77.627954, 12.935315, 0.0], [77.627629, 12.935137, 0.0]]]}}, {"type": "Feature", "properties": {"name": "Unknown", "area_acres": 2.49, "year": "1870", "valley": "Koramangala Challaghatta Valley", "subvalley": "KC_1", "ward_name": "4 - Sampangirama Nagar", "Corporation": "Central"}, "geometry": {"type": "Polygon", "coordinates": [[[77.588368, 12.978432, 0.0], [77.589087, 12.976918, 0.0], [77.588099, 12.976486, 0.0], [77.588089, 12.976843, 0.0], [77.588496, 12.97705, 0.0], [77.58818, 12.977793, 0.0], [77.588368, 12.978432, 0.0]]]}}, {"type": "Feature", "properties": {"name": "Unknown", "area_acres": 1.73, "year": "1870", "valley": "Koramangala Challaghatta Valley", "subvalley": "KC_1", "ward_name": "4 - Sampangirama Nagar", "Corporation": "Central"}, "geometry": {"type": "Polygon", "coordinates": [[[77.588309, 12.984399, 0.0], [77.588372, 12.984597, 0.0], [77.588622, 12.9847, 0.0], [77.589702, 12.984253, 0.0], [77.589012, 12.983943, 0.0], [77.588943, 12.983811, 0.0], [77.588309, 12.984399, 0.0]]]}}, {"type": "Feature", "properties": {"name": "Sampangi Tank", "area_acres": 60.95, "year": "1870", "current_use": "Kanteerva Stadium", "valley": "Koramangala Challaghatta Valley", "subvalley": "KC_1", "ward_name": "4 - Sampangirama Nagar", "Corporation": "Central"}, "geometry": {"type": "MultiPolygon", "coordinates": [[[[77.59596, 12.969559, 0.0], [77.595736, 12.969482, 0.0], [77.595477, 12.969036, 0.0], [77.595198, 12.967544, 0.0], [77.595035, 12.967546, 0.0], [77.594168, 12.972058, 0.0], [77.59433, 12.972047, 0.0], [77.596423, 12.971019, 0.0], [77.596329, 12.969805, 0.0], [77.596156, 12.969787, 0.0], [77.59596, 12.969559, 0.0]]], [[[77.590843, 12.967877, 0.0], [77.589207, 12.967893, 0.0], [77.5938, 12.971892, 0.0], [77.593933, 12.971941, 0.0], [77.595055, 12.96647, 0.0], [77.594393, 12.967353, 0.0], [77.591832, 12.968275, 0.0], [77.590843, 12.967877, 0.0]]], [[[77.588853, 12.968539, 0.0], [77.589451, 12.96937, 0.0], [77.589452, 12.9695, 0.0], [77.590064, 12.969693, 0.0], [77.590376, 12.970407, 0.0], [77.590384, 12.971124, 0.0], [77.590919, 12.97081, 0.0], [77.591134, 12.970987, 0.0], [77.5913, 12.971315, 0.0], [77.591695, 12.971201, 0.0], [77.592122, 12.971227, 0.0], [77.592318, 12.971474, 0.0], [77.592835, 12.971349, 0.0], [77.589605, 12.968522, 0.0], [77.590092, 12.969493, 0.0], [77.589543, 12.969429, 0.0], [77.588893, 12.968449, 0.0], [77.588853, 12.968539, 0.0]]], [[[77.589023, 12.967725, 0.0], [77.590505, 12.967646, 0.0], [77.588842, 12.966664, 0.0], [77.588864, 12.967401, 0.0], [77.589023, 12.967725, 0.0]]]]}}, {"type": "Feature", "properties": {"name": "Miller's Tank", "area_acres": 41.89, "year": "1897", "current_use": "Residential and Commercial Layouts", "valley": "Koramangala Challaghatta Valley", "subvalley": "KC_1", "ward_name": "3 - Vasanth Nagar", "Corporation": "Central"}, "geometry": {"type": "MultiPolygon", "coordinates": [[[[77.598934, 12.989308, 0.0], [77.598403, 12.987436, 0.0], [77.595435, 12.990331, 0.0], [77.596259, 12.990611, 0.0], [77.596804, 12.99015, 0.0], [77.598934, 12.989308, 0.0]]], [[[77.594412, 12.991808, 0.0], [77.595698, 12.993307, 0.0], [77.597323, 12.991596, 0.0], [77.597038, 12.990976, 0.0], [77.595133, 12.99041, 0.0], [77.594412, 12.991808, 0.0]]], [[[77.593172, 12.993332, 0.0], [77.593661, 12.993342, 0.0], [77.594021, 12.993726, 0.0], [77.594151, 12.994348, 0.0], [77.595469, 12.993598, 0.0], [77.593843, 12.991517, 0.0], [77.593465, 12.991665, 0.0], [77.59306, 12.992178, 0.0], [77.591528, 12.992429, 0.0], [77.591637, 12.993195, 0.0], [77.591957, 12.993466, 0.0], [77.592274, 12.993402, 0.0], [77.592686, 12.993466, 0.0], [77.593172, 12.993332, 0.0]]]]}}, {"type": "Feature", "properties": {"name": "Bilekahalli Kere", "area_acres": 3.53, "year": "1897", "valley": "Koramangala Challaghatta Valley", "subvalley": "KC_1", "ward_name": "2 - Jayamahal", "Corporation": "Central"}, "geometry": {"type": "Polygon", "coordinates": [[[77.597978, 13.001624, 0.0], [77.598571, 13.001306, 0.0], [77.598561, 13.001139, 0.0], [77.59804, 13.000924, 0.0], [77.597327, 13.000939, 0.0], [77.596887, 13.001027, 0.0], [77.59658, 13.001311, 0.0], [77.596612, 13.00147, 0.0], [77.597126, 13.001716, 0.0], [77.597978, 13.001624, 0.0]]]}}, {"type": "Feature", "properties": {"name": "Akkitimmanahalli tank", "area_acres": 12.16, "year": "1870", "current_use": "Karnataka State Hockey Stadium", "valley": "Koramangala Challaghatta Valley", "subvalley": "KC_1", "ward_name": "31 - Shanthinagar", "Corporation": "Central"}, "geometry": {"type": "Polygon", "coordinates": [[[77.598408, 12.961702, 0.0], [77.598714, 12.961865, 0.0], [77.599397, 12.962541, 0.0], [77.599941, 12.962873, 0.0], [77.601102, 12.962775, 0.0], [77.601278, 12.960885, 0.0], [77.601265, 12.960288, 0.0], [77.599801, 12.961145, 0.0], [77.598408, 12.961702, 0.0]]]}}, {"type": "Feature", "properties": {"name": "Byadarahalli", "area_acres": 2.34, "year": "1870", "valley": "Koramangala Challaghatta Valley", "subvalley": "KC_1", "ward_name": "2 - Jayamahal", "Corporation": "Central"}, "geometry": {"type": "Polygon", "coordinates": [[[77.601382, 13.002682, 0.0], [77.601411, 13.002894, 0.0], [77.601568, 13.003051, 0.0], [77.602267, 13.003243, 0.0], [77.602611, 13.00324, 0.0], [77.603009, 13.003136, 0.0], [77.60348, 13.002893, 0.0], [77.60364, 13.002706, 0.0], [77.60289, 13.0027, 0.0], [77.602695, 13.002821, 0.0], [77.602486, 13.00285, 0.0], [77.60237, 13.002765, 0.0], [77.601768, 13.002784, 0.0], [77.601382, 13.002682, 0.0]]]}}, {"type": "Feature", "properties": {"name": "Byadarahalli Railway Kere", "area_acres": 8.78, "year": "1870", "valley": "Koramangala Challaghatta Valley", "subvalley": "KC_1", "ward_name": "44 - Doddanna Nagar", "Corporation": "North"}, "geometry": {"type": "MultiPolygon", "coordinates": [[[[77.610823, 13.001212, 0.0], [77.609168, 13.000042, 0.0], [77.610084, 13.00167, 0.0], [77.610408, 13.001601, 0.0], [77.611155, 13.001977, 0.0], [77.611358, 13.001956, 0.0], [77.611446, 13.002041, 0.0], [77.611723, 13.001992, 0.0], [77.611833, 13.002176, 0.0], [77.612381, 13.00219, 0.0], [77.612364, 13.001853, 0.0], [77.610823, 13.001212, 0.0]]], [[[77.610202, 13.000012, 0.0], [77.610993, 13.000746, 0.0], [77.612366, 13.001395, 0.0], [77.611913, 13.000823, 0.0], [77.611211, 13.00026, 0.0], [77.609239, 12.999107, 0.0], [77.609473, 12.999522, 0.0], [77.610202, 13.000012, 0.0]]]]}}, {"type": "Feature", "properties": {"name": "Shoolay Tank", "area_acres": 9.65, "year": "1870", "current_use": "Ashok Nagar Football Stadium", "valley": "Koramangala Challaghatta Valley", "subvalley": "KC_1", "ward_name": "25 - Ashokanagar", "Corporation": "Central"}, "geometry": {"type": "Polygon", "coordinates": [[[77.610449, 12.970167, 0.0], [77.612078, 12.969473, 0.0], [77.612599, 12.96882, 0.0], [77.613845, 12.968429, 0.0], [77.611942, 12.968179, 0.0], [77.611503, 12.967914, 0.0], [77.611262, 12.967259, 0.0], [77.610449, 12.970167, 0.0]]]}}, {"type": "Feature", "properties": {"name": "Dodkunti kere", "area_acres": 1.84, "year": "1870", "valley": "Koramangala Challaghatta Valley", "subvalley": "KC_1", "ward_name": "47 - Pulakeshi Nagar", "Corporation": "North"}, "geometry": {"type": "Polygon", "coordinates": [[[77.616131, 12.998222, 0.0], [77.616284, 12.997989, 0.0], [77.615589, 12.997466, 0.0], [77.615359, 12.996805, 0.0], [77.615204, 12.997456, 0.0], [77.615317, 12.997939, 0.0], [77.615542, 12.998129, 0.0], [77.616131, 12.998222, 0.0]]]}}, {"type": "Feature", "properties": {"name": "Reservoir High level", "area_acres": 1.11, "year": "1969", "valley": "Koramangala Challaghatta Valley", "subvalley": "KC_1", "ward_name": "4 - Sampangirama Nagar", "Corporation": "Central"}, "geometry": {"type": "Polygon", "coordinates": [[[77.58964, 12.987231, 0.0], [77.590138, 12.987016, 0.0], [77.589854, 12.986372, 0.0], [77.589377, 12.986566, 0.0], [77.58964, 12.987231, 0.0]]]}}, {"type": "Feature", "properties": {"name": "Jivanahalli Kere", "area_acres": 10.78, "year": "1897", "valley": "Koramangala Challaghatta Valley", "subvalley": "KC_1", "ward_name": "10 - Cox Town", "Corporation": "Central"}, "geometry": {"type": "Polygon", "coordinates": [[[77.628914, 12.99382, 0.0], [77.629613, 12.993995, 0.0], [77.629775, 12.993864, 0.0], [77.630625, 12.99362, 0.0], [77.630732, 12.993482, 0.0], [77.630258, 12.993358, 0.0], [77.630036, 12.992897, 0.0], [77.629713, 12.992406, 0.0], [77.629526, 12.992264, 0.0], [77.629414, 12.991999, 0.0], [77.629102, 12.991797, 0.0], [77.628725, 12.991299, 0.0], [77.628538, 12.99124, 0.0], [77.628316, 12.99141, 0.0], [77.628708, 12.99193, 0.0], [77.628674, 12.992341, 0.0], [77.62829, 12.992687, 0.0], [77.627349, 12.99303, 0.0], [77.627336, 12.993281, 0.0], [77.628414, 12.993445, 0.0], [77.628914, 12.99382, 0.0]]]}}, {"type": "Feature", "properties": {"name": "Byappanahalli Kere - 2", "area_acres": 6.44, "year": "1969", "valley": "Koramangala Challaghatta Valley", "subvalley": "KC_1", "ward_name": "11 - Old Baiyappanahalli", "Corporation": "Central"}, "geometry": {"type": "Polygon", "coordinates": [[[77.638154, 12.993342, 0.0], [77.63863, 12.994318, 0.0], [77.638621, 12.995043, 0.0], [77.638803, 12.995128, 0.0], [77.639261, 12.995119, 0.0], [77.640208, 12.994936, 0.0], [77.64027, 12.994833, 0.0], [77.640229, 12.994512, 0.0], [77.640029, 12.993875, 0.0], [77.639948, 12.993818, 0.0], [77.639714, 12.993866, 0.0], [77.63918, 12.993826, 0.0], [77.638665, 12.993597, 0.0], [77.638376, 12.99332, 0.0], [77.638154, 12.993342, 0.0]]]}}, {"type": "Feature", "properties": {"name": "Byappanahalli Kere", "area_acres": 9.33, "year": "1969", "valley": "Koramangala Challaghatta Valley", "subvalley": "KC_1", "ward_name": "37 - Jeevanahalli", "Corporation": "North"}, "geometry": {"type": "Polygon", "coordinates": [[[77.638789, 13.001367, 0.0], [77.639272, 13.000983, 0.0], [77.639984, 13.00072, 0.0], [77.640258, 13.000454, 0.0], [77.640396, 12.99995, 0.0], [77.640464, 12.999307, 0.0], [77.640859, 12.998454, 0.0], [77.640666, 12.998489, 0.0], [77.639697, 12.999067, 0.0], [77.639302, 12.99908, 0.0], [77.638846, 12.998821, 0.0], [77.638503, 12.998148, 0.0], [77.638231, 12.997879, 0.0], [77.638293, 12.998192, 0.0], [77.638807, 12.999076, 0.0], [77.638967, 12.999923, 0.0], [77.638984, 13.000764, 0.0], [77.638769, 13.001095, 0.0], [77.638789, 13.001367, 0.0]]]}}, {"type": "Feature", "properties": {"name": "Unknown", "area_acres": 0.7, "year": "1969", "valley": "Koramangala Challaghatta Valley", "subvalley": "KC_2", "ward_name": "32 - Banaswadi", "Corporation": "North"}, "geometry": {"type": "Polygon", "coordinates": [[[77.661703, 13.0118, 0.0], [77.661578, 13.011868, 0.0], [77.661542, 13.011996, 0.0], [77.661744, 13.012418, 0.0], [77.661946, 13.012502, 0.0], [77.66202, 13.012357, 0.0], [77.661987, 13.011991, 0.0], [77.661897, 13.011827, 0.0], [77.661703, 13.0118, 0.0]]]}}, {"type": "Feature", "properties": {"name": "Parangipalya Kere", "area_acres": 24.51, "year": "1969", "current_use": "HSR Layout", "valley": "Koramangala Challaghatta Valley", "subvalley": "KC_1", "ward_name": "72 - HSR Layout", "Corporation": "South"}, "geometry": {"type": "Polygon", "coordinates": [[[77.641935, 12.912145, 0.0], [77.642229, 12.912162, 0.0], [77.642364, 12.912034, 0.0], [77.642381, 12.911877, 0.0], [77.642257, 12.911576, 0.0], [77.642335, 12.911543, 0.0], [77.642244, 12.911478, 0.0], [77.64241, 12.911182, 0.0], [77.64225, 12.910846, 0.0], [77.64239, 12.910775, 0.0], [77.642244, 12.910743, 0.0], [77.642215, 12.910508, 0.0], [77.642335, 12.910016, 0.0], [77.64226, 12.90927, 0.0], [77.64196, 12.908631, 0.0], [77.641518, 12.908518, 0.0], [77.641429, 12.908637, 0.0], [77.641355, 12.909181, 0.0], [77.641249, 12.90936, 0.0], [77.640983, 12.90937, 0.0], [77.640749, 12.909488, 0.0], [77.640704, 12.909618, 0.0], [77.640138, 12.909682, 0.0], [77.639924, 12.90978, 0.0], [77.639012, 12.910559, 0.0], [77.638673, 12.910644, 0.0], [77.638384, 12.910632, 0.0], [77.63797, 12.910399, 0.0], [77.637759, 12.910418, 0.0], [77.637629, 12.910536, 0.0], [77.637595, 12.910698, 0.0], [77.637851, 12.911096, 0.0], [77.639048, 12.911292, 0.0], [77.640669, 12.911762, 0.0], [77.641501, 12.911906, 0.0], [77.641935, 12.912145, 0.0]]]}}, {"type": "Feature", "properties": {"name": "Unknown", "area_acres": 0.0, "year": "1969", "valley": "Koramangala Challaghatta Valley", "subvalley": "KC_1", "ward_name": "24 - Agaram", "Corporation": "Central"}, "geometry": {"type": "Polygon", "coordinates": [[[77.646481, 12.932206, 0.0], [77.646481, 12.932206, 0.0], [77.646495, 12.932207, 0.0], [77.646481, 12.932206, 0.0]]]}}, {"type": "Feature", "properties": {"name": "Haralakunte Kere", "area_acres": 13.0, "year": "1969", "valley": "Koramangala Challaghatta Valley", "subvalley": "KC_1", "ward_name": "70 - Iblur", "Corporation": "South"}, "geometry": {"type": "Polygon", "coordinates": [[[77.652083, 12.911812, 0.0], [77.65212, 12.911969, 0.0], [77.652197, 12.911969, 0.0], [77.652396, 12.911809, 0.0], [77.652364, 12.911741, 0.0], [77.652514, 12.91149, 0.0], [77.652595, 12.91147, 0.0], [77.652846, 12.911614, 0.0], [77.653202, 12.911605, 0.0], [77.65351, 12.911339, 0.0], [77.653499, 12.911108, 0.0], [77.65342, 12.91107, 0.0], [77.653387, 12.910932, 0.0], [77.653444, 12.910418, 0.0], [77.653324, 12.910112, 0.0], [77.653144, 12.910121, 0.0], [77.652764, 12.910409, 0.0], [77.652455, 12.910461, 0.0], [77.651674, 12.910144, 0.0], [77.651414, 12.910115, 0.0], [77.650907, 12.910508, 0.0], [77.650881, 12.910628, 0.0], [77.650847, 12.910515, 0.0], [77.650668, 12.910536, 0.0], [77.650652, 12.910931, 0.0], [77.650541, 12.911125, 0.0], [77.65059, 12.911168, 0.0], [77.650259, 12.911237, 0.0], [77.650168, 12.911353, 0.0], [77.650264, 12.911386, 0.0], [77.649876, 12.911552, 0.0], [77.649876, 12.911681, 0.0], [77.649763, 12.911626, 0.0], [77.649674, 12.911798, 0.0], [77.649705, 12.911938, 0.0], [77.649784, 12.911897, 0.0], [77.649781, 12.911986, 0.0], [77.649856, 12.912019, 0.0], [77.651151, 12.911668, 0.0], [77.65174, 12.911776, 0.0], [77.651832, 12.911723, 0.0], [77.651909, 12.911808, 0.0], [77.652083, 12.911812, 0.0]]]}}, {"type": "Feature", "properties": {"name": "Konena Agrahara", "area_acres": 16.62, "year": "1969", "valley": "Koramangala Challaghatta Valley", "subvalley": "KC_1", "ward_name": "21 - Konena Agrahara", "Corporation": "Central"}, "geometry": {"type": "Polygon", "coordinates": [[[77.655768, 12.957069, 0.0], [77.655757, 12.957151, 0.0], [77.656308, 12.957638, 0.0], [77.656384, 12.957615, 0.0], [77.656379, 12.957706, 0.0], [77.657399, 12.959196, 0.0], [77.657466, 12.959269, 0.0], [77.657721, 12.959283, 0.0], [77.658568, 12.959189, 0.0], [77.658672, 12.958833, 0.0], [77.659006, 12.958455, 0.0], [77.659135, 12.95814, 0.0], [77.659298, 12.957954, 0.0], [77.659299, 12.957325, 0.0], [77.659769, 12.956866, 0.0], [77.659881, 12.956874, 0.0], [77.659465, 12.956801, 0.0], [77.659251, 12.956823, 0.0], [77.659193, 12.956896, 0.0], [77.658621, 12.956841, 0.0], [77.656903, 12.957119, 0.0], [77.656033, 12.956997, 0.0], [77.655657, 12.957024, 0.0], [77.655692, 12.957098, 0.0], [77.655768, 12.957069, 0.0]]]}}, {"type": "Feature", "properties": {"name": "Unknown", "area_acres": 0.0, "year": "1969", "valley": "Koramangala Challaghatta Valley", "subvalley": "KC_1", "ward_name": "49 - Shivanasamudra Ward", "Corporation": "East"}, "geometry": {"type": "Polygon", "coordinates": [[[77.666911, 12.920714, 0.0], [77.666949, 12.920761, 0.0], [77.666945, 12.920751, 0.0], [77.666911, 12.920714, 0.0]]]}}, {"type": "Feature", "properties": {"name": "Unknown", "area_acres": 0.0, "year": "1969", "valley": "Koramangala Challaghatta Valley", "subvalley": "KC_2", "ward_name": "31 - Kasavanahalli", "Corporation": "South"}, "geometry": {"type": "Polygon", "coordinates": [[[77.67679, 12.914169, 0.0], [77.676814, 12.914221, 0.0], [77.676812, 12.91421, 0.0], [77.67679, 12.914169, 0.0]]]}}, {"type": "Feature", "properties": {"name": "Unknown", "area_acres": 14.12, "year": "1969", "valley": "Koramangala Challaghatta Valley", "subvalley": "KC_2", "ward_name": "31 - Kasavanahalli", "Corporation": "South"}, "geometry": {"type": "Polygon", "coordinates": [[[77.682294, 12.903786, 0.0], [77.682077, 12.902802, 0.0], [77.681939, 12.902731, 0.0], [77.682005, 12.902632, 0.0], [77.68186, 12.902183, 0.0], [77.681838, 12.901761, 0.0], [77.6819, 12.901289, 0.0], [77.682192, 12.900901, 0.0], [77.682425, 12.900382, 0.0], [77.682365, 12.900149, 0.0], [77.682335, 12.900265, 0.0], [77.681463, 12.900884, 0.0], [77.680686, 12.900912, 0.0], [77.679828, 12.901295, 0.0], [77.67952, 12.901341, 0.0], [77.679517, 12.90163, 0.0], [77.679902, 12.902237, 0.0], [77.680178, 12.90241, 0.0], [77.680593, 12.902536, 0.0], [77.681096, 12.902878, 0.0], [77.681045, 12.903216, 0.0], [77.680809, 12.90322, 0.0], [77.680736, 12.903327, 0.0], [77.68078, 12.90342, 0.0], [77.681238, 12.903395, 0.0], [77.681274, 12.903474, 0.0], [77.68133, 12.903383, 0.0], [77.681702, 12.90338, 0.0], [77.68213, 12.903757, 0.0], [77.682294, 12.903786, 0.0]]]}}, {"type": "Feature", "properties": {"name": "Kalasipalya Kere", "area_acres": 17.36, "year": "1870", "current_use": "Kalasipalya", "valley": "Koramangala Challaghatta Valley", "subvalley": "KC_1", "ward_name": "41 - V.V Puram", "Corporation": "Central"}, "geometry": {"type": "Polygon", "coordinates": [[[77.580047, 12.959312, 0.0], [77.582474, 12.957655, 0.0], [77.583371, 12.95668, 0.0], [77.584277, 12.956037, 0.0], [77.584228, 12.955832, 0.0], [77.582016, 12.956417, 0.0], [77.580914, 12.956514, 0.0], [77.580953, 12.956807, 0.0], [77.579998, 12.95708, 0.0], [77.580086, 12.957733, 0.0], [77.579959, 12.959253, 0.0], [77.580047, 12.959312, 0.0]]]}}, {"type": "Feature", "properties": {"name": "Unknown", "area_acres": 3.04, "year": "1969", "valley": "Arkavathi Valley", "subvalley": "AV_1", "ward_name": "9 - Kuvempunagara", "Corporation": "North"}, "geometry": {"type": "Polygon", "coordinates": [[[77.536739, 13.057195, 0.0], [77.537107, 13.057834, 0.0], [77.537203, 13.057847, 0.0], [77.537258, 13.057581, 0.0], [77.537217, 13.057284, 0.0], [77.537323, 13.056924, 0.0], [77.537066, 13.056139, 0.0], [77.53695, 13.05607, 0.0], [77.536623, 13.05608, 0.0], [77.536423, 13.056589, 0.0], [77.536292, 13.056653, 0.0], [77.536263, 13.056828, 0.0], [77.536739, 13.057195, 0.0]]]}}, {"type": "Feature", "properties": {"name": "Unknown", "area_acres": 3.65, "year": "1969", "valley": "Arkavathi Valley", "subvalley": "AV_1", "ward_name": "9 - Kuvempunagara", "Corporation": "North"}, "geometry": {"type": "Polygon", "coordinates": [[[77.536517, 13.058092, 0.0], [77.536669, 13.057941, 0.0], [77.536691, 13.057584, 0.0], [77.53639, 13.057172, 0.0], [77.536247, 13.057141, 0.0], [77.535752, 13.05751, 0.0], [77.535537, 13.057196, 0.0], [77.535573, 13.057137, 0.0], [77.535427, 13.057143, 0.0], [77.535365, 13.057244, 0.0], [77.535421, 13.05763, 0.0], [77.535633, 13.057836, 0.0], [77.535615, 13.057962, 0.0], [77.536048, 13.058646, 0.0], [77.536284, 13.05862, 0.0], [77.536517, 13.058092, 0.0]]]}}, {"type": "Feature", "properties": {"name": "Unknown", "area_acres": 1.16, "year": "1969", "valley": "Arkavathi Valley", "subvalley": "AV_1", "ward_name": "66 - Kammagondanahalli", "Corporation": "North"}, "geometry": {"type": "Polygon", "coordinates": [[[77.530195, 13.06598, 0.0], [77.530222, 13.066528, 0.0], [77.530405, 13.066599, 0.0], [77.530823, 13.066256, 0.0], [77.530917, 13.066095, 0.0], [77.530927, 13.065876, 0.0], [77.530351, 13.065901, 0.0], [77.530195, 13.06598, 0.0]]]}}, {"type": "Feature", "properties": {"name": "Unknown", "area_acres": 2.72, "year": "1969", "valley": "Arkavathi Valley", "subvalley": "AV_1", "ward_name": "9 - Kuvempunagara", "Corporation": "North"}, "geometry": {"type": "Polygon", "coordinates": [[[77.53958, 13.068505, 0.0], [77.540089, 13.068345, 0.0], [77.540112, 13.068178, 0.0], [77.539817, 13.067687, 0.0], [77.539589, 13.067596, 0.0], [77.539186, 13.067637, 0.0], [77.538976, 13.068047, 0.0], [77.53872, 13.068291, 0.0], [77.538867, 13.068487, 0.0], [77.539063, 13.068535, 0.0], [77.53958, 13.068505, 0.0]]]}}, {"type": "Feature", "properties": {"name": "Unknown", "area_acres": 1.62, "year": "1969", "valley": "Arkavathi Valley", "subvalley": "AV_1", "ward_name": "9 - Kuvempunagara", "Corporation": "North"}, "geometry": {"type": "Polygon", "coordinates": [[[77.53809, 13.070139, 0.0], [77.538202, 13.070032, 0.0], [77.538206, 13.069791, 0.0], [77.538401, 13.069783, 0.0], [77.53845, 13.069622, 0.0], [77.538819, 13.069303, 0.0], [77.53879, 13.06897, 0.0], [77.538463, 13.069066, 0.0], [77.537875, 13.069461, 0.0], [77.537905, 13.069943, 0.0], [77.53809, 13.070139, 0.0]]]}}, {"type": "Feature", "properties": {"name": "Unknown", "area_acres": 2.92, "year": "1969", "valley": "Arkavathi Valley", "subvalley": "AV_1", "ward_name": "9 - Kuvempunagara", "Corporation": "North"}, "geometry": {"type": "Polygon", "coordinates": [[[77.544516, 13.081978, 0.0], [77.544653, 13.081736, 0.0], [77.544607, 13.081619, 0.0], [77.544286, 13.08161, 0.0], [77.544158, 13.081493, 0.0], [77.543932, 13.081576, 0.0], [77.54382, 13.081719, 0.0], [77.543656, 13.081715, 0.0], [77.543664, 13.081826, 0.0], [77.543538, 13.081889, 0.0], [77.543078, 13.081819, 0.0], [77.543068, 13.082073, 0.0], [77.542932, 13.082358, 0.0], [77.542934, 13.082605, 0.0], [77.543081, 13.082728, 0.0], [77.543389, 13.082712, 0.0], [77.543646, 13.082555, 0.0], [77.544043, 13.081933, 0.0], [77.544516, 13.081978, 0.0]]]}}, {"type": "Feature", "properties": {"name": "Chelgatta Tank", "area_acres": 116.77, "year": "1969", "current_use": "Karnataka Golf Association", "valley": "Koramangala Challaghatta Valley", "subvalley": "KC_1", "ward_name": "21 - Konena Agrahara", "Corporation": "Central"}, "geometry": {"type": "Polygon", "coordinates": [[[77.644927, 12.95118, 0.0], [77.644771, 12.951372, 0.0], [77.644744, 12.951756, 0.0], [77.644547, 12.952083, 0.0], [77.644201, 12.953535, 0.0], [77.643864, 12.953766, 0.0], [77.643169, 12.953903, 0.0], [77.643018, 12.9541, 0.0], [77.643004, 12.954253, 0.0], [77.643486, 12.954569, 0.0], [77.643704, 12.954893, 0.0], [77.643983, 12.955824, 0.0], [77.643944, 12.955885, 0.0], [77.644026, 12.955935, 0.0], [77.644108, 12.956178, 0.0], [77.644101, 12.956545, 0.0], [77.644001, 12.956836, 0.0], [77.644058, 12.957035, 0.0], [77.644399, 12.957344, 0.0], [77.644713, 12.957535, 0.0], [77.644954, 12.95758, 0.0], [77.645282, 12.95781, 0.0], [77.645463, 12.957746, 0.0], [77.645314, 12.957406, 0.0], [77.645347, 12.957286, 0.0], [77.645835, 12.956965, 0.0], [77.646583, 12.956287, 0.0], [77.646737, 12.955599, 0.0], [77.647335, 12.955521, 0.0], [77.647551, 12.955395, 0.0], [77.647654, 12.954916, 0.0], [77.648012, 12.954455, 0.0], [77.648172, 12.953728, 0.0], [77.648574, 12.953279, 0.0], [77.650678, 12.952073, 0.0], [77.651566, 12.952277, 0.0], [77.651999, 12.952572, 0.0], [77.652165, 12.952542, 0.0], [77.652204, 12.952384, 0.0], [77.652097, 12.952117, 0.0], [77.651993, 12.952121, 0.0], [77.651528, 12.951834, 0.0], [77.650574, 12.951092, 0.0], [77.65026, 12.950607, 0.0], [77.649551, 12.949844, 0.0], [77.649129, 12.949143, 0.0], [77.648913, 12.947933, 0.0], [77.649296, 12.946987, 0.0], [77.649406, 12.946591, 0.0], [77.649366, 12.946495, 0.0], [77.649176, 12.946614, 0.0], [77.648424, 12.947508, 0.0], [77.647242, 12.948149, 0.0], [77.646634, 12.948192, 0.0], [77.646668, 12.948381, 0.0], [77.646572, 12.948402, 0.0], [77.645986, 12.949123, 0.0], [77.645362, 12.950148, 0.0], [77.644927, 12.95118, 0.0]]]}}, {"type": "Feature", "properties": {"name": "Belakahalli Kere -2", "area_acres": 11.31, "year": "1969", "valley": "Koramangala Challaghatta Valley", "subvalley": "KC_1", "ward_name": "56 - Doresanipalya", "Corporation": "South"}, "geometry": {"type": "Polygon", "coordinates": [[[77.597696, 12.896608, 0.0], [77.597809, 12.896461, 0.0], [77.59832, 12.896132, 0.0], [77.599462, 12.895751, 0.0], [77.599497, 12.895309, 0.0], [77.599367, 12.895127, 0.0], [77.599151, 12.894435, 0.0], [77.598874, 12.893301, 0.0], [77.598467, 12.893404, 0.0], [77.598337, 12.893967, 0.0], [77.59806, 12.89427, 0.0], [77.597688, 12.895292, 0.0], [77.597514, 12.895552, 0.0], [77.59722, 12.895655, 0.0], [77.597203, 12.895829, 0.0], [77.597462, 12.89621, 0.0], [77.597592, 12.896599, 0.0], [77.597696, 12.896608, 0.0]]]}}, {"type": "Feature", "properties": {"name": "Chikkalasandra Kere", "area_acres": 12.51, "year": "1969", "valley": "Vrishabhavati Valley", "subvalley": "VV_1", "ward_name": "1 - Padmanabhanagara", "Corporation": "South"}, "geometry": {"type": "Polygon", "coordinates": [[[77.552666, 12.917858, 0.0], [77.552857, 12.917243, 0.0], [77.553356, 12.916387, 0.0], [77.553663, 12.916229, 0.0], [77.554303, 12.91613, 0.0], [77.55417, 12.915581, 0.0], [77.553763, 12.914759, 0.0], [77.553389, 12.914285, 0.0], [77.553273, 12.914227, 0.0], [77.553065, 12.914252, 0.0], [77.552683, 12.914493, 0.0], [77.552608, 12.914642, 0.0], [77.552425, 12.91475, 0.0], [77.552143, 12.915191, 0.0], [77.551744, 12.915357, 0.0], [77.551661, 12.915507, 0.0], [77.552351, 12.916105, 0.0], [77.552525, 12.916362, 0.0], [77.552567, 12.916628, 0.0], [77.55245, 12.917077, 0.0], [77.552434, 12.917675, 0.0], [77.552542, 12.917858, 0.0], [77.552666, 12.917858, 0.0]]]}}, {"type": "Feature", "properties": {"name": "Thavarekere", "area_acres": 17.89, "year": "1969", "valley": "Koramangala Challaghatta Valley", "subvalley": "KC_1", "ward_name": "22 - S.G Palya", "Corporation": "South"}, "geometry": {"type": "Polygon", "coordinates": [[[77.602712, 12.930133, 0.0], [77.603657, 12.92941, 0.0], [77.604085, 12.929183, 0.0], [77.604475, 12.928771, 0.0], [77.605277, 12.928344, 0.0], [77.605372, 12.928122, 0.0], [77.605166, 12.927979, 0.0], [77.604222, 12.928085, 0.0], [77.60362, 12.927969, 0.0], [77.602248, 12.927119, 0.0], [77.601588, 12.926876, 0.0], [77.601567, 12.92714, 0.0], [77.601852, 12.927631, 0.0], [77.601884, 12.927842, 0.0], [77.601562, 12.928512, 0.0], [77.601562, 12.928782, 0.0], [77.601953, 12.92923, 0.0], [77.602016, 12.929695, 0.0], [77.60228, 12.930064, 0.0], [77.60248, 12.930191, 0.0], [77.602712, 12.930133, 0.0]]]}}, {"type": "Feature", "properties": {"name": "Kathreguppe", "area_acres": 33.85, "year": "1969", "current_use": "Chinnamana Kere Residential layouts and Parks", "valley": "Vrishabhavati Valley", "subvalley": "VV_1", "ward_name": "96 - Kathriguppe", "Corporation": "West"}, "geometry": {"type": "Polygon", "coordinates": [[[77.56181, 12.930806, 0.0], [77.561911, 12.929469, 0.0], [77.561514, 12.929383, 0.0], [77.561289, 12.92922, 0.0], [77.560285, 12.928877, 0.0], [77.559523, 12.928263, 0.0], [77.557408, 12.927454, 0.0], [77.556809, 12.92705, 0.0], [77.555347, 12.925549, 0.0], [77.554639, 12.926116, 0.0], [77.553814, 12.926466, 0.0], [77.553822, 12.9267, 0.0], [77.554017, 12.927291, 0.0], [77.55425, 12.927649, 0.0], [77.555059, 12.927726, 0.0], [77.555743, 12.927882, 0.0], [77.556194, 12.928177, 0.0], [77.557065, 12.928512, 0.0], [77.558707, 12.928823, 0.0], [77.559002, 12.928979, 0.0], [77.559329, 12.929686, 0.0], [77.559803, 12.930215, 0.0], [77.560247, 12.930402, 0.0], [77.560877, 12.930371, 0.0], [77.56181, 12.930806, 0.0]]]}}, {"type": "Feature", "properties": {"name": "Belakahalli Kere", "area_acres": 6.47, "year": "1969", "valley": "Koramangala Challaghatta Valley", "subvalley": "KC_1", "ward_name": "60 - Bilekahalli", "Corporation": "South"}, "geometry": {"type": "Polygon", "coordinates": [[[77.601667, 12.907406, 0.0], [77.601653, 12.90753, 0.0], [77.601795, 12.90782, 0.0], [77.601771, 12.90809, 0.0], [77.601938, 12.908304, 0.0], [77.602094, 12.908432, 0.0], [77.602479, 12.908494, 0.0], [77.602788, 12.908798, 0.0], [77.60303, 12.908859, 0.0], [77.603196, 12.908798, 0.0], [77.603262, 12.908598, 0.0], [77.603628, 12.908451, 0.0], [77.603505, 12.907919, 0.0], [77.603566, 12.907767, 0.0], [77.603813, 12.907606, 0.0], [77.603903, 12.907278, 0.0], [77.603747, 12.907188, 0.0], [77.603267, 12.907387, 0.0], [77.602593, 12.907544, 0.0], [77.602317, 12.907535, 0.0], [77.601762, 12.907364, 0.0], [77.601667, 12.907406, 0.0]]]}}, {"type": "Feature", "properties": {"name": "Kempapura Kere", "area_acres": 21.22, "year": "1969", "valley": "Koramangala Challaghatta Valley", "subvalley": "KC_2", "ward_name": "27 - Vibhootipura", "Corporation": "East"}, "geometry": {"type": "Polygon", "coordinates": [[[77.674616, 12.95121, 0.0], [77.675507, 12.951034, 0.0], [77.676122, 12.950607, 0.0], [77.676273, 12.950319, 0.0], [77.676248, 12.948812, 0.0], [77.675821, 12.948147, 0.0], [77.67557, 12.948147, 0.0], [77.674616, 12.948787, 0.0], [77.674039, 12.949001, 0.0], [77.673612, 12.949402, 0.0], [77.673449, 12.949678, 0.0], [77.673399, 12.949817, 0.0], [77.673436, 12.950946, 0.0], [77.673512, 12.951235, 0.0], [77.673825, 12.951737, 0.0], [77.674315, 12.951812, 0.0], [77.674616, 12.95121, 0.0]]]}}, {"type": "Feature", "properties": {"name": "Yellakunte Kere - 2", "area_acres": 5.76, "year": "1969", "valley": "Koramangala Challaghatta Valley", "subvalley": "KC_1", "ward_name": "71 - Agara", "Corporation": "South"}, "geometry": {"type": "Polygon", "coordinates": [[[77.64253, 12.905455, 0.0], [77.643019, 12.905882, 0.0], [77.642944, 12.906133, 0.0], [77.643019, 12.906296, 0.0], [77.643458, 12.906271, 0.0], [77.643785, 12.90602, 0.0], [77.643534, 12.905669, 0.0], [77.643546, 12.904916, 0.0], [77.643345, 12.904376, 0.0], [77.643019, 12.903962, 0.0], [77.642643, 12.903736, 0.0], [77.642542, 12.903924, 0.0], [77.64258, 12.905267, 0.0], [77.64253, 12.905455, 0.0]]]}}]}