{
 "type": "FeatureCollection",
 "features": [
  {
   "type": "Feature",
   "geometry": {
    "type": "Polygon",
    "coordinates": [
     [
      [
       73.79620689655172,
       18.531452658884564
      ],
      [
       73.79620689655172,
       18.530804150453957
      ],
      [
       73.80137931034483,
       18.53112840466926
      ],
      [
       73.80206896551724,
       18.528534370946822
      ],
      [
       73.8044827586207,
       18.528534370946822
      ],
      [
       73.8048275862069,
       18.53242542153048
      ],
      [
       73.80586206896552,
       18.5337224383917
      ],
      [
       73.8048275862069,
       18.5337224383917
      ],
      [
       73.80344827586207,
       18.531776913099872
      ],
      [
       73.8,
       18.532101167315176
      ],
      [
       73.7996551724138,
       18.5337224383917
      ],
      [
       73.79896551724138,
       18.5337224383917
      ],
      [
       73.79620689655172,
       18.531452658884564
      ]
     ]
    ]
   },
   "properties": {
    "id": "pune_000",
    "city": "pune",
    "name_as_printed": null,
    "nearest_place_as_printed": "Sut\u0101rv\u0101di",
    "display_name": "Unnamed tank near Sut\u0101rv\u0101di",
    "status": "lost",
    "now_osm": {
     "name": "Vetal Tekdi Forest Area",
     "type": "wood",
     "source": "OpenStreetMap"
    },
    "runs_found": [
     1,
     2,
     3
    ],
    "tiles": [
     "pune_t0"
    ],
    "style": "solid",
    "crop": "crops/pune_000.jpg",
    "area_m2": 237724,
    "overlap_frac": 0.0,
    "bbox_px": [
     1167.0,
     1644.0,
     1195.0,
     1660.0
    ],
    "point_px": [
     1182.2,
     1651.7
    ]
   }
  },
  {
   "type": "Feature",
   "geometry": {
    "type": "Polygon",
    "coordinates": [
     [
      [
       73.93,
       18.62970168612192
      ],
      [
       73.93,
       18.628728923476004
      ],
      [
       73.93137931034482,
       18.628728923476004
      ],
      [
       73.93310344827586,
       18.630025940337223
      ],
      [
       73.93448275862069,
       18.630025940337223
      ],
      [
       73.9348275862069,
       18.627756160830092
      ],
      [
       73.93551724137932,
       18.627756160830092
      ],
      [
       73.93551724137932,
       18.63261997405966
      ],
      [
       73.93344827586206,
       18.63261997405966
      ],
      [
       73.93,
       18.62970168612192
      ]
     ]
    ]
   },
   "properties": {
    "id": "pune_001",
    "city": "pune",
    "name_as_printed": null,
    "nearest_place_as_printed": "DIGHI",
    "display_name": "Unnamed tank near DIGHI",
    "status": "lost",
    "now_osm": null,
    "runs_found": [
     1,
     2,
     3
    ],
    "tiles": [
     "pune_t1"
    ],
    "style": "solid",
    "crop": "crops/pune_001.jpg",
    "area_m2": 165124,
    "overlap_frac": 0.0,
    "bbox_px": [
     1555.0,
     1339.0,
     1571.0,
     1354.0
    ],
    "point_px": [
     1564.6,
     1345.5
    ]
   }
  },
  {
   "type": "Feature",
   "geometry": {
    "type": "Polygon",
    "coordinates": [
     [
      [
       73.87586206896552,
       18.615758754863812
      ],
      [
       73.87482758620689,
       18.615758754863812
      ],
      [
       73.87413793103448,
       18.614461738002593
      ],
      [
       73.87482758620689,
       18.611219195849547
      ],
      [
       73.87241379310345,
       18.61024643320363
      ],
      [
       73.87275862068965,
       18.608949416342412
      ],
      [
       73.87517241379311,
       18.609273670557716
      ],
      [
       73.87551724137931,
       18.61154345006485
      ],
      [
       73.87827586206896,
       18.613164721141374
      ],
      [
       73.87827586206896,
       18.61413748378729
      ],
      [
       73.87586206896552,
       18.614461738002593
      ],
      [
       73.87586206896552,
       18.615758754863812
      ]
     ]
    ]
   },
   "properties": {
    "id": "pune_002",
    "city": "pune",
    "name_as_printed": null,
    "nearest_place_as_printed": "Bhavsari",
    "display_name": "Unnamed tank near Bhavsari",
    "status": "lost",
    "now_osm": null,
    "runs_found": [
     1,
     2,
     3
    ],
    "tiles": [
     "pune_t1"
    ],
    "style": "solid",
    "crop": "crops/pune_002.jpg",
    "area_m2": 178854,
    "overlap_frac": 0.0,
    "bbox_px": [
     1388.0,
     1391.0,
     1405.0,
     1412.0
    ],
    "point_px": [
     1396.4,
     1401.3
    ]
   }
  },
  {
   "type": "Feature",
   "geometry": {
    "type": "Polygon",
    "coordinates": [
     [
      [
       73.99034482758621,
       18.626134889753565
      ],
      [
       73.99,
       18.621271076523996
      ],
      [
       73.99068965517242,
       18.621271076523996
      ],
      [
       73.99068965517242,
       18.623216601815823
      ],
      [
       73.99241379310345,
       18.623540856031127
      ],
      [
       73.99310344827586,
       18.6215953307393
      ],
      [
       73.99137931034483,
       18.621271076523996
      ],
      [
       73.99137931034483,
       18.620622568093385
      ],
      [
       73.99275862068966,
       18.61964980544747
      ],
      [
       73.99310344827586,
       18.621271076523996
      ],
      [
       73.9951724137931,
       18.6215953307393
      ],
      [
       73.9948275862069,
       18.625162127107654
      ],
      [
       73.99172413793103,
       18.624837872892346
      ],
      [
       73.99137931034483,
       18.626134889753565
      ],
      [
       73.99034482758621,
       18.626134889753565
      ]
     ]
    ]
   },
   "properties": {
    "id": "pune_003",
    "city": "pune",
    "name_as_printed": null,
    "nearest_place_as_printed": "Bhav\u0101di",
    "display_name": "Unnamed tank near Bhav\u0101di",
    "status": "lost",
    "now_osm": null,
    "runs_found": [
     1,
     2,
     3
    ],
    "tiles": [
     "pune_t1"
    ],
    "style": "solid",
    "crop": "crops/pune_003.jpg",
    "area_m2": 197106,
    "overlap_frac": 0.0,
    "bbox_px": [
     1729.0,
     1359.0,
     1744.0,
     1379.0
    ],
    "point_px": [
     1736.5,
     1367.9
    ]
   }
  },
  {
   "type": "Feature",
   "geometry": {
    "type": "Polygon",
    "coordinates": [
     [
      [
       73.99655172413793,
       18.612191958495462
      ],
      [
       73.99689655172413,
       18.608949416342412
      ],
      [
       73.99793103448276,
       18.608949416342412
      ],
      [
       73.99931034482759,
       18.607003891050585
      ],
      [
       74.00068965517241,
       18.60732814526589
      ],
      [
       74.0003448275862,
       18.609922178988327
      ],
      [
       74.00103448275863,
       18.610570687418935
      ],
      [
       74.00344827586207,
       18.610570687418935
      ],
      [
       74.00344827586207,
       18.611219195849547
      ],
      [
       73.99655172413793,
       18.612191958495462
      ]
     ]
    ]
   },
   "properties": {
    "id": "pune_004",
    "city": "pune",
    "name_as_printed": null,
    "nearest_place_as_printed": "Bhav\u0101di",
    "display_name": "Unnamed tank near Bhav\u0101di",
    "status": "lost",
    "now_osm": {
     "name": "water Body",
     "type": "water",
     "source": "OpenStreetMap"
    },
    "runs_found": [
     1,
     2,
     3
    ],
    "tiles": [
     "pune_t1"
    ],
    "style": "solid",
    "crop": "crops/pune_004.jpg",
    "area_m2": 202343,
    "overlap_frac": 0.023,
    "bbox_px": [
     1748.0,
     1402.0,
     1768.0,
     1418.0
    ],
    "point_px": [
     1755.8,
     1408.6
    ]
   }
  },
  {
   "type": "Feature",
   "geometry": {
    "type": "Polygon",
    "coordinates": [
     [
      [
       73.7851724137931,
       18.429312581063552
      ],
      [
       73.78241379310344,
       18.430285343709468
      ],
      [
       73.78206896551724,
       18.43320363164721
      ],
      [
       73.7803448275862,
       18.43320363164721
      ],
      [
       73.7803448275862,
       18.431258106355383
      ],
      [
       73.77862068965517,
       18.43093385214008
      ],
      [
       73.77620689655173,
       18.431258106355383
      ],
      [
       73.7755172413793,
       18.43385214007782
      ],
      [
       73.77413793103449,
       18.434176394293125
      ],
      [
       73.77413793103449,
       18.439688715953306
      ],
      [
       73.77724137931034,
       18.443579766536963
      ],
      [
       73.77655172413793,
       18.44520103761349
      ],
      [
       73.7748275862069,
       18.444876783398183
      ],
      [
       73.77448275862069,
       18.442931258106356
      ],
      [
       73.77172413793103,
       18.439688715953306
      ],
      [
       73.76655172413793,
       18.440337224383917
      ],
      [
       73.76586206896552,
       18.441309987029832
      ],
      [
       73.76413793103448,
       18.441309987029832
      ],
      [
       73.76448275862069,
       18.439040207522698
      ],
      [
       73.76344827586207,
       18.437094682230867
      ],
      [
       73.76034482758621,
       18.434176394293125
      ],
      [
       73.75827586206897,
       18.434176394293125
      ],
      [
       73.75793103448275,
       18.43190661478599
      ],
      [
       73.75551724137931,
       18.43060959792477
      ],
      [
       73.75551724137931,
       18.428015564202333
      ],
      [
       73.75344827586207,
       18.423476005188068
      ],
      [
       73.75379310344827,
       18.421206225680933
      ],
      [
       73.7548275862069,
       18.421206225680933
      ],
      [
       73.75551724137931,
       18.42380025940337
      ],
      [
       73.75689655172414,
       18.42380025940337
      ],
      [
       73.75689655172414,
       18.424773022049287
      ],
      [
       73.75586206896551,
       18.42509727626459
      ],
      [
       73.75586206896551,
       18.426718547341114
      ],
      [
       73.75896551724138,
       18.432230869001298
      ],
      [
       73.76103448275862,
       18.432879377431906
      ],
      [
       73.76517241379311,
       18.436770428015564
      ],
      [
       73.76586206896552,
       18.439040207522698
      ],
      [
       73.77,
       18.439040207522698
      ],
      [
       73.77068965517242,
       18.438067444876783
      ],
      [
       73.77275862068966,
       18.438067444876783
      ],
      [
       73.77310344827586,
       18.434176394293125
      ],
      [
       73.76793103448276,
       18.434176394293125
      ],
      [
       73.76482758620689,
       18.43190661478599
      ],
      [
       73.76448275862069,
       18.429961089494164
      ],
      [
       73.76310344827586,
       18.428664072632944
      ],
      [
       73.76310344827586,
       18.425745784695202
      ],
      [
       73.76172413793104,
       18.424773022049287
      ],
      [
       73.76103448275862,
       18.42217898832685
      ],
      [
       73.76,
       18.421530479896237
      ],
      [
       73.76,
       18.419260700389106
      ],
      [
       73.75862068965517,
       18.4189364461738
      ],
      [
       73.75896551724138,
       18.41634241245136
      ],
      [
       73.75586206896551,
       18.414721141374837
      ],
      [
       73.75241379310344,
       18.41147859922179
      ],
      [
       73.74827586206897,
       18.411154345006484
      ],
      [
       73.74793103448276,
       18.413099870298314
      ],
      [
       73.74413793103449,
       18.413099870298314
      ],
      [
       73.74344827586206,
       18.411154345006484
      ],
      [
       73.74172413793103,
       18.410505836575876
      ],
      [
       73.73758620689655,
       18.41083009079118
      ],
      [
       73.73586206896552,
       18.409857328145264
      ],
      [
       73.73379310344828,
       18.40661478599222
      ],
      [
       73.73172413793104,
       18.40661478599222
      ],
      [
       73.73172413793104,
       18.41277561608301
      ],
      [
       73.73275862068965,
       18.413424124513618
      ],
      [
       73.73310344827586,
       18.415693904020753
      ],
      [
       73.73517241379311,
       18.415693904020753
      ],
      [
       73.73724137931035,
       18.413424124513618
      ],
      [
       73.73931034482759,
       18.41277561608301
      ],
      [
       73.74,
       18.413099870298314
      ],
      [
       73.73896551724138,
       18.41407263294423
      ],
      [
       73.73931034482759,
       18.415693904020753
      ],
      [
       73.74275862068966,
       18.414721141374837
      ],
      [
       73.74586206896552,
       18.41828793774319
      ],
      [
       73.75241379310344,
       18.418612191958495
      ],
      [
       73.75275862068966,
       18.41958495460441
      ],
      [
       73.74586206896552,
       18.419260700389106
      ],
      [
       73.7451724137931,
       18.41828793774319
      ],
      [
       73.74344827586206,
       18.41828793774319
      ],
      [
       73.74275862068966,
       18.41699092088197
      ],
      [
       73.74137931034483,
       18.41699092088197
      ],
      [
       73.74034482758621,
       18.41828793774319
      ],
      [
       73.73896551724138,
       18.418612191958495
      ],
      [
       73.73793103448276,
       18.41634241245136
      ],
      [
       73.73344827586207,
       18.417315175097276
      ],
      [
       73.73241379310345,
       18.415693904020753
      ],
      [
       73.73068965517241,
       18.41536964980545
      ],
      [
       73.73034482758621,
       18.40953307392996
      ],
      [
       73.72793103448276,
       18.407263294422826
      ],
      [
       73.7244827586207,
       18.407263294422826
      ],
      [
       73.7244827586207,
       18.411154345006484
      ],
      [
       73.72379310344827,
       18.411154345006484
      ],
      [
       73.72344827586207,
       18.40953307392996
      ],
      [
       73.72137931034483,
       18.408560311284045
      ],
      [
       73.71827586206896,
       18.408884565499353
      ],
      [
       73.71793103448276,
       18.41083009079118
      ],
      [
       73.71724137931035,
       18.41083009079118
      ],
      [
       73.71724137931035,
       18.408560311284045
      ],
      [
       73.71448275862069,
       18.406939040207522
      ],
      [
       73.71448275862069,
       18.406290531776914
      ],
      [
       73.72137931034483,
       18.407587548638134
      ],
      [
       73.72172413793103,
       18.405642023346303
      ],
      [
       73.72310344827586,
       18.404993514915695
      ],
      [
       73.72275862068966,
       18.40337224383917
      ],
      [
       73.71379310344828,
       18.40402075226978
      ],
      [
       73.71344827586206,
       18.405966277561607
      ],
      [
       73.71103448275862,
       18.404669260700388
      ],
      [
       73.71068965517242,
       18.401102464332038
      ],
      [
       73.70793103448275,
       18.40077821011673
      ],
      [
       73.70344827586207,
       18.40272373540856
      ],
      [
       73.70379310344828,
       18.406290531776914
      ],
      [
       73.70310344827587,
       18.406290531776914
      ],
      [
       73.70310344827587,
       18.404345006485084
      ],
      [
       73.70206896551724,
       18.40272373540856
      ],
      [
       73.69620689655173,
       18.403047989623865
      ],
      [
       73.69620689655173,
       18.401750972762645
      ],
      [
       73.70241379310345,
       18.400453955901426
      ],
      [
       73.70275862068965,
       18.39818417639429
      ],
      [
       73.70068965517241,
       18.397859922178988
      ],
      [
       73.69620689655173,
       18.39948119325551
      ],
      [
       73.69620689655173,
       18.397859922178988
      ],
      [
       73.70103448275862,
       18.39656290531777
      ],
      [
       73.70896551724138,
       18.396887159533073
      ],
      [
       73.71068965517242,
       18.39526588845655
      ],
      [
       73.71206896551725,
       18.39591439688716
      ],
      [
       73.71241379310345,
       18.397535667963684
      ],
      [
       73.71448275862069,
       18.397535667963684
      ],
      [
       73.71724137931035,
       18.39591439688716
      ],
      [
       73.71793103448276,
       18.394293125810634
      ],
      [
       73.7196551724138,
       18.394293125810634
      ],
      [
       73.72172413793103,
       18.39267185473411
      ],
      [
       73.72103448275863,
       18.39461738002594
      ],
      [
       73.71758620689656,
       18.39591439688716
      ],
      [
       73.71758620689656,
       18.397535667963684
      ],
      [
       73.71655172413793,
       18.39818417639429
      ],
      [
       73.71724137931035,
       18.40077821011673
      ],
      [
       73.7196551724138,
       18.40142671854734
      ],
      [
       73.72413793103448,
       18.40142671854734
      ],
      [
       73.7248275862069,
       18.400453955901426
      ],
      [
       73.73103448275862,
       18.401102464332038
      ],
      [
       73.73310344827586,
       18.40337224383917
      ],
      [
       73.73310344827586,
       18.404993514915695
      ],
      [
       73.73586206896552,
       18.40661478599222
      ],
      [
       73.73724137931035,
       18.40953307392996
      ],
      [
       73.74,
       18.409208819714657
      ],
      [
       73.74137931034483,
       18.403696498054476
      ],
      [
       73.74275862068966,
       18.403696498054476
      ],
      [
       73.74275862068966,
       18.404669260700388
      ],
      [
       73.74172413793103,
       18.405317769131
      ],
      [
       73.74172413793103,
       18.407263294422826
      ],
      [
       73.74413793103449,
       18.407587548638134
      ],
      [
       73.74413793103449,
       18.410505836575876
      ],
      [
       73.7496551724138,
       18.409857328145264
      ],
      [
       73.7551724137931,
       18.41083009079118
      ],
      [
       73.7551724137931,
       18.4121271076524
      ],
      [
       73.75931034482758,
       18.41536964980545
      ],
      [
       73.76172413793104,
       18.415693904020753
      ],
      [
       73.76344827586207,
       18.41504539559014
      ],
      [
       73.76344827586207,
       18.41634241245136
      ],
      [
       73.76103448275862,
       18.41763942931258
      ],
      [
       73.76103448275862,
       18.419909208819714
      ],
      [
       73.76344827586207,
       18.424448767833983
      ],
      [
       73.76793103448276,
       18.424448767833983
      ],
      [
       73.76793103448276,
       18.42509727626459
      ],
      [
       73.76448275862069,
       18.426070038910506
      ],
      [
       73.76448275862069,
       18.428664072632944
      ],
      [
       73.76551724137931,
       18.42898832684825
      ],
      [
       73.76724137931035,
       18.432555123216602
      ],
      [
       73.76862068965518,
       18.43320363164721
      ],
      [
       73.77172413793103,
       18.432879377431906
      ],
      [
       73.77379310344827,
       18.430285343709468
      ],
      [
       73.7755172413793,
       18.430285343709468
      ],
      [
       73.77793103448276,
       18.42704280155642
      ],
      [
       73.77862068965517,
       18.42704280155642
      ],
      [
       73.77862068965517,
       18.428664072632944
      ],
      [
       73.7796551724138,
       18.42963683527886
      ],
      [
       73.78310344827587,
       18.42898832684825
      ],
      [
       73.78379310344828,
       18.427367055771725
      ],
      [
       73.7851724137931,
       18.427367055771725
      ],
      [
       73.7851724137931,
       18.429312581063552
      ]
     ]
    ]
   },
   "properties": {
    "id": "pune_005",
    "city": "pune",
    "name_as_printed": "KHANAKVASLA LAKE",
    "nearest_place_as_printed": "Khardkvasla",
    "display_name": "KHANAKVASLA LAKE",
    "status": "surviving",
    "now_osm": null,
    "runs_found": [
     1,
     2,
     3
    ],
    "tiles": [
     "pune_t2"
    ],
    "style": "solid",
    "crop": "crops/pune_005.jpg",
    "area_m2": 5517307,
    "overlap_frac": 0.523,
    "bbox_px": [
     877.0,
     1917.0,
     1135.0,
     2079.0
    ],
    "point_px": [
     999.0,
     2014.9
    ]
   }
  },
  {
   "type": "Feature",
   "geometry": {
    "type": "Polygon",
    "coordinates": [
     [
      [
       73.90965517241379,
       18.441634241245136
      ],
      [
       73.91,
       18.437418936446175
      ],
      [
       73.91103448275862,
       18.437094682230867
      ],
      [
       73.91206896551724,
       18.438715953307394
      ],
      [
       73.91344827586207,
       18.438715953307394
      ],
      [
       73.91379310344827,
       18.436121919584956
      ],
      [
       73.9144827586207,
       18.436121919584956
      ],
      [
       73.9144827586207,
       18.440012970168613
      ],
      [
       73.91241379310345,
       18.440012970168613
      ],
      [
       73.91137931034483,
       18.44195849546044
      ],
      [
       73.90965517241379,
       18.441634241245136
      ]
     ]
    ]
   },
   "properties": {
    "id": "pune_006",
    "city": "pune",
    "name_as_printed": null,
    "nearest_place_as_printed": "Evlav\u0101di",
    "display_name": "Unnamed tank near Evlav\u0101di",
    "status": "lost",
    "now_osm": {
     "name": "Sunshine Hills",
     "type": "residential",
     "source": "OpenStreetMap"
    },
    "runs_found": [
     1,
     2,
     3
    ],
    "tiles": [
     "pune_t3"
    ],
    "style": "solid",
    "crop": "crops/pune_006.jpg",
    "area_m2": 171187,
    "overlap_frac": 0.0,
    "bbox_px": [
     1496.0,
     1927.0,
     1510.0,
     1945.0
    ],
    "point_px": [
     1502.4,
     1935.3
    ]
   }
  },
  {
   "type": "Feature",
   "geometry": {
    "type": "Polygon",
    "coordinates": [
     [
      [
       73.94206896551724,
       18.44390402075227
      ],
      [
       73.94137931034483,
       18.44390402075227
      ],
      [
       73.94137931034483,
       18.440985732814525
      ],
      [
       73.93862068965517,
       18.440012970168613
      ],
      [
       73.93862068965517,
       18.438391699092087
      ],
      [
       73.93620689655172,
       18.437418936446175
      ],
      [
       73.93655172413793,
       18.436121919584956
      ],
      [
       73.93931034482759,
       18.437418936446175
      ],
      [
       73.94275862068966,
       18.436121919584956
      ],
      [
       73.94344827586207,
       18.441309987029832
      ],
      [
       73.94206896551724,
       18.441634241245136
      ],
      [
       73.94206896551724,
       18.44390402075227
      ]
     ]
    ]
   },
   "properties": {
    "id": "pune_007",
    "city": "pune",
    "name_as_printed": null,
    "nearest_place_as_printed": "Holkarv\u0101di",
    "display_name": "Unnamed tank near Holkarv\u0101di",
    "status": "lost",
    "now_osm": null,
    "runs_found": [
     1,
     2,
     3
    ],
    "tiles": [
     "pune_t3"
    ],
    "style": "solid",
    "crop": "crops/pune_007.jpg",
    "area_m2": 269844,
    "overlap_frac": 0.0,
    "bbox_px": [
     1573.0,
     1921.0,
     1594.0,
     1945.0
    ],
    "point_px": [
     1586.1,
     1936.2
    ]
   }
  },
  {
   "type": "Feature",
   "geometry": {
    "type": "Polygon",
    "coordinates": [
     [
      [
       73.98172413793104,
       18.48184176394293
      ],
      [
       73.98172413793104,
       18.480869001297016
      ],
      [
       73.98517241379311,
       18.480869001297016
      ],
      [
       73.98724137931035,
       18.479247730220493
      ],
      [
       73.98724137931035,
       18.477950713359274
      ],
      [
       73.98965517241379,
       18.477950713359274
      ],
      [
       73.98862068965518,
       18.480544747081712
      ],
      [
       73.98758620689655,
       18.480544747081712
      ],
      [
       73.98620689655172,
       18.482814526588847
      ],
      [
       73.98413793103448,
       18.48184176394293
      ],
      [
       73.98172413793104,
       18.48184176394293
      ]
     ]
    ]
   },
   "properties": {
    "id": "pune_008",
    "city": "pune",
    "name_as_printed": null,
    "nearest_place_as_printed": "Phursungi",
    "display_name": "Unnamed tank near Phursungi",
    "status": "lost",
    "now_osm": null,
    "runs_found": [
     1,
     2,
     3
    ],
    "tiles": [
     "pune_t3"
    ],
    "style": "solid",
    "crop": "crops/pune_008.jpg",
    "area_m2": 154156,
    "overlap_frac": 0.0,
    "bbox_px": [
     1705.0,
     1801.0,
     1728.0,
     1816.0
    ],
    "point_px": [
     1718.1,
     1808.2
    ]
   }
  },
  {
   "type": "Feature",
   "geometry": {
    "type": "Polygon",
    "coordinates": [
     [
      [
       73.94172413793103,
       18.414396887159533
      ],
      [
       73.94206896551724,
       18.409208819714657
      ],
      [
       73.94896551724138,
       18.409208819714657
      ],
      [
       73.94896551724138,
       18.409857328145264
      ],
      [
       73.9451724137931,
       18.409857328145264
      ],
      [
       73.9451724137931,
       18.413424124513618
      ],
      [
       73.94172413793103,
       18.414396887159533
      ]
     ]
    ]
   },
   "properties": {
    "id": "pune_009",
    "city": "pune",
    "name_as_printed": null,
    "nearest_place_as_printed": "Bhiuri",
    "display_name": "Unnamed tank near Bhiuri",
    "status": "lost",
    "now_osm": null,
    "runs_found": [
     1,
     2,
     3
    ],
    "tiles": [
     "pune_t3"
    ],
    "style": "solid",
    "crop": "crops/pune_009.jpg",
    "area_m2": 207804,
    "overlap_frac": 0.0,
    "bbox_px": [
     1589.0,
     2012.0,
     1610.0,
     2028.0
    ],
    "point_px": [
     1595.5,
     2021.5
    ]
   }
  }
 ]
}