{
 "type": "FeatureCollection",
 "features": [
  {
   "type": "Feature",
   "geometry": {
    "type": "Polygon",
    "coordinates": [
     [
      [
       78.44132715296413,
       17.44515477792732
      ],
      [
       78.44132715296413,
       17.44414535666218
      ],
      [
       78.44462063918029,
       17.443135935397038
      ],
      [
       78.44462063918029,
       17.441453566621803
      ],
      [
       78.44864601122225,
       17.44078061911171
      ],
      [
       78.44864601122225,
       17.43741588156124
      ],
      [
       78.4453525250061,
       17.435733512786
      ],
      [
       78.44571846791901,
       17.429676985195155
      ],
      [
       78.44681629665772,
       17.429340511440106
      ],
      [
       78.44681629665772,
       17.42799461641992
      ],
      [
       78.44132715296413,
       17.42765814266487
      ],
      [
       78.44132715296413,
       17.42664872139973
      ],
      [
       78.44645035374482,
       17.426312247644685
      ],
      [
       78.44645035374482,
       17.42328398384926
      ],
      [
       78.4453525250061,
       17.422611036339166
      ],
      [
       78.44645035374482,
       17.416554508748316
      ],
      [
       78.44828006830934,
       17.416554508748316
      ],
      [
       78.44937789704807,
       17.417900403768506
      ],
      [
       78.45084166869968,
       17.417900403768506
      ],
      [
       78.45230544035131,
       17.415545087483178
      ],
      [
       78.45450109782874,
       17.415545087483178
      ],
      [
       78.45633081239326,
       17.414535666218036
      ],
      [
       78.46072212734813,
       17.41958277254374
      ],
      [
       78.46255184191266,
       17.423620457604308
      ],
      [
       78.4647474993901,
       17.4242934051144
      ],
      [
       78.46511344230301,
       17.42664872139973
      ],
      [
       78.47023664308368,
       17.42664872139973
      ],
      [
       78.47023664308368,
       17.42765814266487
      ],
      [
       78.46767504269334,
       17.42799461641992
      ],
      [
       78.46804098560625,
       17.434724091520863
      ],
      [
       78.46657721395462,
       17.435397039030956
      ],
      [
       78.46511344230301,
       17.438088829071333
      ],
      [
       78.46511344230301,
       17.441453566621803
      ],
      [
       78.46181995608686,
       17.44179004037685
      ],
      [
       78.4592583556965,
       17.434724091520863
      ],
      [
       78.45706269821908,
       17.433378196500673
      ],
      [
       78.45486704074165,
       17.433378196500673
      ],
      [
       78.45450109782874,
       17.437752355316285
      ],
      [
       78.45596486948035,
       17.438088829071333
      ],
      [
       78.45413515491583,
       17.441117092866758
      ],
      [
       78.4515735545255,
       17.442126514131896
      ],
      [
       78.4515735545255,
       17.443808882907135
      ],
      [
       78.44974383996096,
       17.445827725437415
      ],
      [
       78.4453525250061,
       17.444818304172273
      ],
      [
       78.44132715296413,
       17.44515477792732
      ]
     ]
    ]
   },
   "properties": {
    "id": "hyderabad_000",
    "city": "hyderabad",
    "name_as_printed": null,
    "nearest_place_as_printed": "Husain S\u0101gar Station",
    "display_name": "Unnamed tank near Husain S\u0101gar Station",
    "status": "lost",
    "now_osm": {
     "name": "Hussain Sagar",
     "type": "water",
     "source": "OpenStreetMap"
    },
    "runs_found": [
     1,
     2,
     3
    ],
    "tiles": [
     "hyderabad_t0"
    ],
    "style": "solid",
    "crop": "crops/hyderabad_000.jpg",
    "area_m2": 5413588,
    "overlap_frac": 0.081,
    "bbox_px": [
     1716.0,
     1839.0,
     1795.0,
     1932.0
    ],
    "point_px": [
     1753.5,
     1887.2
    ]
   }
  },
  {
   "type": "Feature",
   "geometry": {
    "type": "Polygon",
    "coordinates": [
     [
      [
       78.44352281044156,
       17.530619111709285
      ],
      [
       78.4449865820932,
       17.528263795423957
      ],
      [
       78.44645035374482,
       17.527590847913864
      ],
      [
       78.44681629665772,
       17.52422611036339
      ],
      [
       78.44864601122225,
       17.522880215343204
      ],
      [
       78.45230544035131,
       17.521870794078062
      ],
      [
       78.45267138326422,
       17.520188425302827
      ],
      [
       78.44864601122225,
       17.517833109017495
      ],
      [
       78.4453525250061,
       17.518169582772543
      ],
      [
       78.44242498170286,
       17.519515477792734
      ],
      [
       78.44242498170286,
       17.516823687752357
      ],
      [
       78.4453525250061,
       17.51749663526245
      ],
      [
       78.44681629665772,
       17.51615074024226
      ],
      [
       78.44864601122225,
       17.51615074024226
      ],
      [
       78.45267138326422,
       17.517833109017495
      ],
      [
       78.45450109782874,
       17.519515477792734
      ],
      [
       78.4592583556965,
       17.519515477792734
      ],
      [
       78.4592583556965,
       17.52119784656797
      ],
      [
       78.45669675530617,
       17.523216689098252
      ],
      [
       78.45633081239326,
       17.527254374158815
      ],
      [
       78.45706269821908,
       17.52792732166891
      ],
      [
       78.45706269821908,
       17.530619111709285
      ],
      [
       78.45230544035131,
       17.530619111709285
      ],
      [
       78.4515735545255,
       17.527590847913864
      ],
      [
       78.44864601122225,
       17.52792732166891
      ],
      [
       78.44791412539644,
       17.529946164199192
      ],
      [
       78.44352281044156,
       17.530619111709285
      ]
     ]
    ]
   },
   "properties": {
    "id": "hyderabad_001",
    "city": "hyderabad",
    "name_as_printed": null,
    "nearest_place_as_printed": "Jidimatla",
    "display_name": "Unnamed tank near Jidimatla",
    "status": "lost",
    "now_osm": {
     "name": "IDA Jeedimetla",
     "type": "industrial",
     "source": "OpenStreetMap"
    },
    "runs_found": [
     1,
     2,
     3
    ],
    "tiles": [
     "hyderabad_t0"
    ],
    "style": "mixed",
    "crop": "crops/hyderabad_001.jpg",
    "area_m2": 1333343,
    "overlap_frac": 0.0,
    "bbox_px": [
     1719.0,
     1587.0,
     1765.0,
     1630.0
    ],
    "point_px": [
     1744.5,
     1606.6
    ]
   }
  },
  {
   "type": "Feature",
   "geometry": {
    "type": "Polygon",
    "coordinates": [
     [
      [
       78.38460600146377,
       17.513795423956932
      ],
      [
       78.38350817272506,
       17.51514131897712
      ],
      [
       78.38094657233472,
       17.515477792732167
      ],
      [
       78.38021468650891,
       17.516823687752357
      ],
      [
       78.37838497194437,
       17.51749663526245
      ],
      [
       78.37582337155403,
       17.516823687752357
      ],
      [
       78.37509148572822,
       17.514468371467025
      ],
      [
       78.3736277140766,
       17.514468371467025
      ],
      [
       78.3732617711637,
       17.515477792732167
      ],
      [
       78.37033422786045,
       17.515477792732167
      ],
      [
       78.36850451329593,
       17.516823687752357
      ],
      [
       78.36850451329593,
       17.511103633916555
      ],
      [
       78.36923639912173,
       17.511103633916555
      ],
      [
       78.36960234203464,
       17.51278600269179
      ],
      [
       78.37106611368627,
       17.51278600269179
      ],
      [
       78.3732617711637,
       17.5114401076716
      ],
      [
       78.37801902903148,
       17.5114401076716
      ],
      [
       78.38241034398634,
       17.50942126514132
      ],
      [
       78.38314222981215,
       17.509757738896365
      ],
      [
       78.38314222981215,
       17.51177658142665
      ],
      [
       78.38460600146377,
       17.51244952893674
      ],
      [
       78.38460600146377,
       17.513795423956932
      ]
     ]
    ]
   },
   "properties": {
    "id": "hyderabad_002",
    "city": "hyderabad",
    "name_as_printed": null,
    "nearest_place_as_printed": "Niz\u0101mpet",
    "display_name": "Unnamed tank near Niz\u0101mpet",
    "status": "lost",
    "now_osm": {
     "name": "Krishnaja Hills",
     "type": "hill",
     "source": "OpenStreetMap"
    },
    "runs_found": [
     1,
     2,
     3
    ],
    "tiles": [
     "hyderabad_t0"
    ],
    "style": "solid",
    "crop": "crops/hyderabad_002.jpg",
    "area_m2": 852580,
    "overlap_frac": 0.003,
    "bbox_px": [
     1517.0,
     1626.0,
     1561.0,
     1650.0
    ],
    "point_px": [
     1540.3,
     1637.5
    ]
   }
  },
  {
   "type": "Feature",
   "geometry": {
    "type": "Polygon",
    "coordinates": [
     [
      [
       78.39704806050256,
       17.473082099596233
      ],
      [
       78.3930226884606,
       17.473082099596233
      ],
      [
       78.3937545742864,
       17.468034993270525
      ],
      [
       78.3926567455477,
       17.46736204576043
      ],
      [
       78.38753354476701,
       17.46736204576043
      ],
      [
       78.38680165894121,
       17.470390309555853
      ],
      [
       78.38387411563797,
       17.469380888290715
      ],
      [
       78.38387411563797,
       17.464333781965006
      ],
      [
       78.38570383020249,
       17.465679676985197
      ],
      [
       78.39009514515736,
       17.46601615074024
      ],
      [
       78.39155891680898,
       17.464333781965006
      ],
      [
       78.39704806050256,
       17.463324360699865
      ],
      [
       78.39704806050256,
       17.473082099596233
      ]
     ]
    ]
   },
   "properties": {
    "id": "hyderabad_003",
    "city": "hyderabad",
    "name_as_printed": null,
    "nearest_place_as_printed": "M\u016bs\u0101pet",
    "display_name": "Unnamed tank near M\u016bs\u0101pet",
    "status": "lost",
    "now_osm": {
     "name": "GOCL",
     "type": "industrial",
     "source": "OpenStreetMap"
    },
    "runs_found": [
     1,
     2,
     3
    ],
    "tiles": [
     "hyderabad_t0"
    ],
    "style": "solid",
    "crop": "crops/hyderabad_003.jpg",
    "area_m2": 742644,
    "overlap_frac": 0.042,
    "bbox_px": [
     1559.0,
     1758.0,
     1595.0,
     1787.0
    ],
    "point_px": [
     1581.1,
     1773.9
    ]
   }
  },
  {
   "type": "Feature",
   "geometry": {
    "type": "Polygon",
    "coordinates": [
     [
      [
       78.39155891680898,
       17.48351278600269
      ],
      [
       78.39192485972188,
       17.481493943472408
      ],
      [
       78.39448646011222,
       17.47880215343203
      ],
      [
       78.39814588924128,
       17.47880215343203
      ],
      [
       78.39741400341546,
       17.479811574697173
      ],
      [
       78.39741400341546,
       17.481157469717363
      ],
      [
       78.39851183215418,
       17.481493943472408
      ],
      [
       78.39814588924128,
       17.483176312247643
      ],
      [
       78.39668211758966,
       17.48384925975774
      ],
      [
       78.39155891680898,
       17.48351278600269
      ]
     ]
    ]
   },
   "properties": {
    "id": "hyderabad_004",
    "city": "hyderabad",
    "name_as_printed": null,
    "nearest_place_as_printed": "Kukatpalli",
    "display_name": "Unnamed tank near Kukatpalli",
    "status": "lost",
    "now_osm": {
     "name": "GOCL",
     "type": "industrial",
     "source": "OpenStreetMap"
    },
    "runs_found": [
     1,
     2,
     3
    ],
    "tiles": [
     "hyderabad_t0"
    ],
    "style": "hatched",
    "crop": "crops/hyderabad_004.jpg",
    "area_m2": 305728,
    "overlap_frac": 0.0,
    "bbox_px": [
     1580.0,
     1726.0,
     1599.0,
     1741.0
    ],
    "point_px": [
     1589.9,
     1732.9
    ]
   }
  },
  {
   "type": "Feature",
   "geometry": {
    "type": "Polygon",
    "coordinates": [
     [
      [
       78.43803366674798,
       17.483176312247643
      ],
      [
       78.43803366674798,
       17.476110363391655
      ],
      [
       78.4391314954867,
       17.47442799461642
      ],
      [
       78.44132715296413,
       17.47409152086137
      ],
      [
       78.44132715296413,
       17.471736204576043
      ],
      [
       78.44242498170286,
       17.471736204576043
      ],
      [
       78.44352281044156,
       17.47476446837147
      ],
      [
       78.44681629665772,
       17.475100942126513
      ],
      [
       78.44681629665772,
       17.47779273216689
      ],
      [
       78.44462063918029,
       17.478465679676987
      ],
      [
       78.44388875335447,
       17.480484522207266
      ],
      [
       78.44132715296413,
       17.480820995962315
      ],
      [
       78.44096121005123,
       17.483176312247643
      ],
      [
       78.43803366674798,
       17.483176312247643
      ]
     ]
    ]
   },
   "properties": {
    "id": "hyderabad_005",
    "city": "hyderabad",
    "name_as_printed": null,
    "nearest_place_as_printed": "Chen\u0101ylg\u016bda",
    "display_name": "Unnamed tank near Chen\u0101ylg\u016bda",
    "status": "lost",
    "now_osm": {
     "name": "IDPL",
     "type": "industrial",
     "source": "OpenStreetMap"
    },
    "runs_found": [
     1,
     2,
     3
    ],
    "tiles": [
     "hyderabad_t0"
    ],
    "style": "hatched",
    "crop": "crops/hyderabad_005.jpg",
    "area_m2": 684596,
    "overlap_frac": 0.0,
    "bbox_px": [
     1707.0,
     1728.0,
     1731.0,
     1762.0
    ],
    "point_px": [
     1716.9,
     1744.3
    ]
   }
  },
  {
   "type": "Feature",
   "geometry": {
    "type": "Polygon",
    "coordinates": [
     [
      [
       78.37545742864113,
       17.439771197846568
      ],
      [
       78.37216394242498,
       17.439771197846568
      ],
      [
       78.37179799951208,
       17.437752355316285
      ],
      [
       78.37033422786045,
       17.436742934051143
      ],
      [
       78.37070017077336,
       17.434387617765815
      ],
      [
       78.36960234203464,
       17.43371467025572
      ],
      [
       78.36960234203464,
       17.43236877523553
      ],
      [
       78.37143205659918,
       17.43135935397039
      ],
      [
       78.37143205659918,
       17.42900403768506
      ],
      [
       78.37033422786045,
       17.428667563930013
      ],
      [
       78.37033422786045,
       17.427321668909826
      ],
      [
       78.37252988533788,
       17.427321668909826
      ],
      [
       78.37289582825079,
       17.430349932705248
      ],
      [
       78.37472554281533,
       17.431022880215345
      ],
      [
       78.37875091485728,
       17.430686406460296
      ],
      [
       78.37875091485728,
       17.432032301480483
      ],
      [
       78.37545742864113,
       17.43236877523553
      ],
      [
       78.37399365698951,
       17.43371467025572
      ],
      [
       78.37472554281533,
       17.43707940780619
      ],
      [
       78.37618931446694,
       17.438088829071333
      ],
      [
       78.37545742864113,
       17.439771197846568
      ]
     ]
    ]
   },
   "properties": {
    "id": "hyderabad_006",
    "city": "hyderabad",
    "name_as_printed": null,
    "nearest_place_as_printed": "Begampeta",
    "display_name": "Unnamed tank near Begampeta",
    "status": "lost",
    "now_osm": {
     "name": "Engineering Staff College of India",
     "type": "college",
     "source": "OpenStreetMap"
    },
    "runs_found": [
     1,
     2,
     3
    ],
    "tiles": [
     "hyderabad_t0"
    ],
    "style": "hatched",
    "crop": "crops/hyderabad_006.jpg",
    "area_m2": 571050,
    "overlap_frac": 0.012,
    "bbox_px": [
     1520.0,
     1857.0,
     1545.0,
     1894.0
    ],
    "point_px": [
     1529.6,
     1874.3
    ]
   }
  },
  {
   "type": "Feature",
   "geometry": {
    "type": "Polygon",
    "coordinates": [
     [
      [
       78.3860697731154,
       17.458613728129205
      ],
      [
       78.38460600146377,
       17.458613728129205
      ],
      [
       78.38314222981215,
       17.456258411843876
      ],
      [
       78.37838497194437,
       17.455248990578735
      ],
      [
       78.37801902903148,
       17.452893674293406
      ],
      [
       78.37948280068309,
       17.45222072678331
      ],
      [
       78.38094657233472,
       17.453903095558548
      ],
      [
       78.3860697731154,
       17.455248990578735
      ],
      [
       78.3860697731154,
       17.458613728129205
      ]
     ]
    ]
   },
   "properties": {
    "id": "hyderabad_007",
    "city": "hyderabad",
    "name_as_printed": null,
    "nearest_place_as_printed": "Yarag\u016bda",
    "display_name": "Unnamed tank near Yarag\u016bda",
    "status": "lost",
    "now_osm": {
     "name": "Shilparamam",
     "type": "park",
     "source": "OpenStreetMap"
    },
    "runs_found": [
     1,
     2,
     3
    ],
    "tiles": [
     "hyderabad_t0"
    ],
    "style": "hatched",
    "crop": "crops/hyderabad_007.jpg",
    "area_m2": 243462,
    "overlap_frac": 0.014,
    "bbox_px": [
     1543.0,
     1801.0,
     1565.0,
     1820.0
    ],
    "point_px": [
     1554.8,
     1810.6
    ]
   }
  },
  {
   "type": "Feature",
   "geometry": {
    "type": "Polygon",
    "coordinates": [
     [
      [
       78.47938521590632,
       17.47779273216689
      ],
      [
       78.47316418638692,
       17.47779273216689
      ],
      [
       78.47316418638692,
       17.476783310901748
      ],
      [
       78.47499390095145,
       17.47442799461642
      ],
      [
       78.47682361551598,
       17.47442799461642
      ],
      [
       78.47718955842889,
       17.47577388963661
      ],
      [
       78.47938521590632,
       17.476110363391655
      ],
      [
       78.47938521590632,
       17.47779273216689
      ]
     ]
    ]
   },
   "properties": {
    "id": "hyderabad_008",
    "city": "hyderabad",
    "name_as_printed": null,
    "nearest_place_as_printed": "Bowanpalli",
    "display_name": "Unnamed tank near Bowanpalli",
    "status": "lost",
    "now_osm": {
     "name": "Old Bowenpally Bus stop",
     "type": "bus_station",
     "source": "OpenStreetMap"
    },
    "runs_found": [
     1,
     2,
     3
    ],
    "tiles": [
     "hyderabad_t0"
    ],
    "style": "hatched",
    "crop": "crops/hyderabad_008.jpg",
    "area_m2": 178930,
    "overlap_frac": 0.0,
    "bbox_px": [
     1803.0,
     1744.0,
     1820.0,
     1754.0
    ],
    "point_px": [
     1811.2,
     1748.0
    ]
   }
  },
  {
   "type": "Feature",
   "geometry": {
    "type": "Polygon",
    "coordinates": [
     [
      [
       78.53610636740669,
       17.465343203230148
      ],
      [
       78.53317882410344,
       17.469044414535666
      ],
      [
       78.5302512808002,
       17.469380888290715
      ],
      [
       78.5302512808002,
       17.471736204576043
      ],
      [
       78.52805562332276,
       17.471736204576043
      ],
      [
       78.52732373749696,
       17.468034993270525
      ],
      [
       78.52549402293242,
       17.466689098250338
      ],
      [
       78.52293242254208,
       17.467025572005383
      ],
      [
       78.52146865089045,
       17.469380888290715
      ],
      [
       78.52000487923884,
       17.468707940780618
      ],
      [
       78.52037082215175,
       17.467025572005383
      ],
      [
       78.52256647962918,
       17.466689098250338
      ],
      [
       78.52220053671627,
       17.46298788694482
      ],
      [
       78.52329836545499,
       17.46164199192463
      ],
      [
       78.53354476701635,
       17.46265141318977
      ],
      [
       78.53610636740669,
       17.463660834454913
      ],
      [
       78.53610636740669,
       17.465343203230148
      ]
     ]
    ]
   },
   "properties": {
    "id": "hyderabad_009",
    "city": "hyderabad",
    "name_as_printed": null,
    "nearest_place_as_printed": "Safilguda",
    "display_name": "Unnamed tank near Safilguda",
    "status": "lost",
    "now_osm": {
     "name": "Safilguda Lake Park",
     "type": "water",
     "source": "OpenStreetMap"
    },
    "runs_found": [
     1,
     2,
     3
    ],
    "tiles": [
     "hyderabad_t1"
    ],
    "style": "mixed",
    "crop": "crops/hyderabad_009.jpg",
    "area_m2": 1041680,
    "overlap_frac": 0.025,
    "bbox_px": [
     1931.0,
     1762.0,
     1975.0,
     1792.0
    ],
    "point_px": [
     1954.8,
     1779.8
    ]
   }
  },
  {
   "type": "Feature",
   "geometry": {
    "type": "Polygon",
    "coordinates": [
     [
      [
       78.62027323737497,
       17.49293405114401
      ],
      [
       78.62100512320077,
       17.486204576043068
      ],
      [
       78.62466455232983,
       17.485531628532975
      ],
      [
       78.62649426689437,
       17.48351278600269
      ],
      [
       78.62832398145889,
       17.48351278600269
      ],
      [
       78.62832398145889,
       17.484522207267833
      ],
      [
       78.62503049524274,
       17.48721399730821
      ],
      [
       78.62503049524274,
       17.489232839838493
      ],
      [
       78.6224688948524,
       17.49057873485868
      ],
      [
       78.6224688948524,
       17.49293405114401
      ],
      [
       78.62027323737497,
       17.49293405114401
      ]
     ]
    ]
   },
   "properties": {
    "id": "hyderabad_010",
    "city": "hyderabad",
    "name_as_printed": null,
    "nearest_place_as_printed": "Deserted",
    "display_name": "Unnamed tank near Deserted",
    "status": "lost",
    "now_osm": null,
    "runs_found": [
     1,
     2,
     3
    ],
    "tiles": [
     "hyderabad_t1"
    ],
    "style": "solid",
    "crop": "crops/hyderabad_010.jpg",
    "area_m2": 351970,
    "overlap_frac": 0.0,
    "bbox_px": [
     2205.0,
     1699.0,
     2227.0,
     1727.0
    ],
    "point_px": [
     2213.6,
     1713.7
    ]
   }
  },
  {
   "type": "Feature",
   "geometry": {
    "type": "Polygon",
    "coordinates": [
     [
      [
       78.58441083191022,
       17.43606998654105
      ],
      [
       78.58550866064894,
       17.434051144010766
      ],
      [
       78.58550866064894,
       17.43236877523553
      ],
      [
       78.58477677482313,
       17.432032301480483
      ],
      [
       78.58514271773603,
       17.428667563930013
      ],
      [
       78.58441083191022,
       17.42765814266487
      ],
      [
       78.58624054647476,
       17.427321668909826
      ],
      [
       78.58660648938766,
       17.426312247644685
      ],
      [
       78.58807026103928,
       17.426312247644685
      ],
      [
       78.589168089778,
       17.42765814266487
      ],
      [
       78.59282751890706,
       17.427321668909826
      ],
      [
       78.59282751890706,
       17.428331090174968
      ],
      [
       78.5895340326909,
       17.42900403768506
      ],
      [
       78.5898999756038,
       17.433378196500673
      ],
      [
       78.59282751890706,
       17.43371467025572
      ],
      [
       78.59282751890706,
       17.43606998654105
      ],
      [
       78.58441083191022,
       17.43606998654105
      ]
     ]
    ]
   },
   "properties": {
    "id": "hyderabad_011",
    "city": "hyderabad",
    "name_as_printed": null,
    "nearest_place_as_printed": "Chengi Cherla",
    "display_name": "Unnamed tank near Chengi Cherla",
    "status": "lost",
    "now_osm": {
     "name": "Bachpan - Academic Heights School",
     "type": "school",
     "source": "OpenStreetMap"
    },
    "runs_found": [
     1,
     2,
     3
    ],
    "tiles": [
     "hyderabad_t1"
    ],
    "style": "solid",
    "crop": "crops/hyderabad_011.jpg",
    "area_m2": 636813,
    "overlap_frac": 0.0,
    "bbox_px": [
     2107.0,
     1868.0,
     2130.0,
     1897.0
    ],
    "point_px": [
     2117.3,
     1880.9
    ]
   }
  },
  {
   "type": "Feature",
   "geometry": {
    "type": "Polygon",
    "coordinates": [
     [
      [
       78.57050500121981,
       17.408479138627186
      ],
      [
       78.57123688704561,
       17.404777927321668
      ],
      [
       78.569773115394,
       17.40343203230148
      ],
      [
       78.5701390583069,
       17.40107671601615
      ],
      [
       78.5763600878263,
       17.40107671601615
      ],
      [
       78.57672603073921,
       17.40208613728129
      ],
      [
       78.57416443034887,
       17.402759084791388
      ],
      [
       78.57233471578434,
       17.408479138627186
      ],
      [
       78.57050500121981,
       17.408479138627186
      ]
     ]
    ]
   },
   "properties": {
    "id": "hyderabad_012",
    "city": "hyderabad",
    "name_as_printed": null,
    "nearest_place_as_printed": "Pirz\u0101dag\u016bda",
    "display_name": "Unnamed tank near Pirz\u0101dag\u016bda",
    "status": "lost",
    "now_osm": {
     "name": "Uppal Vegetable Market",
     "type": "marketplace",
     "source": "OpenStreetMap"
    },
    "runs_found": [
     1,
     2,
     3
    ],
    "tiles": [
     "hyderabad_t1"
    ],
    "style": "hatched",
    "crop": "crops/hyderabad_012.jpg",
    "area_m2": 294910,
    "overlap_frac": 0.0,
    "bbox_px": [
     2067.0,
     1950.0,
     2086.0,
     1972.0
    ],
    "point_px": [
     2074.3,
     1963.9
    ]
   }
  },
  {
   "type": "Feature",
   "geometry": {
    "type": "Polygon",
    "coordinates": [
     [
      [
       78.6092949499878,
       17.528263795423957
      ],
      [
       78.60783117833618,
       17.527590847913864
      ],
      [
       78.60709929251037,
       17.52590847913863
      ],
      [
       78.6027079775555,
       17.52590847913863
      ],
      [
       78.60234203464259,
       17.5292732166891
      ],
      [
       78.60124420590388,
       17.5292732166891
      ],
      [
       78.60161014881679,
       17.518506056527592
      ],
      [
       78.60343986338131,
       17.518506056527592
      ],
      [
       78.6030739204684,
       17.52456258411844
      ],
      [
       78.60636740668456,
       17.523553162853297
      ],
      [
       78.60709929251037,
       17.521870794078062
      ],
      [
       78.6092949499878,
       17.52220726783311
      ],
      [
       78.60856306416198,
       17.523889636608345
      ],
      [
       78.6092949499878,
       17.528263795423957
      ]
     ]
    ]
   },
   "properties": {
    "id": "hyderabad_013",
    "city": "hyderabad",
    "name_as_printed": null,
    "nearest_place_as_printed": "Cherial",
    "display_name": "Unnamed tank near Cherial",
    "status": "lost",
    "now_osm": null,
    "runs_found": [
     1,
     2,
     3
    ],
    "tiles": [
     "hyderabad_t1"
    ],
    "style": "solid",
    "crop": "crops/hyderabad_013.jpg",
    "area_m2": 414906,
    "overlap_frac": 0.0,
    "bbox_px": [
     2153.0,
     1591.0,
     2175.0,
     1623.0
    ],
    "point_px": [
     2162.2,
     1606.2
    ]
   }
  },
  {
   "type": "Feature",
   "geometry": {
    "type": "Polygon",
    "coordinates": [
     [
      [
       78.49548670407417,
       17.424966352624494
      ],
      [
       78.49438887533545,
       17.423956931359353
      ],
      [
       78.49438887533545,
       17.418909825033648
      ],
      [
       78.49621858989998,
       17.417227456258413
      ],
      [
       78.49914613320323,
       17.416890982503364
      ],
      [
       78.50024396194193,
       17.419246298788696
      ],
      [
       78.49951207611612,
       17.422274562584118
      ],
      [
       78.4976823615516,
       17.42294751009421
      ],
      [
       78.49731641863869,
       17.424966352624494
      ],
      [
       78.49548670407417,
       17.424966352624494
      ]
     ]
    ]
   },
   "properties": {
    "id": "hyderabad_014",
    "city": "hyderabad",
    "name_as_printed": null,
    "nearest_place_as_printed": "Zamist\u0101pur",
    "display_name": "Unnamed tank near Zamist\u0101pur",
    "status": "lost",
    "now_osm": {
     "name": "Padmashali Colony",
     "type": "neighbourhood",
     "source": "OpenStreetMap"
    },
    "runs_found": [
     1,
     2
    ],
    "tiles": [
     "hyderabad_t1"
    ],
    "style": "hatched",
    "crop": "crops/hyderabad_014.jpg",
    "area_m2": 412300,
    "overlap_frac": 0.0,
    "bbox_px": [
     1861.0,
     1901.0,
     1877.0,
     1925.0
    ],
    "point_px": [
     1868.2,
     1913.7
    ]
   }
  },
  {
   "type": "Feature",
   "geometry": {
    "type": "Polygon",
    "coordinates": [
     [
      [
       78.60161014881679,
       17.47409152086137
      ],
      [
       78.60161014881679,
       17.463660834454913
      ],
      [
       78.60234203464259,
       17.463660834454913
      ],
      [
       78.6027079775555,
       17.467698519515476
      ],
      [
       78.60856306416198,
       17.46736204576043
      ],
      [
       78.6096608929007,
       17.464670255720055
      ],
      [
       78.61368626494267,
       17.465343203230148
      ],
      [
       78.61368626494267,
       17.466689098250338
      ],
      [
       78.61075872163943,
       17.46736204576043
      ],
      [
       78.61039277872652,
       17.46971736204576
      ],
      [
       78.60856306416198,
       17.4707267833109
      ],
      [
       78.60856306416198,
       17.471736204576043
      ],
      [
       78.6027079775555,
       17.472409152086136
      ],
      [
       78.60234203464259,
       17.47409152086137
      ],
      [
       78.60161014881679,
       17.47409152086137
      ]
     ]
    ]
   },
   "properties": {
    "id": "hyderabad_015",
    "city": "hyderabad",
    "name_as_printed": null,
    "nearest_place_as_printed": "Madara",
    "display_name": "Unnamed tank near Madara",
    "status": "lost",
    "now_osm": null,
    "runs_found": [
     1,
     2,
     3
    ],
    "tiles": [
     "hyderabad_t1"
    ],
    "style": "hatched",
    "crop": "crops/hyderabad_015.jpg",
    "area_m2": 619284,
    "overlap_frac": 0.0,
    "bbox_px": [
     2154.0,
     1755.0,
     2187.0,
     1786.0
    ],
    "point_px": [
     2167.0,
     1770.6
    ]
   }
  },
  {
   "type": "Feature",
   "geometry": {
    "type": "Polygon",
    "coordinates": [
     [
      [
       78.33337399365699,
       17.35464333781965
      ],
      [
       78.33300805074408,
       17.30585464333782
      ],
      [
       78.33849719443766,
       17.30585464333782
      ],
      [
       78.33813125152476,
       17.30921938088829
      ],
      [
       78.34069285191511,
       17.308546433378197
      ],
      [
       78.34179068065382,
       17.307537012113055
      ],
      [
       78.34179068065382,
       17.30585464333782
      ],
      [
       78.34545010978287,
       17.30585464333782
      ],
      [
       78.34545010978287,
       17.311911170928667
      ],
      [
       78.3476457672603,
       17.31258411843876
      ],
      [
       78.3476457672603,
       17.314266487214
      ],
      [
       78.34874359599903,
       17.315275908479137
      ],
      [
       78.35130519638936,
       17.314602960969044
      ],
      [
       78.35130519638936,
       17.312247644683715
      ],
      [
       78.35276896804099,
       17.30955585464334
      ],
      [
       78.35350085386679,
       17.30955585464334
      ],
      [
       78.35350085386679,
       17.320659488559894
      ],
      [
       78.35167113930227,
       17.321332436069987
      ],
      [
       78.35167113930227,
       17.324697173620457
      ],
      [
       78.35276896804099,
       17.3257065948856
      ],
      [
       78.35167113930227,
       17.333109017496636
      ],
      [
       78.35350085386679,
       17.333445491251684
      ],
      [
       78.35350085386679,
       17.3371467025572
      ],
      [
       78.35203708221518,
       17.3371467025572
      ],
      [
       78.34910953891193,
       17.334454912516822
      ],
      [
       78.3476457672603,
       17.334454912516822
      ],
      [
       78.34508416686997,
       17.340847913862717
      ],
      [
       78.34508416686997,
       17.34656796769852
      ],
      [
       78.34581605269578,
       17.347240915208612
      ],
      [
       78.34910953891193,
       17.347240915208612
      ],
      [
       78.35020736765064,
       17.34656796769852
      ],
      [
       78.35093925347645,
       17.34421265141319
      ],
      [
       78.35350085386679,
       17.34421265141319
      ],
      [
       78.35350085386679,
       17.353970390309556
      ],
      [
       78.34984142473775,
       17.35464333781965
      ],
      [
       78.35057331056355,
       17.35094212651413
      ],
      [
       78.34947548182484,
       17.348250336473754
      ],
      [
       78.34581605269578,
       17.348250336473754
      ],
      [
       78.34508416686997,
       17.35127860026918
      ],
      [
       78.34435228104415,
       17.35127860026918
      ],
      [
       78.34435228104415,
       17.348586810228802
      ],
      [
       78.34252256647963,
       17.348250336473754
      ],
      [
       78.3399609660893,
       17.34892328398385
      ],
      [
       78.3399609660893,
       17.352960969044414
      ],
      [
       78.34142473774091,
       17.353633916554507
      ],
      [
       78.34142473774091,
       17.35464333781965
      ],
      [
       78.33337399365699,
       17.35464333781965
      ]
     ]
    ]
   },
   "properties": {
    "id": "hyderabad_016",
    "city": "hyderabad",
    "name_as_printed": null,
    "nearest_place_as_printed": "Sirdiguda",
    "display_name": "Unnamed tank near Sirdiguda",
    "status": "surviving",
    "now_osm": null,
    "runs_found": [
     1,
     2,
     3
    ],
    "tiles": [
     "hyderabad_t2"
    ],
    "style": "solid",
    "crop": "crops/hyderabad_016.jpg",
    "area_m2": 9006665,
    "overlap_frac": 0.281,
    "bbox_px": [
     1420.0,
     2110.0,
     1476.0,
     2255.0
    ],
    "point_px": [
     1444.4,
     2185.6
    ]
   }
  },
  {
   "type": "Feature",
   "geometry": {
    "type": "Polygon",
    "coordinates": [
     [
      [
       78.43144669431568,
       17.36507402422611
      ],
      [
       78.42961697975116,
       17.36507402422611
      ],
      [
       78.42998292266407,
       17.361372812920592
      ],
      [
       78.42925103683825,
       17.36036339165545
      ],
      [
       78.42668943644792,
       17.361036339165544
      ],
      [
       78.42046840692852,
       17.36036339165545
      ],
      [
       78.4197365211027,
       17.361372812920592
      ],
      [
       78.41754086362528,
       17.36170928667564
      ],
      [
       78.41717492071237,
       17.363391655450876
      ],
      [
       78.41571114906074,
       17.36271870794078
      ],
      [
       78.41534520614785,
       17.361372812920592
      ],
      [
       78.40326909002195,
       17.36170928667564
      ],
      [
       78.40326909002195,
       17.36036339165545
      ],
      [
       78.40985606245425,
       17.3606998654105
      ],
      [
       78.41168577701879,
       17.360026917900402
      ],
      [
       78.4127836057575,
       17.35699865410498
      ],
      [
       78.4127836057575,
       17.354306864064604
      ],
      [
       78.41022200536716,
       17.351951547779272
      ],
      [
       78.40692851915101,
       17.351615074024227
      ],
      [
       78.4058306904123,
       17.34892328398385
      ],
      [
       78.40436691876067,
       17.34892328398385
      ],
      [
       78.40326909002195,
       17.34993270524899
      ],
      [
       78.40326909002195,
       17.347240915208612
      ],
      [
       78.41022200536716,
       17.347240915208612
      ],
      [
       78.41058794828007,
       17.345558546433377
      ],
      [
       78.41461332032203,
       17.346231493943474
      ],
      [
       78.41607709197365,
       17.34757738896366
      ],
      [
       78.4259575506221,
       17.347240915208612
      ],
      [
       78.42742132227373,
       17.344549125168236
      ],
      [
       78.43071480848988,
       17.34421265141319
      ],
      [
       78.4325445230544,
       17.347240915208612
      ],
      [
       78.43510612344474,
       17.347240915208612
      ],
      [
       78.43510612344474,
       17.34993270524899
      ],
      [
       78.43181263722859,
       17.34993270524899
      ],
      [
       78.43181263722859,
       17.351615074024227
      ],
      [
       78.43364235179313,
       17.351951547779272
      ],
      [
       78.43364235179313,
       17.353970390309556
      ],
      [
       78.43291046596731,
       17.354306864064604
      ],
      [
       78.43327640888022,
       17.358344549125167
      ],
      [
       78.43144669431568,
       17.360026917900402
      ],
      [
       78.43144669431568,
       17.36507402422611
      ]
     ]
    ]
   },
   "properties": {
    "id": "hyderabad_017",
    "city": "hyderabad",
    "name_as_printed": null,
    "nearest_place_as_printed": "Jahannuma",
    "display_name": "Unnamed tank near Jahannuma",
    "status": "lost",
    "now_osm": {
     "name": "Mir Alam Tank",
     "type": "water",
     "source": "OpenStreetMap"
    },
    "runs_found": [
     1,
     2,
     3
    ],
    "tiles": [
     "hyderabad_t2"
    ],
    "style": "solid",
    "crop": "crops/hyderabad_017.jpg",
    "area_m2": 4243098,
    "overlap_frac": 0.034,
    "bbox_px": [
     1612.0,
     2079.0,
     1699.0,
     2141.0
    ],
    "point_px": [
     1660.8,
     2113.2
    ]
   }
  },
  {
   "type": "Feature",
   "geometry": {
    "type": "Polygon",
    "coordinates": [
     [
      [
       78.38936325933155,
       17.321668909825032
      ],
      [
       78.39009514515736,
       17.319313593539704
      ],
      [
       78.38972920224445,
       17.314602960969044
      ],
      [
       78.39119297389607,
       17.31393001345895
      ],
      [
       78.39155891680898,
       17.311238223418574
      ],
      [
       78.3930226884606,
       17.310901749663525
      ],
      [
       78.3930226884606,
       17.307873485868104
      ],
      [
       78.39412051719931,
       17.307873485868104
      ],
      [
       78.39558428885094,
       17.310901749663525
      ],
      [
       78.39924371798,
       17.312247644683715
      ],
      [
       78.39777994632837,
       17.314939434724092
      ],
      [
       78.39777994632837,
       17.31763122476447
      ],
      [
       78.39558428885094,
       17.31763122476447
      ],
      [
       78.39521834593803,
       17.319313593539704
      ],
      [
       78.39229080263479,
       17.320323014804845
      ],
      [
       78.39229080263479,
       17.321668909825032
      ],
      [
       78.38936325933155,
       17.321668909825032
      ]
     ]
    ]
   },
   "properties": {
    "id": "hyderabad_018",
    "city": "hyderabad",
    "name_as_printed": null,
    "nearest_place_as_printed": "Lachmaguda",
    "display_name": "Unnamed tank near Lachmaguda",
    "status": "lost",
    "now_osm": {
     "name": "Agriculture Research Instuite",
     "type": "university",
     "source": "OpenStreetMap"
    },
    "runs_found": [
     1,
     2,
     3
    ],
    "tiles": [
     "hyderabad_t2"
    ],
    "style": "hatched",
    "crop": "crops/hyderabad_018.jpg",
    "area_m2": 843316,
    "overlap_frac": 0.013,
    "bbox_px": [
     1574.0,
     2208.0,
     1601.0,
     2249.0
    ],
    "point_px": [
     1586.1,
     2227.2
    ]
   }
  },
  {
   "type": "Feature",
   "geometry": {
    "type": "Polygon",
    "coordinates": [
     [
      [
       78.42998292266407,
       17.305181695827727
      ],
      [
       78.42998292266407,
       17.299461641991925
      ],
      [
       78.42815320809953,
       17.298115746971735
      ],
      [
       78.42815320809953,
       17.294751009421265
      ],
      [
       78.42998292266407,
       17.294414535666217
      ],
      [
       78.42998292266407,
       17.292732166890982
      ],
      [
       78.42815320809953,
       17.292395693135937
      ],
      [
       78.42815320809953,
       17.291386271870795
      ],
      [
       78.43108075140277,
       17.290376850605654
      ],
      [
       78.43144669431568,
       17.29172274562584
      ],
      [
       78.43510612344474,
       17.29172274562584
      ],
      [
       78.43547206635765,
       17.290376850605654
      ],
      [
       78.43766772383508,
       17.290376850605654
      ],
      [
       78.43803366674798,
       17.29205921938089
      ],
      [
       78.44132715296413,
       17.292395693135937
      ],
      [
       78.44425469626738,
       17.2907133243607
      ],
      [
       78.44425469626738,
       17.29205921938089
      ],
      [
       78.44608441083192,
       17.29306864064603
      ],
      [
       78.44571846791901,
       17.29676985195155
      ],
      [
       78.44205903878995,
       17.29777927321669
      ],
      [
       78.44096121005123,
       17.30114401076716
      ],
      [
       78.43766772383508,
       17.301816958277254
      ],
      [
       78.43766772383508,
       17.303162853297444
      ],
      [
       78.43949743839961,
       17.30349932705249
      ],
      [
       78.43986338131252,
       17.30484522207268
      ],
      [
       78.42998292266407,
       17.305181695827727
      ]
     ]
    ]
   },
   "properties": {
    "id": "hyderabad_019",
    "city": "hyderabad",
    "name_as_printed": null,
    "nearest_place_as_printed": "J\u0101l\u0101palli",
    "display_name": "Unnamed tank near J\u0101l\u0101palli",
    "status": "lost",
    "now_osm": {
     "name": "Katedan Industrial Area",
     "type": "industrial",
     "source": "OpenStreetMap"
    },
    "runs_found": [
     1,
     2,
     3
    ],
    "tiles": [
     "hyderabad_t2"
    ],
    "style": "hatched",
    "crop": "crops/hyderabad_019.jpg",
    "area_m2": 2123232,
    "overlap_frac": 0.0,
    "bbox_px": [
     1680.0,
     2257.0,
     1729.0,
     2301.0
    ],
    "point_px": [
     1701.6,
     2280.4
    ]
   }
  },
  {
   "type": "Feature",
   "geometry": {
    "type": "Polygon",
    "coordinates": [
     [
      [
       78.46108807026104,
       17.30484522207268
      ],
      [
       78.46108807026104,
       17.303835800807537
      ],
      [
       78.46328372773847,
       17.30349932705249
      ],
      [
       78.46328372773847,
       17.300807537012112
      ],
      [
       78.46218589899975,
       17.300471063257067
      ],
      [
       78.46108807026104,
       17.2964333781965
      ],
      [
       78.47316418638692,
       17.2964333781965
      ],
      [
       78.47316418638692,
       17.297106325706594
      ],
      [
       78.4654793852159,
       17.297442799461642
      ],
      [
       78.46584532812881,
       17.299461641991925
      ],
      [
       78.47243230056111,
       17.299125168236877
      ],
      [
       78.47279824347402,
       17.30148048452221
      ],
      [
       78.47060258599659,
       17.302826379542395
      ],
      [
       78.47060258599659,
       17.304172274562585
      ],
      [
       78.46694315686753,
       17.30450874831763
      ],
      [
       78.46364967065138,
       17.303835800807537
      ],
      [
       78.46328372773847,
       17.30484522207268
      ],
      [
       78.46108807026104,
       17.30484522207268
      ]
     ]
    ]
   },
   "properties": {
    "id": "hyderabad_020",
    "city": "hyderabad",
    "name_as_printed": null,
    "nearest_place_as_printed": "Venk",
    "display_name": "Unnamed tank near Venk",
    "status": "lost",
    "now_osm": null,
    "runs_found": [
     1,
     2,
     3
    ],
    "tiles": [
     "hyderabad_t2"
    ],
    "style": "hatched",
    "crop": "crops/hyderabad_020.jpg",
    "area_m2": 762800,
    "overlap_frac": 0.0,
    "bbox_px": [
     1770.0,
     2258.0,
     1803.0,
     2283.0
    ],
    "point_px": [
     1785.3,
     2270.8
    ]
   }
  },
  {
   "type": "Feature",
   "geometry": {
    "type": "Polygon",
    "coordinates": [
     [
      [
       78.47682361551598,
       17.314602960969044
      ],
      [
       78.47645767260308,
       17.310901749663525
      ],
      [
       78.47499390095145,
       17.308546433378197
      ],
      [
       78.47718955842889,
       17.306864064602962
      ],
      [
       78.47901927299341,
       17.306864064602962
      ],
      [
       78.47975115881923,
       17.30585464333782
      ],
      [
       78.48194681629666,
       17.30585464333782
      ],
      [
       78.48231275920956,
       17.30921938088829
      ],
      [
       78.47792144425469,
       17.310901749663525
      ],
      [
       78.4775555013418,
       17.314602960969044
      ],
      [
       78.47682361551598,
       17.314602960969044
      ]
     ]
    ]
   },
   "properties": {
    "id": "hyderabad_021",
    "city": "hyderabad",
    "name_as_printed": null,
    "nearest_place_as_printed": "Venk",
    "display_name": "Unnamed tank near Venk",
    "status": "lost",
    "now_osm": null,
    "runs_found": [
     1,
     2,
     3
    ],
    "tiles": [
     "hyderabad_t2"
    ],
    "style": "solid",
    "crop": "crops/hyderabad_021.jpg",
    "area_m2": 337877,
    "overlap_frac": 0.0,
    "bbox_px": [
     1808.0,
     2229.0,
     1828.0,
     2255.0
    ],
    "point_px": [
     1818.1,
     2245.6
    ]
   }
  },
  {
   "type": "Feature",
   "geometry": {
    "type": "Polygon",
    "coordinates": [
     [
      [
       78.47023664308368,
       17.332099596231494
      ],
      [
       78.46987070017077,
       17.331090174966352
      ],
      [
       78.46767504269334,
       17.331090174966352
      ],
      [
       78.46767504269334,
       17.32907133243607
      ],
      [
       78.46621127104171,
       17.327388963660834
      ],
      [
       78.46730909978044,
       17.326379542395692
      ],
      [
       78.46730909978044,
       17.323687752355315
      ],
      [
       78.47023664308368,
       17.32200538358008
      ],
      [
       78.47023664308368,
       17.320323014804845
      ],
      [
       78.47316418638692,
       17.320323014804845
      ],
      [
       78.4717004147353,
       17.322678331090174
      ],
      [
       78.4717004147353,
       17.324360699865412
      ],
      [
       78.47462795803854,
       17.32436069986541
      ],
      [
       78.47462795803854,
       17.3257065948856
      ],
      [
       78.47609172969017,
       17.326043068640647
      ],
      [
       78.47645767260308,
       17.327388963660834
      ],
      [
       78.47462795803854,
       17.32907133243607
      ],
      [
       78.4720663576482,
       17.32907133243607
      ],
      [
       78.4717004147353,
       17.332099596231494
      ],
      [
       78.47023664308368,
       17.332099596231494
      ]
     ]
    ]
   },
   "properties": {
    "id": "hyderabad_022",
    "city": "hyderabad",
    "name_as_printed": null,
    "nearest_place_as_printed": "Chandr",
    "display_name": "Unnamed tank near Chandr",
    "status": "lost",
    "now_osm": {
     "name": "CRPF",
     "type": "military",
     "source": "OpenStreetMap"
    },
    "runs_found": [
     1,
     2,
     3
    ],
    "tiles": [
     "hyderabad_t2"
    ],
    "style": "hatched",
    "crop": "crops/hyderabad_022.jpg",
    "area_m2": 730797,
    "overlap_frac": 0.0,
    "bbox_px": [
     1784.0,
     2177.0,
     1812.0,
     2212.0
    ],
    "point_px": [
     1796.8,
     2193.5
    ]
   }
  },
  {
   "type": "Feature",
   "geometry": {
    "type": "Polygon",
    "coordinates": [
     [
      [
       78.45120761161259,
       17.318977119784655
      ],
      [
       78.4515735545255,
       17.31763122476447
      ],
      [
       78.45413515491583,
       17.315612382234185
      ],
      [
       78.45669675530617,
       17.316621803499327
      ],
      [
       78.45706269821908,
       17.31864064602961
      ],
      [
       78.45889241278361,
       17.31864064602961
      ],
      [
       78.45962429860941,
       17.31729475100942
      ],
      [
       78.46108807026104,
       17.31729475100942
      ],
      [
       78.46108807026104,
       17.319650067294752
      ],
      [
       78.4581605269578,
       17.319313593539704
      ],
      [
       78.45669675530617,
       17.321668909825032
      ],
      [
       78.45450109782874,
       17.321668909825032
      ],
      [
       78.45120761161259,
       17.318977119784655
      ]
     ]
    ]
   },
   "properties": {
    "id": "hyderabad_023",
    "city": "hyderabad",
    "name_as_printed": null,
    "nearest_place_as_printed": "Bandlaguda",
    "display_name": "Unnamed tank near Bandlaguda",
    "status": "lost",
    "now_osm": null,
    "runs_found": [
     1,
     2,
     3
    ],
    "tiles": [
     "hyderabad_t2"
    ],
    "style": "solid",
    "crop": "crops/hyderabad_023.jpg",
    "area_m2": 376298,
    "overlap_frac": 0.0,
    "bbox_px": [
     1743.0,
     2208.0,
     1770.0,
     2226.0
    ],
    "point_px": [
     1754.9,
     2216.6
    ]
   }
  },
  {
   "type": "Feature",
   "geometry": {
    "type": "Polygon",
    "coordinates": [
     [
      [
       78.37252988533788,
       17.25942126514132
      ],
      [
       78.37289582825079,
       17.25706594885599
      ],
      [
       78.37435959990242,
       17.256729475100943
      ],
      [
       78.37509148572822,
       17.253028263795425
      ],
      [
       78.38204440107343,
       17.25336473755047
      ],
      [
       78.38204440107343,
       17.25437415881561
      ],
      [
       78.379848743596,
       17.255383580080753
      ],
      [
       78.37911685777019,
       17.25706594885599
      ],
      [
       78.37545742864113,
       17.25706594885599
      ],
      [
       78.37252988533788,
       17.25942126514132
      ]
     ]
    ]
   },
   "properties": {
    "id": "hyderabad_024",
    "city": "hyderabad",
    "name_as_printed": null,
    "nearest_place_as_printed": "Gollapalli",
    "display_name": "Unnamed tank near Gollapalli",
    "status": "lost",
    "now_osm": null,
    "runs_found": [
     1,
     2,
     3
    ],
    "tiles": [
     "hyderabad_t2"
    ],
    "style": "solid",
    "crop": "crops/hyderabad_024.jpg",
    "area_m2": 310457,
    "overlap_frac": 0.0,
    "bbox_px": [
     1528.0,
     2393.0,
     1554.0,
     2412.0
    ],
    "point_px": [
     1540.8,
     2405.2
    ]
   }
  },
  {
   "type": "Feature",
   "geometry": {
    "type": "Polygon",
    "coordinates": [
     [
      [
       78.39155891680898,
       17.251682368775235
      ],
      [
       78.39192485972188,
       17.247981157469717
      ],
      [
       78.3937545742864,
       17.247981157469717
      ],
      [
       78.39412051719931,
       17.24663526244953
      ],
      [
       78.39851183215418,
       17.24629878869448
      ],
      [
       78.3999756038058,
       17.24293405114401
      ],
      [
       78.40180531837034,
       17.24293405114401
      ],
      [
       78.40253720419615,
       17.244952893674295
      ],
      [
       78.3999756038058,
       17.245962314939433
      ],
      [
       78.39887777506709,
       17.24865410497981
      ],
      [
       78.40107343254452,
       17.250672947510093
      ],
      [
       78.40253720419615,
       17.250672947510093
      ],
      [
       78.40290314710906,
       17.251682368775235
      ],
      [
       78.39741400341546,
       17.25134589502019
      ],
      [
       78.39704806050256,
       17.253028263795425
      ],
      [
       78.39851183215418,
       17.25471063257066
      ],
      [
       78.39558428885094,
       17.25437415881561
      ],
      [
       78.39448646011222,
       17.252691790040377
      ],
      [
       78.39155891680898,
       17.251682368775235
      ]
     ]
    ]
   },
   "properties": {
    "id": "hyderabad_025",
    "city": "hyderabad",
    "name_as_printed": null,
    "nearest_place_as_printed": "Anthreddipalli",
    "display_name": "Unnamed tank near Anthreddipalli",
    "status": "lost",
    "now_osm": null,
    "runs_found": [
     1,
     2,
     3
    ],
    "tiles": [
     "hyderabad_t2"
    ],
    "style": "solid",
    "crop": "crops/hyderabad_025.jpg",
    "area_m2": 674596,
    "overlap_frac": 0.0,
    "bbox_px": [
     1580.0,
     2407.0,
     1611.0,
     2442.0
    ],
    "point_px": [
     1594.4,
     2423.3
    ]
   }
  },
  {
   "type": "Feature",
   "geometry": {
    "type": "Polygon",
    "coordinates": [
     [
      [
       78.47389607221274,
       17.247308209959623
      ],
      [
       78.47499390095145,
       17.24293405114401
      ],
      [
       78.47499390095145,
       17.239905787348587
      ],
      [
       78.47389607221274,
       17.239569313593538
      ],
      [
       78.47389607221274,
       17.231830417227457
      ],
      [
       78.48853378872896,
       17.231830417227457
      ],
      [
       78.48853378872896,
       17.242597577388963
      ],
      [
       78.48048304464504,
       17.246971736204575
      ],
      [
       78.47389607221274,
       17.247308209959623
      ]
     ]
    ]
   },
   "properties": {
    "id": "hyderabad_026",
    "city": "hyderabad",
    "name_as_printed": null,
    "nearest_place_as_printed": "Mah\u0101r\u0101",
    "display_name": "Unnamed tank near Mah\u0101r\u0101",
    "status": "lost",
    "now_osm": {
     "name": "Aghakhan Academy",
     "type": "school",
     "source": "OpenStreetMap"
    },
    "runs_found": [
     1,
     2,
     3
    ],
    "tiles": [
     "hyderabad_t2",
     "hyderabad_t3"
    ],
    "style": "solid",
    "crop": "crops/hyderabad_026.jpg",
    "area_m2": 2347142,
    "overlap_frac": 0.0,
    "bbox_px": [
     1805.0,
     2429.0,
     1845.0,
     2475.0
    ],
    "point_px": [
     1824.4,
     2454.3
    ]
   }
  },
  {
   "type": "Feature",
   "geometry": {
    "type": "Polygon",
    "coordinates": [
     [
      [
       78.3542327396926,
       17.369111709286674
      ],
      [
       78.35276896804099,
       17.369111709286674
      ],
      [
       78.35276896804099,
       17.366083445491252
      ],
      [
       78.35057331056355,
       17.36541049798116
      ],
      [
       78.35057331056355,
       17.361036339165544
      ],
      [
       78.3472798243474,
       17.361036339165544
      ],
      [
       78.3472798243474,
       17.35935397039031
      ],
      [
       78.35203708221518,
       17.35935397039031
      ],
      [
       78.3531349109539,
       17.36036339165545
      ],
      [
       78.3531349109539,
       17.36170928667564
      ],
      [
       78.35496462551842,
       17.36372812920592
      ],
      [
       78.35496462551842,
       17.364737550471062
      ],
      [
       78.35350085386679,
       17.36541049798116
      ],
      [
       78.3542327396926,
       17.369111709286674
      ]
     ]
    ]
   },
   "properties": {
    "id": "hyderabad_027",
    "city": "hyderabad",
    "name_as_printed": null,
    "nearest_place_as_printed": "Rancheru",
    "display_name": "Unnamed tank near Rancheru",
    "status": "lost",
    "now_osm": {
     "name": "Mrugavani National Park",
     "type": "forest",
     "source": "OpenStreetMap"
    },
    "runs_found": [
     1,
     3
    ],
    "tiles": [
     "hyderabad_t2"
    ],
    "style": "hatched",
    "crop": "crops/hyderabad_027.jpg",
    "area_m2": 350165,
    "overlap_frac": 0.0,
    "bbox_px": [
     1459.0,
     2067.0,
     1480.0,
     2096.0
    ],
    "point_px": [
     1471.4,
     2085.1
    ]
   }
  },
  {
   "type": "Feature",
   "geometry": {
    "type": "Polygon",
    "coordinates": [
     [
      [
       78.54708465479385,
       17.30820995962315
      ],
      [
       78.54671871188094,
       17.306191117092865
      ],
      [
       78.54891436935839,
       17.30450874831763
      ],
      [
       78.54891436935839,
       17.302826379542395
      ],
      [
       78.54598682605514,
       17.302489905787347
      ],
      [
       78.54598682605514,
       17.30114401076716
      ],
      [
       78.54891436935839,
       17.30013458950202
      ],
      [
       78.54964625518419,
       17.2964333781965
      ],
      [
       78.54708465479385,
       17.294751009421265
      ],
      [
       78.54635276896803,
       17.292732166890982
      ],
      [
       78.55440351305197,
       17.2964333781965
      ],
      [
       78.55733105635521,
       17.2964333781965
      ],
      [
       78.55916077091973,
       17.294751009421265
      ],
      [
       78.55842888509393,
       17.286675639300135
      ],
      [
       78.56099048548427,
       17.282974427994617
      ],
      [
       78.56099048548427,
       17.281292059219382
      ],
      [
       78.5631861429617,
       17.281292059219382
      ],
      [
       78.5635520858746,
       17.285329744279945
      ],
      [
       78.56647962917785,
       17.291386271870795
      ],
      [
       78.56538180043913,
       17.297106325706594
      ],
      [
       78.56538180043913,
       17.304172274562585
      ],
      [
       78.56208831422298,
       17.305181695827727
      ],
      [
       78.54964625518419,
       17.306527590847914
      ],
      [
       78.54854842644548,
       17.307873485868104
      ],
      [
       78.54708465479385,
       17.30820995962315
      ]
     ]
    ]
   },
   "properties": {
    "id": "hyderabad_028",
    "city": "hyderabad",
    "name_as_printed": null,
    "nearest_place_as_printed": "Guramg\u016bda",
    "display_name": "Unnamed tank near Guramg\u016bda",
    "status": "lost",
    "now_osm": null,
    "runs_found": [
     1,
     2,
     3
    ],
    "tiles": [
     "hyderabad_t3"
    ],
    "style": "solid",
    "crop": "crops/hyderabad_028.jpg",
    "area_m2": 3053073,
    "overlap_frac": 0.0,
    "bbox_px": [
     2002.0,
     2248.0,
     2058.0,
     2328.0
    ],
    "point_px": [
     2034.6,
     2280.3
    ]
   }
  },
  {
   "type": "Feature",
   "geometry": {
    "type": "Polygon",
    "coordinates": [
     [
      [
       78.58624054647476,
       17.316958277254376
      ],
      [
       78.57453037326177,
       17.316958277254376
      ],
      [
       78.57306660161015,
       17.31628532974428
      ],
      [
       78.57160282995852,
       17.314266487214
      ],
      [
       78.57160282995852,
       17.31258411843876
      ],
      [
       78.57270065869724,
       17.31258411843876
      ],
      [
       78.57306660161015,
       17.31393001345895
      ],
      [
       78.57453037326177,
       17.31393001345895
      ],
      [
       78.57562820200049,
       17.313257065948857
      ],
      [
       78.57562820200049,
       17.311911170928667
      ],
      [
       78.57343254452306,
       17.31157469717362
      ],
      [
       78.57306660161015,
       17.310228802153432
      ],
      [
       78.57160282995852,
       17.310228802153432
      ],
      [
       78.5701390583069,
       17.31157469717362
      ],
      [
       78.56904122956819,
       17.308882907133242
      ],
      [
       78.56757745791657,
       17.307873485868104
      ],
      [
       78.56721151500366,
       17.305181695827727
      ],
      [
       78.56940717248109,
       17.303835800807537
      ],
      [
       78.57562820200049,
       17.30484522207268
      ],
      [
       78.57562820200049,
       17.302153432032302
      ],
      [
       78.57745791656501,
       17.302153432032302
      ],
      [
       78.57928763112955,
       17.307537012113055
      ],
      [
       78.58148328860698,
       17.308546433378197
      ],
      [
       78.5836789460844,
       17.311238223418574
      ],
      [
       78.5829470602586,
       17.31258411843876
      ],
      [
       78.58038545986827,
       17.31292059219381
      ],
      [
       78.58001951695536,
       17.314602960969044
      ],
      [
       78.58148328860698,
       17.315612382234185
      ],
      [
       78.5829470602586,
       17.315612382234185
      ],
      [
       78.58331300317151,
       17.314602960969044
      ],
      [
       78.58587460356185,
       17.314602960969044
      ],
      [
       78.58624054647476,
       17.316958277254376
      ]
     ]
    ]
   },
   "properties": {
    "id": "hyderabad_029",
    "city": "hyderabad",
    "name_as_printed": null,
    "nearest_place_as_printed": "Alm\u0101pur",
    "display_name": "Unnamed tank near Alm\u0101pur",
    "status": "lost",
    "now_osm": {
     "name": "Gurramguda Reserved Forest",
     "type": "scrub",
     "source": "OpenStreetMap"
    },
    "runs_found": [
     1,
     2,
     3
    ],
    "tiles": [
     "hyderabad_t3"
    ],
    "style": "solid",
    "crop": "crops/hyderabad_029.jpg",
    "area_m2": 1666676,
    "overlap_frac": 0.0,
    "bbox_px": [
     2060.0,
     2222.0,
     2112.0,
     2266.0
    ],
    "point_px": [
     2084.3,
     2242.0
    ]
   }
  },
  {
   "type": "Feature",
   "geometry": {
    "type": "Polygon",
    "coordinates": [
     [
      [
       78.5565991705294,
       17.325033647375506
      ],
      [
       78.55257379848743,
       17.324697173620457
      ],
      [
       78.55184191266163,
       17.32671601615074
      ],
      [
       78.54708465479385,
       17.326379542395692
      ],
      [
       78.54452305440351,
       17.32335127860027
      ],
      [
       78.54196145401318,
       17.32234185733513
      ],
      [
       78.54196145401318,
       17.320323014804845
      ],
      [
       78.54342522566479,
       17.321668909825032
      ],
      [
       78.55257379848743,
       17.321668909825032
      ],
      [
       78.55403757013906,
       17.32335127860027
      ],
      [
       78.5565991705294,
       17.323687752355315
      ],
      [
       78.5565991705294,
       17.325033647375506
      ]
     ]
    ]
   },
   "properties": {
    "id": "hyderabad_030",
    "city": "hyderabad",
    "name_as_printed": null,
    "nearest_place_as_printed": "S\u0101hibnagar",
    "display_name": "Unnamed tank near S\u0101hibnagar",
    "status": "lost",
    "now_osm": null,
    "runs_found": [
     1,
     2,
     3
    ],
    "tiles": [
     "hyderabad_t3"
    ],
    "style": "solid",
    "crop": "crops/hyderabad_030.jpg",
    "area_m2": 532820,
    "overlap_frac": 0.0,
    "bbox_px": [
     1991.0,
     2193.0,
     2031.0,
     2212.0
    ],
    "point_px": [
     2010.8,
     2201.8
    ]
   }
  },
  {
   "type": "Feature",
   "geometry": {
    "type": "Polygon",
    "coordinates": [
     [
      [
       78.62027323737497,
       17.320323014804845
      ],
      [
       78.61624786533301,
       17.319650067294752
      ],
      [
       78.61478409368138,
       17.32099596231494
      ],
      [
       78.61222249329104,
       17.32099596231494
      ],
      [
       78.6096608929007,
       17.318977119784655
      ],
      [
       78.6092949499878,
       17.316621803499327
      ],
      [
       78.60526957794585,
       17.315612382234185
      ],
      [
       78.60526957794585,
       17.314266487214
      ],
      [
       78.60673334959746,
       17.313257065948857
      ],
      [
       78.60673334959746,
       17.311911170928667
      ],
      [
       78.60856306416198,
       17.311911170928667
      ],
      [
       78.60856306416198,
       17.31393001345895
      ],
      [
       78.6096608929007,
       17.314602960969044
      ],
      [
       78.61149060746524,
       17.314602960969044
      ],
      [
       78.61185655037814,
       17.31292059219381
      ],
      [
       78.61295437911686,
       17.31292059219381
      ],
      [
       78.61332032202976,
       17.314602960969044
      ],
      [
       78.61917540863625,
       17.315612382234185
      ],
      [
       78.61917540863625,
       17.318304172274562
      ],
      [
       78.62027323737497,
       17.320323014804845
      ]
     ]
    ]
   },
   "properties": {
    "id": "hyderabad_031",
    "city": "hyderabad",
    "name_as_printed": null,
    "nearest_place_as_printed": "Ambarpet Kal\u0101n",
    "display_name": "Unnamed tank near Ambarpet Kal\u0101n",
    "status": "lost",
    "now_osm": {
     "name": "RADHA HOUSE",
     "type": "yes",
     "source": "OpenStreetMap"
    },
    "runs_found": [
     1,
     2,
     3
    ],
    "tiles": [
     "hyderabad_t3"
    ],
    "style": "solid",
    "crop": "crops/hyderabad_031.jpg",
    "area_m2": 804631,
    "overlap_frac": 0.0,
    "bbox_px": [
     2164.0,
     2210.0,
     2205.0,
     2237.0
    ],
    "point_px": [
     2184.9,
     2222.2
    ]
   }
  },
  {
   "type": "Feature",
   "geometry": {
    "type": "Polygon",
    "coordinates": [
     [
      [
       78.62137106611368,
       17.307873485868104
      ],
      [
       78.61990729446207,
       17.307200538358007
      ],
      [
       78.61844352281044,
       17.30484522207268
      ],
      [
       78.61624786533301,
       17.30484522207268
      ],
      [
       78.61515003659429,
       17.300471063257067
      ],
      [
       78.61332032202976,
       17.298788694481832
      ],
      [
       78.61332032202976,
       17.296096904441452
      ],
      [
       78.61661380824592,
       17.296096904441452
      ],
      [
       78.61661380824592,
       17.29676985195155
      ],
      [
       78.61478409368138,
       17.297106325706594
      ],
      [
       78.61515003659429,
       17.298788694481832
      ],
      [
       78.61880946572334,
       17.298788694481832
      ],
      [
       78.61990729446207,
       17.299461641991925
      ],
      [
       78.62100512320077,
       17.301816958277254
      ],
      [
       78.62027323737497,
       17.30484522207268
      ],
      [
       78.62137106611368,
       17.30585464333782
      ],
      [
       78.62137106611368,
       17.307873485868104
      ]
     ]
    ]
   },
   "properties": {
    "id": "hyderabad_032",
    "city": "hyderabad",
    "name_as_printed": null,
    "nearest_place_as_printed": "Mung\u0101n\u016br",
    "display_name": "Unnamed tank near Mung\u0101n\u016br",
    "status": "lost",
    "now_osm": null,
    "runs_found": [
     1,
     2,
     3
    ],
    "tiles": [
     "hyderabad_t3"
    ],
    "style": "solid",
    "crop": "crops/hyderabad_032.jpg",
    "area_m2": 494414,
    "overlap_frac": 0.0,
    "bbox_px": [
     2186.0,
     2249.0,
     2208.0,
     2284.0
    ],
    "point_px": [
     2197.9,
     2267.7
    ]
   }
  },
  {
   "type": "Feature",
   "geometry": {
    "type": "Polygon",
    "coordinates": [
     [
      [
       78.57123688704561,
       17.337819650067296
      ],
      [
       78.57087094413272,
       17.335464333781964
      ],
      [
       78.57270065869724,
       17.335464333781964
      ],
      [
       78.57306660161015,
       17.33378196500673
      ],
      [
       78.57087094413272,
       17.333109017496636
      ],
      [
       78.57087094413272,
       17.331763122476445
      ],
      [
       78.57453037326177,
       17.331763122476445
      ],
      [
       78.57453037326177,
       17.328061911170927
      ],
      [
       78.57672603073921,
       17.327388963660834
      ],
      [
       78.57672603073921,
       17.3257065948856
      ],
      [
       78.57855574530373,
       17.32537012113055
      ],
      [
       78.58001951695536,
       17.327388963660834
      ],
      [
       78.58221517443279,
       17.327388963660834
      ],
      [
       78.5829470602586,
       17.328398384925976
      ],
      [
       78.58477677482313,
       17.328398384925976
      ],
      [
       78.58624054647476,
       17.327388963660834
      ],
      [
       78.58624054647476,
       17.331090174966352
      ],
      [
       78.58477677482313,
       17.329744279946166
      ],
      [
       78.58331300317151,
       17.329744279946166
      ],
      [
       78.5829470602586,
       17.3314266487214
      ],
      [
       78.57892168821664,
       17.332436069986542
      ],
      [
       78.57855574530373,
       17.33378196500673
      ],
      [
       78.57672603073921,
       17.33479138627187
      ],
      [
       78.57672603073921,
       17.33613728129206
      ],
      [
       78.57892168821664,
       17.33815612382234
      ],
      [
       78.5759941449134,
       17.33815612382234
      ],
      [
       78.57379848743597,
       17.336810228802154
      ],
      [
       78.57233471578434,
       17.336810228802154
      ],
      [
       78.57123688704561,
       17.337819650067296
      ]
     ]
    ]
   },
   "properties": {
    "id": "hyderabad_033",
    "city": "hyderabad",
    "name_as_printed": null,
    "nearest_place_as_printed": "Hay\u0101tnagar",
    "display_name": "Unnamed tank near Hay\u0101tnagar",
    "status": "lost",
    "now_osm": {
     "name": "HMWSSB - Autonagar",
     "type": "yes",
     "source": "OpenStreetMap"
    },
    "runs_found": [
     1,
     2,
     3
    ],
    "tiles": [
     "hyderabad_t3"
    ],
    "style": "mixed",
    "crop": "crops/hyderabad_033.jpg",
    "area_m2": 982200,
    "overlap_frac": 0.0,
    "bbox_px": [
     2070.0,
     2159.0,
     2112.0,
     2197.0
    ],
    "point_px": [
     2088.3,
     2178.7
    ]
   }
  },
  {
   "type": "Feature",
   "geometry": {
    "type": "Polygon",
    "coordinates": [
     [
      [
       78.50243961941938,
       17.330753701211307
      ],
      [
       78.50243961941938,
       17.32907133243607
      ],
      [
       78.50134179068066,
       17.328398384925976
      ],
      [
       78.50134179068066,
       17.3257065948856
      ],
      [
       78.5046352768968,
       17.324697173620457
      ],
      [
       78.50500121980971,
       17.322678331090174
      ],
      [
       78.50134179068066,
       17.31628532974428
      ],
      [
       78.50390339107099,
       17.31763122476447
      ],
      [
       78.5046352768968,
       17.319650067294752
      ],
      [
       78.50609904854842,
       17.319650067294752
      ],
      [
       78.50719687728714,
       17.318304172274562
      ],
      [
       78.50902659185166,
       17.318304172274562
      ],
      [
       78.50975847767748,
       17.316621803499327
      ],
      [
       78.5108563064162,
       17.316621803499327
      ],
      [
       78.5108563064162,
       17.318304172274562
      ],
      [
       78.51232007806782,
       17.320323014804845
      ],
      [
       78.51524762137106,
       17.320323014804845
      ],
      [
       78.51597950719687,
       17.315612382234185
      ],
      [
       78.5170773359356,
       17.315612382234185
      ],
      [
       78.5170773359356,
       17.327725437415882
      ],
      [
       78.51780922176141,
       17.328398384925976
      ],
      [
       78.51780922176141,
       17.330753701211307
      ],
      [
       78.51561356428397,
       17.330753701211307
      ],
      [
       78.51597950719687,
       17.327388963660834
      ],
      [
       78.51451573554526,
       17.32671601615074
      ],
      [
       78.5104903635033,
       17.327388963660834
      ],
      [
       78.50975847767748,
       17.32907133243607
      ],
      [
       78.50536716272262,
       17.32907133243607
      ],
      [
       78.5042693339839,
       17.330753701211307
      ],
      [
       78.50243961941938,
       17.330753701211307
      ]
     ]
    ]
   },
   "properties": {
    "id": "hyderabad_034",
    "city": "hyderabad",
    "name_as_printed": null,
    "nearest_place_as_printed": "Almasg\u016bda",
    "display_name": "Unnamed tank near Almasg\u016bda",
    "status": "lost",
    "now_osm": null,
    "runs_found": [
     1,
     2,
     3
    ],
    "tiles": [
     "hyderabad_t3"
    ],
    "style": "mixed",
    "crop": "crops/hyderabad_034.jpg",
    "area_m2": 1697878,
    "overlap_frac": 0.0,
    "bbox_px": [
     1880.0,
     2181.0,
     1925.0,
     2226.0
    ],
    "point_px": [
     1903.1,
     2201.6
    ]
   }
  },
  {
   "type": "Feature",
   "geometry": {
    "type": "Polygon",
    "coordinates": [
     [
      [
       78.49841424737741,
       17.292395693135937
      ],
      [
       78.49841424737741,
       17.291049798115747
      ],
      [
       78.49987801902903,
       17.290376850605654
      ],
      [
       78.49987801902903,
       17.289367429340512
      ],
      [
       78.50280556233227,
       17.289367429340512
      ],
      [
       78.50280556233227,
       17.286675639300135
      ],
      [
       78.50024396194193,
       17.2849932705249
      ],
      [
       78.49878019029032,
       17.2849932705249
      ],
      [
       78.49585264698707,
       17.287685060565277
      ],
      [
       78.49585264698707,
       17.285666218034994
      ],
      [
       78.49695047572578,
       17.28398384925976
      ],
      [
       78.50024396194193,
       17.281965006729475
      ],
      [
       78.50390339107099,
       17.281628532974427
      ],
      [
       78.5046352768968,
       17.279609690444147
      ],
      [
       78.51268602098072,
       17.279609690444147
      ],
      [
       78.51268602098072,
       17.282301480484524
      ],
      [
       78.50902659185166,
       17.28263795423957
      ],
      [
       78.50902659185166,
       17.285666218034994
      ],
      [
       78.5104903635033,
       17.286002691790042
      ],
      [
       78.5104903635033,
       17.28701211305518
      ],
      [
       78.50792876311296,
       17.289030955585464
      ],
      [
       78.50134179068066,
       17.291386271870795
      ],
      [
       78.50097584776775,
       17.292395693135937
      ],
      [
       78.49841424737741,
       17.292395693135937
      ]
     ]
    ]
   },
   "properties": {
    "id": "hyderabad_035",
    "city": "hyderabad",
    "name_as_printed": null,
    "nearest_place_as_printed": "Atg\u016bda",
    "display_name": "Unnamed tank near Atg\u016bda",
    "status": "lost",
    "now_osm": null,
    "runs_found": [
     1,
     2,
     3
    ],
    "tiles": [
     "hyderabad_t3"
    ],
    "style": "solid",
    "crop": "crops/hyderabad_035.jpg",
    "area_m2": 1214581,
    "overlap_frac": 0.028,
    "bbox_px": [
     1865.0,
     2295.0,
     1911.0,
     2333.0
    ],
    "point_px": [
     1889.4,
     2317.1
    ]
   }
  },
  {
   "type": "Feature",
   "geometry": {
    "type": "Polygon",
    "coordinates": [
     [
      [
       78.50024396194193,
       17.361372812920592
      ],
      [
       78.50024396194193,
       17.360026917900402
      ],
      [
       78.5042693339839,
       17.360026917900402
      ],
      [
       78.50536716272262,
       17.359017496635264
      ],
      [
       78.5046352768968,
       17.357335127860026
      ],
      [
       78.50500121980971,
       17.354306864064604
      ],
      [
       78.50646499146133,
       17.353970390309556
      ],
      [
       78.50756282020005,
       17.35228802153432
      ],
      [
       78.50975847767748,
       17.353970390309556
      ],
      [
       78.51597950719687,
       17.353970390309556
      ],
      [
       78.51597950719687,
       17.3606998654105
      ],
      [
       78.51268602098072,
       17.360026917900402
      ],
      [
       78.5104903635033,
       17.361036339165544
      ],
      [
       78.50975847767748,
       17.36271870794078
      ],
      [
       78.50829470602586,
       17.363055181695827
      ],
      [
       78.50756282020005,
       17.364401076716018
      ],
      [
       78.50573310563551,
       17.364401076716018
      ],
      [
       78.50536716272262,
       17.36507402422611
      ],
      [
       78.50390339107099,
       17.364401076716018
      ],
      [
       78.50353744815808,
       17.363055181695827
      ],
      [
       78.50207367650647,
       17.363055181695827
      ],
      [
       78.50024396194193,
       17.361372812920592
      ]
     ]
    ]
   },
   "properties": {
    "id": "hyderabad_036",
    "city": "hyderabad",
    "name_as_printed": null,
    "nearest_place_as_printed": "Champapet",
    "display_name": "Unnamed tank near Champapet",
    "status": "lost",
    "now_osm": {
     "name": "Bhoj Reddy Engineering College For Women",
     "type": "college",
     "source": "OpenStreetMap"
    },
    "runs_found": [
     1,
     2,
     3
    ],
    "tiles": [
     "hyderabad_t3"
    ],
    "style": "hatched",
    "crop": "crops/hyderabad_036.jpg",
    "area_m2": 1255412,
    "overlap_frac": 0.021,
    "bbox_px": [
     1877.0,
     2079.0,
     1920.0,
     2117.0
    ],
    "point_px": [
     1900.4,
     2098.3
    ]
   }
  },
  {
   "type": "Feature",
   "geometry": {
    "type": "Polygon",
    "coordinates": [
     [
      [
       78.54671871188094,
       17.378532974427994
      ],
      [
       78.54671871188094,
       17.375841184387617
      ],
      [
       78.54562088314223,
       17.373822341857334
      ],
      [
       78.54562088314223,
       17.370457604306864
      ],
      [
       78.54745059770676,
       17.368102288021536
      ],
      [
       78.54671871188094,
       17.36541049798116
      ],
      [
       78.55074408392291,
       17.36541049798116
      ],
      [
       78.55074408392291,
       17.366756393001346
      ],
      [
       78.54928031227128,
       17.367092866756394
      ],
      [
       78.55074408392291,
       17.374158815612383
      ],
      [
       78.54854842644548,
       17.37449528936743
      ],
      [
       78.54818248353257,
       17.3778600269179
      ],
      [
       78.54671871188094,
       17.378532974427994
      ]
     ]
    ]
   },
   "properties": {
    "id": "hyderabad_037",
    "city": "hyderabad",
    "name_as_printed": null,
    "nearest_place_as_printed": "N\u0101gol",
    "display_name": "Unnamed tank near N\u0101gol",
    "status": "lost",
    "now_osm": {
     "name": "Prajay Nivas Phase 1",
     "type": "residential",
     "source": "OpenStreetMap"
    },
    "runs_found": [
     1,
     2,
     3
    ],
    "tiles": [
     "hyderabad_t3"
    ],
    "style": "hatched",
    "crop": "crops/hyderabad_037.jpg",
    "area_m2": 483405,
    "overlap_frac": 0.0,
    "bbox_px": [
     2001.0,
     2039.0,
     2015.0,
     2078.0
    ],
    "point_px": [
     2007.7,
     2060.4
    ]
   }
  },
  {
   "type": "Feature",
   "geometry": {
    "type": "Polygon",
    "coordinates": [
     [
      [
       78.53939985362284,
       17.388627187079408
      ],
      [
       78.53939985362284,
       17.387617765814266
      ],
      [
       78.54196145401318,
       17.38728129205922
      ],
      [
       78.54232739692608,
       17.38458950201884
      ],
      [
       78.5437911685777,
       17.383580080753703
      ],
      [
       78.54305928275188,
       17.380551816958278
      ],
      [
       78.54598682605514,
       17.379205921938087
      ],
      [
       78.54671871188094,
       17.377187079407808
      ],
      [
       78.54818248353257,
       17.377187079407808
      ],
      [
       78.54745059770676,
       17.378532974427994
      ],
      [
       78.54818248353257,
       17.382234185733513
      ],
      [
       78.54708465479385,
       17.383580080753703
      ],
      [
       78.54708465479385,
       17.385262449528938
      ],
      [
       78.5441571114906,
       17.38627187079408
      ],
      [
       78.5437911685777,
       17.388627187079408
      ],
      [
       78.53939985362284,
       17.388627187079408
      ]
     ]
    ]
   },
   "properties": {
    "id": "hyderabad_038",
    "city": "hyderabad",
    "name_as_printed": null,
    "nearest_place_as_printed": "N\u0101gol",
    "display_name": "Unnamed tank near N\u0101gol",
    "status": "lost",
    "now_osm": {
     "name": "Prajay Nivas Phase 1",
     "type": "residential",
     "source": "OpenStreetMap"
    },
    "runs_found": [
     1,
     2,
     3
    ],
    "tiles": [
     "hyderabad_t3"
    ],
    "style": "hatched",
    "crop": "crops/hyderabad_038.jpg",
    "area_m2": 458012,
    "overlap_frac": 0.122,
    "bbox_px": [
     1984.0,
     2009.0,
     2008.0,
     2043.0
    ],
    "point_px": [
     1998.7,
     2024.5
    ]
   }
  },
  {
   "type": "Feature",
   "geometry": {
    "type": "Polygon",
    "coordinates": [
     [
      [
       78.63820444010734,
       17.364737550471062
      ],
      [
       78.62722615272017,
       17.36372812920592
      ],
      [
       78.62722615272017,
       17.36271870794078
      ],
      [
       78.63161746767504,
       17.36271870794078
      ],
      [
       78.63271529641376,
       17.36170928667564
      ],
      [
       78.63271529641376,
       17.358008075370122
      ],
      [
       78.63015369602343,
       17.356662180349932
      ],
      [
       78.62722615272017,
       17.356662180349932
      ],
      [
       78.62722615272017,
       17.354306864064604
      ],
      [
       78.63015369602343,
       17.353970390309556
      ],
      [
       78.63015369602343,
       17.35228802153432
      ],
      [
       78.62722615272017,
       17.351951547779272
      ],
      [
       78.62722615272017,
       17.350605652759086
      ],
      [
       78.63308123932667,
       17.350605652759086
      ],
      [
       78.63308123932667,
       17.356662180349932
      ],
      [
       78.63417906806538,
       17.35935397039031
      ],
      [
       78.63564283971701,
       17.3606998654105
      ],
      [
       78.63783849719444,
       17.361036339165544
      ],
      [
       78.63820444010734,
       17.364737550471062
      ]
     ]
    ]
   },
   "properties": {
    "id": "hyderabad_039",
    "city": "hyderabad",
    "name_as_printed": null,
    "nearest_place_as_printed": null,
    "display_name": "Unnamed tank",
    "status": "lost",
    "now_osm": {
     "name": "Mahavir Harina Vanasthali National Park",
     "type": "nature_reserve",
     "source": "OpenStreetMap"
    },
    "runs_found": [
     1,
     2,
     3
    ],
    "tiles": [
     "hyderabad_t3"
    ],
    "style": "solid",
    "crop": "crops/hyderabad_039.jpg",
    "area_m2": 750810,
    "overlap_frac": 0.0,
    "bbox_px": [
     2224.0,
     2080.0,
     2254.0,
     2122.0
    ],
    "point_px": [
     2237.8,
     2099.6
    ]
   }
  },
  {
   "type": "Feature",
   "geometry": {
    "type": "Polygon",
    "coordinates": [
     [
      [
       78.58880214686509,
       17.384253028263796
      ],
      [
       78.5898999756038,
       17.379542395693136
      ],
      [
       78.58843620395218,
       17.377523553162852
      ],
      [
       78.59136374725543,
       17.378532974427994
      ],
      [
       78.59355940473286,
       17.37651413189771
      ],
      [
       78.59465723347158,
       17.37651413189771
      ],
      [
       78.59685289094901,
       17.380551816958278
      ],
      [
       78.5961210051232,
       17.382907133243606
      ],
      [
       78.59502317638449,
       17.383916554508748
      ],
      [
       78.59063186142961,
       17.383580080753703
      ],
      [
       78.58880214686509,
       17.384253028263796
      ]
     ]
    ]
   },
   "properties": {
    "id": "hyderabad_040",
    "city": "hyderabad",
    "name_as_printed": null,
    "nearest_place_as_printed": "Kohapuram",
    "display_name": "Unnamed tank near Kohapuram",
    "status": "lost",
    "now_osm": {
     "name": "Mahavir Harina Vanasthali National Park",
     "type": "nature_reserve",
     "source": "OpenStreetMap"
    },
    "runs_found": [
     1,
     2,
     3
    ],
    "tiles": [
     "hyderabad_t3"
    ],
    "style": "hatched",
    "crop": "crops/hyderabad_040.jpg",
    "area_m2": 502193,
    "overlap_frac": 0.0,
    "bbox_px": [
     2118.0,
     2022.0,
     2141.0,
     2045.0
    ],
    "point_px": [
     2130.2,
     2032.7
    ]
   }
  }
 ]
}