{
 "type": "FeatureCollection",
 "features": [
  {
   "type": "Feature",
   "geometry": {
    "type": "Polygon",
    "coordinates": [
     [
      [
       88.27138849929874,
       22.691166989039328
      ],
      [
       88.27138849929874,
       22.688265635074146
      ],
      [
       88.273492286115,
       22.687620889748548
      ],
      [
       88.27489481065919,
       22.688265635074146
      ],
      [
       88.2773492286115,
       22.68794326241135
      ],
      [
       88.2773492286115,
       22.689555125725338
      ],
      [
       88.27594670406732,
       22.690522243713733
      ],
      [
       88.27524544179524,
       22.692456479690524
      ],
      [
       88.27138849929874,
       22.691166989039328
      ]
     ]
    ]
   },
   "properties": {
    "id": "kolkata_000",
    "city": "kolkata",
    "name_as_printed": null,
    "nearest_place_as_printed": "D\u0101nkuni",
    "display_name": "Unnamed tank near D\u0101nkuni",
    "status": "lost",
    "now_osm": null,
    "runs_found": [
     1,
     2,
     3
    ],
    "tiles": [
     "kolkata_t0"
    ],
    "style": "solid",
    "crop": "crops/kolkata_000.jpg",
    "area_m2": 226933,
    "overlap_frac": 0.0,
    "bbox_px": [
     3978.0,
     1192.0,
     3995.0,
     1207.0
    ],
    "point_px": [
     3985.8,
     1200.3
    ]
   }
  },
  {
   "type": "Feature",
   "geometry": {
    "type": "Polygon",
    "coordinates": [
     [
      [
       88.29873772791024,
       22.688910380399744
      ],
      [
       88.29733520336606,
       22.688265635074146
      ],
      [
       88.29698457223002,
       22.686331399097355
      ],
      [
       88.29172510518934,
       22.686331399097355
      ],
      [
       88.2913744740533,
       22.683107672469376
      ],
      [
       88.29628330995793,
       22.683107672469376
      ],
      [
       88.29698457223002,
       22.684719535783366
      ],
      [
       88.29873772791024,
       22.685364281108964
      ],
      [
       88.29873772791024,
       22.688910380399744
      ]
     ]
    ]
   },
   "properties": {
    "id": "kolkata_001",
    "city": "kolkata",
    "name_as_printed": null,
    "nearest_place_as_printed": "Khorel",
    "display_name": "Unnamed tank near Khorel",
    "status": "lost",
    "now_osm": null,
    "runs_found": [
     1,
     2,
     3
    ],
    "tiles": [
     "kolkata_t0"
    ],
    "style": "solid",
    "crop": "crops/kolkata_001.jpg",
    "area_m2": 258446,
    "overlap_frac": 0.0,
    "bbox_px": [
     4035.0,
     1203.0,
     4056.0,
     1221.0
    ],
    "point_px": [
     4045.7,
     1214.4
    ]
   }
  },
  {
   "type": "Feature",
   "geometry": {
    "type": "Polygon",
    "coordinates": [
     [
      [
       88.29102384291726,
       22.70180528691167
      ],
      [
       88.29067321178121,
       22.696002578981304
      ],
      [
       88.29102384291726,
       22.693423597678915
      ],
      [
       88.29207573632539,
       22.693423597678915
      ],
      [
       88.29242636746143,
       22.695357833655706
      ],
      [
       88.29558204768584,
       22.696002578981304
      ],
      [
       88.29558204768584,
       22.69825918762089
      ],
      [
       88.29277699859747,
       22.698903932946486
      ],
      [
       88.29172510518934,
       22.70180528691167
      ],
      [
       88.29102384291726,
       22.70180528691167
      ]
     ]
    ]
   },
   "properties": {
    "id": "kolkata_002",
    "city": "kolkata",
    "name_as_printed": null,
    "nearest_place_as_printed": "Bayra",
    "display_name": "Unnamed tank near Bayra",
    "status": "lost",
    "now_osm": null,
    "runs_found": [
     1,
     2,
     3
    ],
    "tiles": [
     "kolkata_t0"
    ],
    "style": "solid",
    "crop": "crops/kolkata_002.jpg",
    "area_m2": 246209,
    "overlap_frac": 0.0,
    "bbox_px": [
     4033.0,
     1163.0,
     4047.0,
     1189.0
    ],
    "point_px": [
     4038.4,
     1176.9
    ]
   }
  },
  {
   "type": "Feature",
   "geometry": {
    "type": "Polygon",
    "coordinates": [
     [
      [
       88.33380084151473,
       22.618633139909736
      ],
      [
       88.3327489481066,
       22.617343649258544
      ],
      [
       88.33309957924264,
       22.614442295293358
      ],
      [
       88.335904628331,
       22.613797549967764
      ],
      [
       88.33695652173913,
       22.614442295293358
      ],
      [
       88.33695652173913,
       22.61766602192134
      ],
      [
       88.33380084151473,
       22.618633139909736
      ]
     ]
    ]
   },
   "properties": {
    "id": "kolkata_003",
    "city": "kolkata",
    "name_as_printed": null,
    "nearest_place_as_printed": "Ghusuri",
    "display_name": "Unnamed tank near Ghusuri",
    "status": "lost",
    "now_osm": null,
    "runs_found": [
     1,
     2,
     3
    ],
    "tiles": [
     "kolkata_t0"
    ],
    "style": "solid",
    "crop": "crops/kolkata_003.jpg",
    "area_m2": 183965,
    "overlap_frac": 0.03,
    "bbox_px": [
     4153.0,
     1421.0,
     4165.0,
     1436.0
    ],
    "point_px": [
     4159.2,
     1428.7
    ]
   }
  },
  {
   "type": "Feature",
   "geometry": {
    "type": "Polygon",
    "coordinates": [
     [
      [
       88.3899018232819,
       22.578981302385557
      ],
      [
       88.39025245441795,
       22.56963249516441
      ],
      [
       88.39516129032258,
       22.5715667311412
      ],
      [
       88.39516129032258,
       22.574145712443585
      ],
      [
       88.39656381486677,
       22.574145712443585
      ],
      [
       88.3976157082749,
       22.572856221792392
      ],
      [
       88.3976157082749,
       22.568987749838815
      ],
      [
       88.39516129032258,
       22.568343004513217
      ],
      [
       88.39481065918653,
       22.566731141199227
      ],
      [
       88.3976157082749,
       22.56608639587363
      ],
      [
       88.3976157082749,
       22.56447453255964
      ],
      [
       88.39551192145862,
       22.564152159896842
      ],
      [
       88.39551192145862,
       22.56254029658285
      ],
      [
       88.39831697054699,
       22.56092843326886
      ],
      [
       88.39866760168303,
       22.55738233397808
      ],
      [
       88.39831697054699,
       22.555770470664086
      ],
      [
       88.39551192145862,
       22.555770470664086
      ],
      [
       88.39516129032258,
       22.559638942617667
      ],
      [
       88.3913043478261,
       22.559638942617667
      ],
      [
       88.39095371669003,
       22.560606060606062
      ],
      [
       88.3899018232819,
       22.560606060606062
      ],
      [
       88.39060308555399,
       22.558027079303674
      ],
      [
       88.3899018232819,
       22.554803352675695
      ],
      [
       88.39235624123422,
       22.554803352675695
      ],
      [
       88.39691444600281,
       22.551257253384914
      ],
      [
       88.39726507713885,
       22.54964539007092
      ],
      [
       88.4007713884993,
       22.547388781431334
      ],
      [
       88.4007713884993,
       22.545454545454547
      ],
      [
       88.39901823281907,
       22.545132172791746
      ],
      [
       88.39621318373071,
       22.547388781431334
      ],
      [
       88.39410939691444,
       22.547388781431334
      ],
      [
       88.39095371669003,
       22.549000644745327
      ],
      [
       88.3899018232819,
       22.549000644745327
      ],
      [
       88.3899018232819,
       22.547711154094134
      ],
      [
       88.39621318373071,
       22.545776918117344
      ],
      [
       88.39866760168303,
       22.543520309477756
      ],
      [
       88.4007713884993,
       22.54287556415216
      ],
      [
       88.40112201963534,
       22.54126370083817
      ],
      [
       88.40357643758766,
       22.53900709219858
      ],
      [
       88.40357643758766,
       22.53771760154739
      ],
      [
       88.40217391304348,
       22.537072856221794
      ],
      [
       88.40252454417953,
       22.53352675693101
      ],
      [
       88.40357643758766,
       22.533204384268213
      ],
      [
       88.40497896213184,
       22.530947775628626
      ],
      [
       88.40462833099579,
       22.52901353965184
      ],
      [
       88.40252454417953,
       22.52901353965184
      ],
      [
       88.3899018232819,
       22.53191489361702
      ],
      [
       88.3899018232819,
       22.53062540296583
      ],
      [
       88.39866760168303,
       22.52836879432624
      ],
      [
       88.39796633941094,
       22.522566086395873
      ],
      [
       88.39726507713885,
       22.52192134107028
      ],
      [
       88.3899018232819,
       22.52192134107028
      ],
      [
       88.3899018232819,
       22.520954223081883
      ],
      [
       88.39586255259466,
       22.52127659574468
      ],
      [
       88.39621318373071,
       22.51966473243069
      ],
      [
       88.39691444600281,
       22.51966473243069
      ],
      [
       88.3976157082749,
       22.52127659574468
      ],
      [
       88.4007713884993,
       22.521598968407478
      ],
      [
       88.4007713884993,
       22.524177949709866
      ],
      [
       88.39971949509116,
       22.526112185686653
      ],
      [
       88.4000701262272,
       22.52836879432624
      ],
      [
       88.40427769985975,
       22.527724049000646
      ],
      [
       88.40462833099579,
       22.525789813023856
      ],
      [
       88.40568022440392,
       22.52482269503546
      ],
      [
       88.40568022440392,
       22.52321083172147
      ],
      [
       88.4039270687237,
       22.521598968407478
      ],
      [
       88.4039270687237,
       22.520309477756285
      ],
      [
       88.40112201963534,
       22.51966473243069
      ],
      [
       88.3976157082749,
       22.515151515151516
      ],
      [
       88.39796633941094,
       22.512894906511928
      ],
      [
       88.39726507713885,
       22.51225016118633
      ],
      [
       88.3937587657784,
       22.51225016118633
      ],
      [
       88.39340813464236,
       22.510960670535137
      ],
      [
       88.4561711079944,
       22.510960670535137
      ],
      [
       88.4554698457223,
       22.512894906511928
      ],
      [
       88.45406732117812,
       22.513862024500323
      ],
      [
       88.45406732117812,
       22.51611863313991
      ],
      [
       88.46002805049088,
       22.5177304964539
      ],
      [
       88.46002805049088,
       22.523855577047065
      ],
      [
       88.45897615708274,
       22.52321083172147
      ],
      [
       88.44950911640953,
       22.52321083172147
      ],
      [
       88.44915848527349,
       22.525789813023856
      ],
      [
       88.45056100981768,
       22.527724049000646
      ],
      [
       88.45301542776998,
       22.5354609929078
      ],
      [
       88.4554698457223,
       22.534816247582206
      ],
      [
       88.45897615708274,
       22.52998065764023
      ],
      [
       88.45932678821879,
       22.527724049000646
      ],
      [
       88.46002805049088,
       22.527724049000646
      ],
      [
       88.46002805049088,
       22.547066408768536
      ],
      [
       88.45792426367461,
       22.547066408768536
      ],
      [
       88.45757363253857,
       22.54835589941973
      ],
      [
       88.45511921458626,
       22.54835589941973
      ],
      [
       88.45441795231416,
       22.547388781431334
      ],
      [
       88.45301542776998,
       22.547388781431334
      ],
      [
       88.45266479663394,
       22.550612508059316
      ],
      [
       88.45126227208976,
       22.55190199871051
      ],
      [
       88.44740532959327,
       22.5531914893617
      ],
      [
       88.44635343618513,
       22.552224371373306
      ],
      [
       88.44460028050491,
       22.54255319148936
      ],
      [
       88.44600280504909,
       22.541586073500966
      ],
      [
       88.44810659186535,
       22.541586073500966
      ],
      [
       88.44915848527349,
       22.54480980012895
      ],
      [
       88.45161290322581,
       22.545132172791746
      ],
      [
       88.45126227208976,
       22.53932946486138
      ],
      [
       88.44635343618513,
       22.53965183752418
      ],
      [
       88.44389901823281,
       22.538039974210186
      ],
      [
       88.44074333800842,
       22.538362346872987
      ],
      [
       88.44004207573633,
       22.53900709219858
      ],
      [
       88.44004207573633,
       22.54319793681496
      ],
      [
       88.44179523141655,
       22.54480980012895
      ],
      [
       88.44109396914446,
       22.545776918117344
      ],
      [
       88.44109396914446,
       22.550934880722114
      ],
      [
       88.44354838709677,
       22.555770470664086
      ],
      [
       88.44319775596072,
       22.557704706640877
      ],
      [
       88.44039270687237,
       22.559961315280464
      ],
      [
       88.44074333800842,
       22.562862669245646
      ],
      [
       88.44004207573633,
       22.563507414571244
      ],
      [
       88.4389901823282,
       22.56254029658285
      ],
      [
       88.43758765778401,
       22.56254029658285
      ],
      [
       88.43723702664796,
       22.563507414571244
      ],
      [
       88.43408134642357,
       22.565441650548035
      ],
      [
       88.43408134642357,
       22.566731141199227
      ],
      [
       88.43267882187938,
       22.566731141199227
      ],
      [
       88.43197755960729,
       22.567698259187623
      ],
      [
       88.4288218793829,
       22.567698259187623
      ],
      [
       88.42461430575035,
       22.56608639587363
      ],
      [
       88.42426367461431,
       22.564796905222437
      ],
      [
       88.41935483870968,
       22.56447453255964
      ],
      [
       88.41900420757364,
       22.566408768536427
      ],
      [
       88.42005610098177,
       22.56737588652482
      ],
      [
       88.42321178120618,
       22.567053513862025
      ],
      [
       88.42321178120618,
       22.56963249516441
      ],
      [
       88.41900420757364,
       22.576079948420375
      ],
      [
       88.414095371669,
       22.577691811734365
      ],
      [
       88.41164095371668,
       22.580915538362348
      ],
      [
       88.40357643758766,
       22.580915538362348
      ],
      [
       88.40322580645162,
       22.579948420373952
      ],
      [
       88.40182328190744,
       22.579948420373952
      ],
      [
       88.40147265077138,
       22.580915538362348
      ],
      [
       88.39270687237027,
       22.580915538362348
      ],
      [
       88.39235624123422,
       22.578981302385557
      ],
      [
       88.3899018232819,
       22.578981302385557
      ]
     ]
    ]
   },
   "properties": {
    "id": "kolkata_004",
    "city": "kolkata",
    "name_as_printed": "Salt Water Lake",
    "nearest_place_as_printed": "P\u0101nchuria",
    "display_name": "Salt Water Lake",
    "status": "surviving",
    "now_osm": null,
    "runs_found": [
     1,
     2,
     3
    ],
    "tiles": [
     "kolkata_t1",
     "kolkata_t3"
    ],
    "style": "mixed",
    "crop": "crops/kolkata_004.jpg",
    "area_m2": 37072692,
    "overlap_frac": 0.376,
    "bbox_px": [
     4316.0,
     1538.0,
     4516.0,
     1755.0
    ],
    "point_px": [
     4410.5,
     1659.9
    ]
   }
  },
  {
   "type": "Feature",
   "geometry": {
    "type": "Polygon",
    "coordinates": [
     [
      [
       88.46669004207574,
       22.59477756286267
      ],
      [
       88.46528751753155,
       22.59477756286267
      ],
      [
       88.46598877980365,
       22.591553836234688
      ],
      [
       88.46563814866761,
       22.581882656350743
      ],
      [
       88.46213183730715,
       22.579626047711155
      ],
      [
       88.45932678821879,
       22.579948420373952
      ],
      [
       88.45722300140253,
       22.581882656350743
      ],
      [
       88.4523141654979,
       22.581560283687942
      ],
      [
       88.44635343618513,
       22.583172147001935
      ],
      [
       88.4414446002805,
       22.588007736943908
      ],
      [
       88.4382889200561,
       22.588007736943908
      ],
      [
       88.43758765778401,
       22.588974854932303
      ],
      [
       88.43443197755961,
       22.589619600257898
      ],
      [
       88.43338008415147,
       22.590586718246293
      ],
      [
       88.43408134642357,
       22.593165699548678
      ],
      [
       88.43302945301542,
       22.593810444874276
      ],
      [
       88.43057503506311,
       22.593165699548678
      ],
      [
       88.43022440392707,
       22.590586718246293
      ],
      [
       88.42847124824685,
       22.588330109606705
      ],
      [
       88.42601683029453,
       22.588974854932303
      ],
      [
       88.42636746143057,
       22.591876208897485
      ],
      [
       88.4249649368864,
       22.592198581560282
      ],
      [
       88.42391304347827,
       22.591553836234688
      ],
      [
       88.4249649368864,
       22.589619600257898
      ],
      [
       88.4249649368864,
       22.584461637653128
      ],
      [
       88.42847124824685,
       22.579948420373952
      ],
      [
       88.43302945301542,
       22.578014184397162
      ],
      [
       88.43478260869566,
       22.576402321083172
      ],
      [
       88.43618513323983,
       22.5715667311412
      ],
      [
       88.44004207573633,
       22.56963249516441
      ],
      [
       88.44495091164096,
       22.56963249516441
      ],
      [
       88.44670406732118,
       22.5715667311412
      ],
      [
       88.4484572230014,
       22.5715667311412
      ],
      [
       88.44880785413744,
       22.56963249516441
      ],
      [
       88.45687237026648,
       22.56963249516441
      ],
      [
       88.45687237026648,
       22.571244358478403
      ],
      [
       88.45827489481066,
       22.571889103803997
      ],
      [
       88.45967741935483,
       22.576079948420375
      ],
      [
       88.46283309957924,
       22.57672469374597
      ],
      [
       88.46283309957924,
       22.577691811734365
      ],
      [
       88.46458625525946,
       22.579303675048354
      ],
      [
       88.46669004207574,
       22.579303675048354
      ],
      [
       88.46669004207574,
       22.59477756286267
      ]
     ]
    ]
   },
   "properties": {
    "id": "kolkata_005",
    "city": "kolkata",
    "name_as_printed": null,
    "nearest_place_as_printed": "Uttar P\u0101nchuria",
    "display_name": "Unnamed tank near Uttar P\u0101nchuria",
    "status": "lost",
    "now_osm": null,
    "runs_found": [
     1,
     2,
     3
    ],
    "tiles": [
     "kolkata_t1"
    ],
    "style": "mixed",
    "crop": "crops/kolkata_005.jpg",
    "area_m2": 5531093,
    "overlap_frac": 0.101,
    "bbox_px": [
     4413.0,
     1495.0,
     4535.0,
     1573.0
    ],
    "point_px": [
     4468.7,
     1541.4
    ]
   }
  },
  {
   "type": "Feature",
   "geometry": {
    "type": "Polygon",
    "coordinates": [
     [
      [
       88.37798036465638,
       22.67311411992263
      ],
      [
       88.37692847124825,
       22.669245647969053
      ],
      [
       88.37517531556803,
       22.66763378465506
      ],
      [
       88.37412342215988,
       22.66247582205029
      ],
      [
       88.37447405329593,
       22.661186331399097
      ],
      [
       88.37798036465638,
       22.6608639587363
      ],
      [
       88.37833099579242,
       22.659574468085108
      ],
      [
       88.37903225806451,
       22.659574468085108
      ],
      [
       88.37868162692847,
       22.666666666666668
      ],
      [
       88.38008415147264,
       22.66795615731786
      ],
      [
       88.3804347826087,
       22.671824629271438
      ],
      [
       88.37938288920056,
       22.67311411992263
      ],
      [
       88.37798036465638,
       22.67311411992263
      ]
     ]
    ]
   },
   "properties": {
    "id": "kolkata_006",
    "city": "kolkata",
    "name_as_printed": null,
    "nearest_place_as_printed": "K\u0100MARH\u0100TI",
    "display_name": "Unnamed tank near K\u0100MARH\u0100TI",
    "status": "lost",
    "now_osm": null,
    "runs_found": [
     1,
     2,
     3
    ],
    "tiles": [
     "kolkata_t1"
    ],
    "style": "solid",
    "crop": "crops/kolkata_006.jpg",
    "area_m2": 531781,
    "overlap_frac": 0.017,
    "bbox_px": [
     4271.0,
     1252.0,
     4289.0,
     1294.0
    ],
    "point_px": [
     4280.4,
     1273.4
    ]
   }
  },
  {
   "type": "Feature",
   "geometry": {
    "type": "Polygon",
    "coordinates": [
     [
      [
       88.45406732117812,
       22.69793681495809
      ],
      [
       88.45371669004207,
       22.69471308833011
      ],
      [
       88.45511921458626,
       22.693745970341716
      ],
      [
       88.45757363253857,
       22.69471308833011
      ],
      [
       88.45757363253857,
       22.69793681495809
      ],
      [
       88.45406732117812,
       22.69793681495809
      ]
     ]
    ]
   },
   "properties": {
    "id": "kolkata_007",
    "city": "kolkata",
    "name_as_printed": null,
    "nearest_place_as_printed": "Udayr\u0101ipur",
    "display_name": "Unnamed tank near Udayr\u0101ipur",
    "status": "lost",
    "now_osm": null,
    "runs_found": [
     2,
     3
    ],
    "tiles": [
     "kolkata_t1"
    ],
    "style": "solid",
    "crop": "crops/kolkata_007.jpg",
    "area_m2": 156231,
    "overlap_frac": 0.034,
    "bbox_px": [
     4498.0,
     1175.0,
     4509.0,
     1188.0
    ],
    "point_px": [
     4503.6,
     1180.9
    ]
   }
  },
  {
   "type": "Feature",
   "geometry": {
    "type": "Polygon",
    "coordinates": [
     [
      [
       88.45406732117812,
       22.680851063829788
      ],
      [
       88.45406732117812,
       22.679883945841393
      ],
      [
       88.4586255259467,
       22.678916827852998
      ],
      [
       88.46388499298737,
       22.679883945841393
      ],
      [
       88.46388499298737,
       22.681173436492585
      ],
      [
       88.46213183730715,
       22.681173436492585
      ],
      [
       88.46107994389902,
       22.682785299806575
      ],
      [
       88.45722300140253,
       22.682462927143778
      ],
      [
       88.45582047685835,
       22.681173436492585
      ],
      [
       88.45406732117812,
       22.680851063829788
      ]
     ]
    ]
   },
   "properties": {
    "id": "kolkata_008",
    "city": "kolkata",
    "name_as_printed": null,
    "nearest_place_as_printed": "Madhyamgram",
    "display_name": "Unnamed tank near Madhyamgram",
    "status": "lost",
    "now_osm": null,
    "runs_found": [
     2,
     3
    ],
    "tiles": [
     "kolkata_t1"
    ],
    "style": "solid",
    "crop": "crops/kolkata_008.jpg",
    "area_m2": 278416,
    "overlap_frac": 0.033,
    "bbox_px": [
     4499.0,
     1222.0,
     4527.0,
     1234.0
    ],
    "point_px": [
     4513.2,
     1228.4
    ]
   }
  },
  {
   "type": "Feature",
   "geometry": {
    "type": "Polygon",
    "coordinates": [
     [
      [
       88.46423562412342,
       22.672791747259833
      ],
      [
       88.46283309957924,
       22.666666666666668
      ],
      [
       88.46423562412342,
       22.665699548678273
      ],
      [
       88.46423562412342,
       22.663765312701482
      ],
      [
       88.46528751753155,
       22.663765312701482
      ],
      [
       88.46528751753155,
       22.665054803352675
      ],
      [
       88.46739130434783,
       22.666666666666668
      ],
      [
       88.46774193548387,
       22.668600902643455
      ],
      [
       88.46563814866761,
       22.670212765957448
      ],
      [
       88.4649368863955,
       22.672791747259833
      ],
      [
       88.46423562412342,
       22.672791747259833
      ]
     ]
    ]
   },
   "properties": {
    "id": "kolkata_009",
    "city": "kolkata",
    "name_as_printed": null,
    "nearest_place_as_printed": "Doharia",
    "display_name": "Unnamed tank near Doharia",
    "status": "lost",
    "now_osm": null,
    "runs_found": [
     2,
     3
    ],
    "tiles": [
     "kolkata_t1"
    ],
    "style": "solid",
    "crop": "crops/kolkata_009.jpg",
    "area_m2": 259796,
    "overlap_frac": 0.0,
    "bbox_px": [
     4524.0,
     1253.0,
     4538.0,
     1281.0
    ],
    "point_px": [
     4530.5,
     1267.6
    ]
   }
  },
  {
   "type": "Feature",
   "geometry": {
    "type": "Polygon",
    "coordinates": [
     [
      [
       88.43758765778401,
       22.63346228239845
      ],
      [
       88.43618513323983,
       22.63185041908446
      ],
      [
       88.43723702664796,
       22.629271437782077
      ],
      [
       88.44039270687237,
       22.629271437782077
      ],
      [
       88.44109396914446,
       22.630883301096066
      ],
      [
       88.44074333800842,
       22.632817537072857
      ],
      [
       88.43758765778401,
       22.63346228239845
      ]
     ]
    ]
   },
   "properties": {
    "id": "kolkata_010",
    "city": "kolkata",
    "name_as_printed": null,
    "nearest_place_as_printed": "Rajarhat",
    "display_name": "Unnamed tank near Rajarhat",
    "status": "lost",
    "now_osm": null,
    "runs_found": [
     2,
     3
    ],
    "tiles": [
     "kolkata_t1"
    ],
    "style": "solid",
    "crop": "crops/kolkata_010.jpg",
    "area_m2": 181386,
    "overlap_frac": 0.013,
    "bbox_px": [
     4448.0,
     1375.0,
     4462.0,
     1388.0
    ],
    "point_px": [
     4455.3,
     1381.8
    ]
   }
  },
  {
   "type": "Feature",
   "geometry": {
    "type": "Polygon",
    "coordinates": [
     [
      [
       88.47159887798037,
       22.629593810444874
      ],
      [
       88.47300140252455,
       22.627981947130884
      ],
      [
       88.47300140252455,
       22.62669245647969
      ],
      [
       88.46984572230014,
       22.625725338491296
      ],
      [
       88.46949509116409,
       22.62314635718891
      ],
      [
       88.47510518934081,
       22.62314635718891
      ],
      [
       88.47510518934081,
       22.6247582205029
      ],
      [
       88.47615708274895,
       22.6250805931657
      ],
      [
       88.47615708274895,
       22.626047711154094
      ],
      [
       88.47335203366059,
       22.62894906511928
      ],
      [
       88.47159887798037,
       22.629593810444874
      ]
     ]
    ]
   },
   "properties": {
    "id": "kolkata_011",
    "city": "kolkata",
    "name_as_printed": null,
    "nearest_place_as_printed": "Rekjo\u0101ni",
    "display_name": "Unnamed tank near Rekjo\u0101ni",
    "status": "lost",
    "now_osm": null,
    "runs_found": [
     2,
     3
    ],
    "tiles": [
     "kolkata_t1"
    ],
    "style": "solid",
    "crop": "crops/kolkata_011.jpg",
    "area_m2": 265021,
    "overlap_frac": 0.0,
    "bbox_px": [
     4543.0,
     1387.0,
     4562.0,
     1407.0
    ],
    "point_px": [
     4552.8,
     1400.1
    ]
   }
  },
  {
   "type": "Feature",
   "geometry": {
    "type": "Polygon",
    "coordinates": [
     [
      [
       88.28260869565217,
       22.543520309477756
      ],
      [
       88.28190743338008,
       22.542230818826564
      ],
      [
       88.28260869565217,
       22.538684719535784
      ],
      [
       88.28576437587658,
       22.538684719535784
      ],
      [
       88.28821879382889,
       22.536750483558993
      ],
      [
       88.28927068723702,
       22.540618955512574
      ],
      [
       88.28786816269285,
       22.54126370083817
      ],
      [
       88.28681626928471,
       22.543520309477756
      ],
      [
       88.28260869565217,
       22.543520309477756
      ]
     ]
    ]
   },
   "properties": {
    "id": "kolkata_012",
    "city": "kolkata",
    "name_as_printed": null,
    "nearest_place_as_printed": "ALIPORE",
    "display_name": "Unnamed tank near ALIPORE",
    "status": "lost",
    "now_osm": null,
    "runs_found": [
     1,
     2,
     3
    ],
    "tiles": [
     "kolkata_t2"
    ],
    "style": "solid",
    "crop": "crops/kolkata_012.jpg",
    "area_m2": 358461,
    "overlap_frac": 0.029,
    "bbox_px": [
     4008.0,
     1654.0,
     4029.0,
     1675.0
    ],
    "point_px": [
     4018.2,
     1662.8
    ]
   }
  },
  {
   "type": "Feature",
   "geometry": {
    "type": "Polygon",
    "coordinates": [
     [
      [
       88.29488078541374,
       22.51579626047711
      ],
      [
       88.29488078541374,
       22.513862024500323
      ],
      [
       88.29312762973352,
       22.511927788523533
      ],
      [
       88.29312762973352,
       22.510315925209543
      ],
      [
       88.29558204768584,
       22.50902643455835
      ],
      [
       88.29698457223002,
       22.509671179883945
      ],
      [
       88.29733520336606,
       22.51225016118633
      ],
      [
       88.29558204768584,
       22.513539651837526
      ],
      [
       88.29558204768584,
       22.51579626047711
      ],
      [
       88.29488078541374,
       22.51579626047711
      ]
     ]
    ]
   },
   "properties": {
    "id": "kolkata_013",
    "city": "kolkata",
    "name_as_printed": null,
    "nearest_place_as_printed": "BEHALA",
    "display_name": "Unnamed tank near BEHALA",
    "status": "lost",
    "now_osm": null,
    "runs_found": [
     1,
     2,
     3
    ],
    "tiles": [
     "kolkata_t2"
    ],
    "style": "solid",
    "crop": "crops/kolkata_013.jpg",
    "area_m2": 177659,
    "overlap_frac": 0.014,
    "bbox_px": [
     4040.0,
     1740.0,
     4052.0,
     1761.0
    ],
    "point_px": [
     4046.1,
     1752.8
    ]
   }
  },
  {
   "type": "Feature",
   "geometry": {
    "type": "Polygon",
    "coordinates": [
     [
      [
       88.28716690042076,
       22.50354609929078
      ],
      [
       88.28576437587658,
       22.50548033526757
      ],
      [
       88.28050490883591,
       22.50515796260477
      ],
      [
       88.27980364656382,
       22.504513217279175
      ],
      [
       88.27980364656382,
       22.50193423597679
      ],
      [
       88.28225806451613,
       22.502256608639588
      ],
      [
       88.28330995792426,
       22.501289490651192
      ],
      [
       88.2850631136045,
       22.501289490651192
      ],
      [
       88.28716690042076,
       22.502256608639588
      ],
      [
       88.28716690042076,
       22.50354609929078
      ]
     ]
    ]
   },
   "properties": {
    "id": "kolkata_014",
    "city": "kolkata",
    "name_as_printed": null,
    "nearest_place_as_printed": "BEHALA",
    "display_name": "Unnamed tank near BEHALA",
    "status": "lost",
    "now_osm": null,
    "runs_found": [
     1,
     2,
     3
    ],
    "tiles": [
     "kolkata_t2"
    ],
    "style": "solid",
    "crop": "crops/kolkata_014.jpg",
    "area_m2": 281309,
    "overlap_frac": 0.0,
    "bbox_px": [
     4002.0,
     1772.0,
     4023.0,
     1785.0
    ],
    "point_px": [
     4012.5,
     1778.3
    ]
   }
  },
  {
   "type": "Feature",
   "geometry": {
    "type": "Polygon",
    "coordinates": [
     [
      [
       88.23948106591865,
       22.49838813668601
      ],
      [
       88.23842917251052,
       22.497421018697615
      ],
      [
       88.23877980364657,
       22.494197292069632
      ],
      [
       88.24193548387096,
       22.494197292069632
      ],
      [
       88.2429873772791,
       22.495486782720825
      ],
      [
       88.24263674614306,
       22.497743391360412
      ],
      [
       88.23948106591865,
       22.49838813668601
      ]
     ]
    ]
   },
   "properties": {
    "id": "kolkata_015",
    "city": "kolkata",
    "name_as_printed": null,
    "nearest_place_as_printed": "Maheshtala",
    "display_name": "Unnamed tank near Maheshtala",
    "status": "lost",
    "now_osm": null,
    "runs_found": [
     1,
     2,
     3
    ],
    "tiles": [
     "kolkata_t2"
    ],
    "style": "solid",
    "crop": "crops/kolkata_015.jpg",
    "area_m2": 178960,
    "overlap_frac": 0.0,
    "bbox_px": [
     3884.0,
     1794.0,
     3897.0,
     1807.0
    ],
    "point_px": [
     3890.3,
     1800.9
    ]
   }
  },
  {
   "type": "Feature",
   "geometry": {
    "type": "Polygon",
    "coordinates": [
     [
      [
       88.25245441795231,
       22.49838813668601
      ],
      [
       88.25175315568022,
       22.497098646034818
      ],
      [
       88.25245441795231,
       22.494197292069632
      ],
      [
       88.25561009817672,
       22.494197292069632
      ],
      [
       88.2563113604488,
       22.495809155383622
      ],
      [
       88.25561009817672,
       22.49838813668601
      ],
      [
       88.25245441795231,
       22.49838813668601
      ]
     ]
    ]
   },
   "properties": {
    "id": "kolkata_016",
    "city": "kolkata",
    "name_as_printed": null,
    "nearest_place_as_printed": "Maheshtala",
    "display_name": "Unnamed tank near Maheshtala",
    "status": "lost",
    "now_osm": null,
    "runs_found": [
     1,
     2,
     3
    ],
    "tiles": [
     "kolkata_t2"
    ],
    "style": "solid",
    "crop": "crops/kolkata_016.jpg",
    "area_m2": 184111,
    "overlap_frac": 0.0,
    "bbox_px": [
     3922.0,
     1794.0,
     3935.0,
     1807.0
    ],
    "point_px": [
     3928.5,
     1800.5
    ]
   }
  },
  {
   "type": "Feature",
   "geometry": {
    "type": "Polygon",
    "coordinates": [
     [
      [
       88.2258064516129,
       22.49484203739523
      ],
      [
       88.22440392706872,
       22.495809155383622
      ],
      [
       88.2226507713885,
       22.495486782720825
      ],
      [
       88.22089761570828,
       22.492263056092842
      ],
      [
       88.22159887798037,
       22.491618310767247
      ],
      [
       88.22510518934081,
       22.491618310767247
      ],
      [
       88.2258064516129,
       22.49484203739523
      ]
     ]
    ]
   },
   "properties": {
    "id": "kolkata_017",
    "city": "kolkata",
    "name_as_printed": null,
    "nearest_place_as_printed": "Maheshtala",
    "display_name": "Unnamed tank near Maheshtala",
    "status": "lost",
    "now_osm": null,
    "runs_found": [
     1,
     2,
     3
    ],
    "tiles": [
     "kolkata_t2"
    ],
    "style": "solid",
    "crop": "crops/kolkata_017.jpg",
    "area_m2": 169305,
    "overlap_frac": 0.0,
    "bbox_px": [
     3834.0,
     1802.0,
     3848.0,
     1815.0
    ],
    "point_px": [
     3841.5,
     1809.2
    ]
   }
  },
  {
   "type": "Feature",
   "geometry": {
    "type": "Polygon",
    "coordinates": [
     [
      [
       88.29032258064517,
       22.47711154094133
      ],
      [
       88.29032258064517,
       22.475822050290134
      ],
      [
       88.29593267882188,
       22.47517730496454
      ],
      [
       88.29593267882188,
       22.470664087685364
      ],
      [
       88.29663394109397,
       22.470664087685364
      ],
      [
       88.29663394109397,
       22.47711154094133
      ],
      [
       88.29032258064517,
       22.47711154094133
      ]
     ]
    ]
   },
   "properties": {
    "id": "kolkata_018",
    "city": "kolkata",
    "name_as_printed": null,
    "nearest_place_as_printed": "Satsuna",
    "display_name": "Unnamed tank near Satsuna",
    "status": "lost",
    "now_osm": null,
    "runs_found": [
     1,
     2,
     3
    ],
    "tiles": [
     "kolkata_t2"
    ],
    "style": "solid",
    "crop": "crops/kolkata_018.jpg",
    "area_m2": 154526,
    "overlap_frac": 0.05,
    "bbox_px": [
     4032.0,
     1860.0,
     4050.0,
     1880.0
    ],
    "point_px": [
     4043.4,
     1865.0
    ]
   }
  },
  {
   "type": "Feature",
   "geometry": {
    "type": "Polygon",
    "coordinates": [
     [
      [
       88.32643758765778,
       22.49484203739523
      ],
      [
       88.3250350631136,
       22.494197292069632
      ],
      [
       88.3250350631136,
       22.492263056092842
      ],
      [
       88.32398316970547,
       22.49129593810445
      ],
      [
       88.32363253856943,
       22.486460348162474
      ],
      [
       88.32573632538569,
       22.486137975499677
      ],
      [
       88.32573632538569,
       22.48774983881367
      ],
      [
       88.32713884992987,
       22.488072211476467
      ],
      [
       88.32643758765778,
       22.49484203739523
      ]
     ]
    ]
   },
   "properties": {
    "id": "kolkata_019",
    "city": "kolkata",
    "name_as_printed": null,
    "nearest_place_as_printed": "Rasad",
    "display_name": "Unnamed tank near Rasad",
    "status": "lost",
    "now_osm": null,
    "runs_found": [
     1,
     2,
     3
    ],
    "tiles": [
     "kolkata_t2"
    ],
    "style": "solid",
    "crop": "crops/kolkata_019.jpg",
    "area_m2": 222757,
    "overlap_frac": 0.024,
    "bbox_px": [
     4127.0,
     1805.0,
     4137.0,
     1832.0
    ],
    "point_px": [
     4132.0,
     1819.8
    ]
   }
  },
  {
   "type": "Feature",
   "geometry": {
    "type": "Polygon",
    "coordinates": [
     [
      [
       88.30610098176719,
       22.476144422952935
      ],
      [
       88.30504908835904,
       22.47292069632495
      ],
      [
       88.31030855539971,
       22.472275950999354
      ],
      [
       88.31065918653576,
       22.47001934235977
      ],
      [
       88.31241234221599,
       22.47001934235977
      ],
      [
       88.31241234221599,
       22.475822050290134
      ],
      [
       88.30610098176719,
       22.476144422952935
      ]
     ]
    ]
   },
   "properties": {
    "id": "kolkata_020",
    "city": "kolkata",
    "name_as_printed": null,
    "nearest_place_as_printed": "Chakdaba",
    "display_name": "Unnamed tank near Chakdaba",
    "status": "lost",
    "now_osm": null,
    "runs_found": [
     1,
     2,
     3
    ],
    "tiles": [
     "kolkata_t2"
    ],
    "style": "solid",
    "crop": "crops/kolkata_020.jpg",
    "area_m2": 323868,
    "overlap_frac": 0.011,
    "bbox_px": [
     4074.0,
     1863.0,
     4095.0,
     1882.0
    ],
    "point_px": [
     4086.4,
     1870.5
    ]
   }
  },
  {
   "type": "Feature",
   "geometry": {
    "type": "Polygon",
    "coordinates": [
     [
      [
       88.31065918653576,
       22.46228239845261
      ],
      [
       88.31065918653576,
       22.46067053513862
      ],
      [
       88.30890603085554,
       22.460025789813024
      ],
      [
       88.30890603085554,
       22.45873629916183
      ],
      [
       88.31136044880786,
       22.458413926499034
      ],
      [
       88.31206171107995,
       22.45551257253385
      ],
      [
       88.3148667601683,
       22.45519019987105
      ],
      [
       88.31697054698458,
       22.455834945196646
      ],
      [
       88.31837307152875,
       22.454545454545453
      ],
      [
       88.31837307152875,
       22.46228239845261
      ],
      [
       88.31065918653576,
       22.46228239845261
      ]
     ]
    ]
   },
   "properties": {
    "id": "kolkata_021",
    "city": "kolkata",
    "name_as_printed": null,
    "nearest_place_as_printed": "Baral",
    "display_name": "Unnamed tank near Baral",
    "status": "lost",
    "now_osm": null,
    "runs_found": [
     1,
     2,
     3
    ],
    "tiles": [
     "kolkata_t2"
    ],
    "style": "solid",
    "crop": "crops/kolkata_021.jpg",
    "area_m2": 604662,
    "overlap_frac": 0.02,
    "bbox_px": [
     4085.0,
     1906.0,
     4112.0,
     1930.0
    ],
    "point_px": [
     4100.9,
     1916.2
    ]
   }
  },
  {
   "type": "Feature",
   "geometry": {
    "type": "Polygon",
    "coordinates": [
     [
      [
       88.35203366058906,
       22.45905867182463
      ],
      [
       88.35028050490884,
       22.457769181173436
      ],
      [
       88.35028050490884,
       22.45680206318504
      ],
      [
       88.35168302945301,
       22.454867827208254
      ],
      [
       88.35343618513323,
       22.454545454545453
      ],
      [
       88.35483870967742,
       22.456157317859446
      ],
      [
       88.35483870967742,
       22.458413926499034
      ],
      [
       88.35203366058906,
       22.45905867182463
      ]
     ]
    ]
   },
   "properties": {
    "id": "kolkata_022",
    "city": "kolkata",
    "name_as_printed": null,
    "nearest_place_as_printed": "Baral",
    "display_name": "Unnamed tank near Baral",
    "status": "lost",
    "now_osm": null,
    "runs_found": [
     1,
     2,
     3
    ],
    "tiles": [
     "kolkata_t2"
    ],
    "style": "solid",
    "crop": "crops/kolkata_022.jpg",
    "area_m2": 174515,
    "overlap_frac": 0.0,
    "bbox_px": [
     4203.0,
     1916.0,
     4216.0,
     1930.0
    ],
    "point_px": [
     4209.9,
     1922.7
    ]
   }
  },
  {
   "type": "Feature",
   "geometry": {
    "type": "Polygon",
    "coordinates": [
     [
      [
       88.22755960729313,
       22.45873629916183
      ],
      [
       88.2289621318373,
       22.45712443584784
      ],
      [
       88.23387096774194,
       22.45712443584784
      ],
      [
       88.23422159887798,
       22.456479690522244
      ],
      [
       88.2359747545582,
       22.45712443584784
      ],
      [
       88.23562412342216,
       22.45873629916183
      ],
      [
       88.2328190743338,
       22.46099290780142
      ],
      [
       88.23141654978963,
       22.46099290780142
      ],
      [
       88.22755960729313,
       22.45873629916183
      ]
     ]
    ]
   },
   "properties": {
    "id": "kolkata_023",
    "city": "kolkata",
    "name_as_printed": null,
    "nearest_place_as_printed": "UDGE",
    "display_name": "Unnamed tank near UDGE",
    "status": "lost",
    "now_osm": null,
    "runs_found": [
     1,
     2,
     3
    ],
    "tiles": [
     "kolkata_t2"
    ],
    "style": "solid",
    "crop": "crops/kolkata_023.jpg",
    "area_m2": 267865,
    "overlap_frac": 0.008,
    "bbox_px": [
     3853.0,
     1910.0,
     3877.0,
     1924.0
    ],
    "point_px": [
     3865.6,
     1917.2
    ]
   }
  },
  {
   "type": "Feature",
   "geometry": {
    "type": "Polygon",
    "coordinates": [
     [
      [
       88.29698457223002,
       22.432946486137975
      ],
      [
       88.2938288920056,
       22.43036750483559
      ],
      [
       88.29032258064517,
       22.430045132172793
      ],
      [
       88.29032258064517,
       22.426176660219213
      ],
      [
       88.29347826086956,
       22.425854287556415
      ],
      [
       88.29488078541374,
       22.428110896196003
      ],
      [
       88.29698457223002,
       22.428110896196003
      ],
      [
       88.29698457223002,
       22.432946486137975
      ]
     ]
    ]
   },
   "properties": {
    "id": "kolkata_024",
    "city": "kolkata",
    "name_as_printed": null,
    "nearest_place_as_printed": "Daulatpur",
    "display_name": "Unnamed tank near Daulatpur",
    "status": "lost",
    "now_osm": null,
    "runs_found": [
     1,
     2,
     3
    ],
    "tiles": [
     "kolkata_t2"
    ],
    "style": "solid",
    "crop": "crops/kolkata_024.jpg",
    "area_m2": 304645,
    "overlap_frac": 0.0,
    "bbox_px": [
     4032.0,
     1997.0,
     4051.0,
     2019.0
    ],
    "point_px": [
     4041.5,
     2009.6
    ]
   }
  },
  {
   "type": "Feature",
   "geometry": {
    "type": "Polygon",
    "coordinates": [
     [
      [
       88.34817671809256,
       22.511605415860735
      ],
      [
       88.34361851332399,
       22.511927788523533
      ],
      [
       88.3422159887798,
       22.509671179883945
      ],
      [
       88.34081346423562,
       22.509671179883945
      ],
      [
       88.34011220196354,
       22.51063829787234
      ],
      [
       88.33765778401121,
       22.51063829787234
      ],
      [
       88.33695652173913,
       22.50902643455835
      ],
      [
       88.33309957924264,
       22.50870406189555
      ],
      [
       88.3327489481066,
       22.50709219858156
      ],
      [
       88.33625525946704,
       22.506447453255962
      ],
      [
       88.34642356241234,
       22.507736943907158
      ],
      [
       88.34887798036466,
       22.509671179883945
      ],
      [
       88.34817671809256,
       22.511605415860735
      ]
     ]
    ]
   },
   "properties": {
    "id": "kolkata_025",
    "city": "kolkata",
    "name_as_printed": null,
    "nearest_place_as_printed": "TOLLY",
    "display_name": "Unnamed tank near TOLLY",
    "status": "lost",
    "now_osm": null,
    "runs_found": [
     1,
     2,
     3
    ],
    "tiles": [
     "kolkata_t2"
    ],
    "style": "solid",
    "crop": "crops/kolkata_025.jpg",
    "area_m2": 565829,
    "overlap_frac": 0.0,
    "bbox_px": [
     4153.0,
     1752.0,
     4199.0,
     1769.0
    ],
    "point_px": [
     4177.7,
     1761.2
    ]
   }
  },
  {
   "type": "Feature",
   "geometry": {
    "type": "Polygon",
    "coordinates": [
     [
      [
       88.4561711079944,
       22.56382978723404
      ],
      [
       88.4547685834502,
       22.563507414571244
      ],
      [
       88.44985974754559,
       22.558349451966475
      ],
      [
       88.45056100981768,
       22.555770470664086
      ],
      [
       88.4561711079944,
       22.55544809800129
      ],
      [
       88.45722300140253,
       22.558349451966475
      ],
      [
       88.45722300140253,
       22.562217923920052
      ],
      [
       88.4561711079944,
       22.56382978723404
      ]
     ]
    ]
   },
   "properties": {
    "id": "kolkata_026",
    "city": "kolkata",
    "name_as_printed": null,
    "nearest_place_as_printed": "P\u0101nchuria",
    "display_name": "Unnamed tank near P\u0101nchuria",
    "status": "surviving",
    "now_osm": null,
    "runs_found": [
     1,
     2,
     3
    ],
    "tiles": [
     "kolkata_t3"
    ],
    "style": "solid",
    "crop": "crops/kolkata_026.jpg",
    "area_m2": 487812,
    "overlap_frac": 0.768,
    "bbox_px": [
     4487.0,
     1591.0,
     4508.0,
     1617.0
    ],
    "point_px": [
     4499.1,
     1605.8
    ]
   }
  },
  {
   "type": "Feature",
   "geometry": {
    "type": "Polygon",
    "coordinates": [
     [
      [
       88.39446002805049,
       22.49645390070922
      ],
      [
       88.39481065918653,
       22.491940683430045
      ],
      [
       88.39901823281907,
       22.49097356544165
      ],
      [
       88.39936886395512,
       22.48871695680206
      ],
      [
       88.39621318373071,
       22.488394584139265
      ],
      [
       88.39481065918653,
       22.487105093488072
      ],
      [
       88.39095371669003,
       22.48742746615087
      ],
      [
       88.39095371669003,
       22.48420373952289
      ],
      [
       88.39551192145862,
       22.48420373952289
      ],
      [
       88.39831697054699,
       22.4816247582205
      ],
      [
       88.40532959326788,
       22.482591876208897
      ],
      [
       88.40568022440392,
       22.480980012894907
      ],
      [
       88.40252454417953,
       22.48065764023211
      ],
      [
       88.40252454417953,
       22.479368149580914
      ],
      [
       88.41129032258064,
       22.479368149580914
      ],
      [
       88.4109396914446,
       22.48065764023211
      ],
      [
       88.40848527349229,
       22.480980012894907
      ],
      [
       88.40883590462833,
       22.482591876208897
      ],
      [
       88.41129032258064,
       22.482914248871694
      ],
      [
       88.4109396914446,
       22.48581560283688
      ],
      [
       88.40988779803646,
       22.486137975499677
      ],
      [
       88.40988779803646,
       22.48774983881367
      ],
      [
       88.40813464235625,
       22.488072211476467
      ],
      [
       88.4077840112202,
       22.493552546744038
      ],
      [
       88.40848527349229,
       22.495164410058027
      ],
      [
       88.41023842917251,
       22.49484203739523
      ],
      [
       88.41058906030855,
       22.48774983881367
      ],
      [
       88.41164095371668,
       22.48774983881367
      ],
      [
       88.41199158485273,
       22.486460348162474
      ],
      [
       88.41339410939692,
       22.486460348162474
      ],
      [
       88.41339410939692,
       22.497743391360412
      ],
      [
       88.39726507713885,
       22.497743391360412
      ],
      [
       88.39691444600281,
       22.496776273372017
      ],
      [
       88.39446002805049,
       22.49645390070922
      ]
     ]
    ]
   },
   "properties": {
    "id": "kolkata_027",
    "city": "kolkata",
    "name_as_printed": null,
    "nearest_place_as_printed": "Madhudaha",
    "display_name": "Unnamed tank near Madhudaha",
    "status": "lost",
    "now_osm": null,
    "runs_found": [
     1,
     2,
     3
    ],
    "tiles": [
     "kolkata_t3"
    ],
    "style": "solid",
    "crop": "crops/kolkata_027.jpg",
    "area_m2": 3049902,
    "overlap_frac": 0.076,
    "bbox_px": [
     4319.0,
     1796.0,
     4383.0,
     1853.0
    ],
    "point_px": [
     4355.0,
     1821.9
    ]
   }
  },
  {
   "type": "Feature",
   "geometry": {
    "type": "Polygon",
    "coordinates": [
     [
      [
       88.40673211781206,
       22.50902643455835
      ],
      [
       88.40673211781206,
       22.481947130883302
      ],
      [
       88.41129032258064,
       22.482914248871694
      ],
      [
       88.40988779803646,
       22.48774983881367
      ],
      [
       88.40848527349229,
       22.48774983881367
      ],
      [
       88.4077840112202,
       22.489039329464863
      ],
      [
       88.40848527349229,
       22.495164410058027
      ],
      [
       88.40988779803646,
       22.495164410058027
      ],
      [
       88.41058906030855,
       22.494197292069632
      ],
      [
       88.41058906030855,
       22.48774983881367
      ],
      [
       88.41164095371668,
       22.48774983881367
      ],
      [
       88.41199158485273,
       22.486460348162474
      ],
      [
       88.41374474053296,
       22.48581560283688
      ],
      [
       88.41374474053296,
       22.482591876208897
      ],
      [
       88.41690042075736,
       22.48388136686009
      ],
      [
       88.4179523141655,
       22.49097356544165
      ],
      [
       88.42040673211781,
       22.493230174081237
      ],
      [
       88.42180925666199,
       22.493230174081237
      ],
      [
       88.42180925666199,
       22.486460348162474
      ],
      [
       88.41970546984572,
       22.481947130883302
      ],
      [
       88.42321178120618,
       22.481947130883302
      ],
      [
       88.42321178120618,
       22.483558994197292
      ],
      [
       88.42391304347827,
       22.48388136686009
      ],
      [
       88.42391304347827,
       22.495164410058027
      ],
      [
       88.42251051893408,
       22.494197292069632
      ],
      [
       88.42075736325386,
       22.49451966473243
      ],
      [
       88.42005610098177,
       22.499677627337203
      ],
      [
       88.42145862552594,
       22.500322372662797
      ],
      [
       88.42180925666199,
       22.502901353965182
      ],
      [
       88.42005610098177,
       22.503868471953577
      ],
      [
       88.42005610098177,
       22.50515796260477
      ],
      [
       88.42391304347827,
       22.506125080593165
      ],
      [
       88.42391304347827,
       22.50902643455835
      ],
      [
       88.40673211781206,
       22.50902643455835
      ]
     ]
    ]
   },
   "properties": {
    "id": "kolkata_028",
    "city": "kolkata",
    "name_as_printed": null,
    "nearest_place_as_printed": "Kheardaha",
    "display_name": "Unnamed tank near Kheardaha",
    "status": "lost",
    "now_osm": null,
    "runs_found": [
     1,
     2,
     3
    ],
    "tiles": [
     "kolkata_t3"
    ],
    "style": "solid",
    "crop": "crops/kolkata_028.jpg",
    "area_m2": 3961424,
    "overlap_frac": 0.147,
    "bbox_px": [
     4364.0,
     1761.0,
     4413.0,
     1845.0
    ],
    "point_px": [
     4386.3,
     1798.5
    ]
   }
  },
  {
   "type": "Feature",
   "geometry": {
    "type": "Polygon",
    "coordinates": [
     [
      [
       88.41900420757364,
       22.480980012894907
      ],
      [
       88.42952314165498,
       22.480980012894907
      ],
      [
       88.42952314165498,
       22.481947130883302
      ],
      [
       88.4274193548387,
       22.482591876208897
      ],
      [
       88.4274193548387,
       22.48388136686009
      ],
      [
       88.43338008415147,
       22.48581560283688
      ],
      [
       88.43863955119214,
       22.489039329464863
      ],
      [
       88.44004207573633,
       22.49290780141844
      ],
      [
       88.4382889200561,
       22.494197292069632
      ],
      [
       88.43408134642357,
       22.494197292069632
      ],
      [
       88.43092566619916,
       22.490328820116055
      ],
      [
       88.42847124824685,
       22.490328820116055
      ],
      [
       88.42531556802244,
       22.495164410058027
      ],
      [
       88.42391304347827,
       22.495486782720825
      ],
      [
       88.42251051893408,
       22.494197292069632
      ],
      [
       88.4211079943899,
       22.494197292069632
      ],
      [
       88.42075736325386,
       22.497743391360412
      ],
      [
       88.41900420757364,
       22.49838813668601
      ],
      [
       88.41900420757364,
       22.491940683430045
      ],
      [
       88.42040673211781,
       22.493230174081237
      ],
      [
       88.42215988779803,
       22.49290780141844
      ],
      [
       88.42145862552594,
       22.490328820116055
      ],
      [
       88.42180925666199,
       22.486460348162474
      ],
      [
       88.41900420757364,
       22.480980012894907
      ]
     ]
    ]
   },
   "properties": {
    "id": "kolkata_029",
    "city": "kolkata",
    "name_as_printed": null,
    "nearest_place_as_printed": "Kheardaha",
    "display_name": "Unnamed tank near Kheardaha",
    "status": "lost",
    "now_osm": null,
    "runs_found": [
     1,
     2,
     3
    ],
    "tiles": [
     "kolkata_t3"
    ],
    "style": "solid",
    "crop": "crops/kolkata_029.jpg",
    "area_m2": 1975995,
    "overlap_frac": 0.055,
    "bbox_px": [
     4399.0,
     1794.0,
     4459.0,
     1848.0
    ],
    "point_px": [
     4424.6,
     1824.2
    ]
   }
  },
  {
   "type": "Feature",
   "geometry": {
    "type": "Polygon",
    "coordinates": [
     [
      [
       88.44740532959327,
       22.499032882011605
      ],
      [
       88.44740532959327,
       22.494197292069632
      ],
      [
       88.445301542777,
       22.493874919406835
      ],
      [
       88.445301542777,
       22.493230174081237
      ],
      [
       88.44705469845722,
       22.49290780141844
      ],
      [
       88.44915848527349,
       22.490328820116055
      ],
      [
       88.45406732117812,
       22.48774983881367
      ],
      [
       88.45371669004207,
       22.48517085751128
      ],
      [
       88.4586255259467,
       22.48517085751128
      ],
      [
       88.45792426367461,
       22.48774983881367
      ],
      [
       88.45967741935483,
       22.48871695680206
      ],
      [
       88.46178120617111,
       22.48871695680206
      ],
      [
       88.46178120617111,
       22.49129593810445
      ],
      [
       88.46037868162693,
       22.494197292069632
      ],
      [
       88.45967741935483,
       22.498710509348808
      ],
      [
       88.4586255259467,
       22.499032882011605
      ],
      [
       88.4586255259467,
       22.497098646034818
      ],
      [
       88.46002805049088,
       22.493552546744038
      ],
      [
       88.46002805049088,
       22.49129593810445
      ],
      [
       88.45827489481066,
       22.49097356544165
      ],
      [
       88.45722300140253,
       22.492585428755643
      ],
      [
       88.4561711079944,
       22.499032882011605
      ],
      [
       88.45371669004207,
       22.5
      ],
      [
       88.44740532959327,
       22.499032882011605
      ]
     ]
    ]
   },
   "properties": {
    "id": "kolkata_030",
    "city": "kolkata",
    "name_as_printed": null,
    "nearest_place_as_printed": "Baynala",
    "display_name": "Unnamed tank near Baynala",
    "status": "lost",
    "now_osm": null,
    "runs_found": [
     1,
     2,
     3
    ],
    "tiles": [
     "kolkata_t3"
    ],
    "style": "solid",
    "crop": "crops/kolkata_030.jpg",
    "area_m2": 1524639,
    "overlap_frac": 0.02,
    "bbox_px": [
     4474.0,
     1789.0,
     4521.0,
     1835.0
    ],
    "point_px": [
     4498.4,
     1810.6
    ]
   }
  },
  {
   "type": "Feature",
   "geometry": {
    "type": "Polygon",
    "coordinates": [
     [
      [
       88.43793828892005,
       22.47292069632495
      ],
      [
       88.4382889200561,
       22.47163120567376
      ],
      [
       88.44039270687237,
       22.47098646034816
      ],
      [
       88.44039270687237,
       22.467762733720182
      ],
      [
       88.4414446002805,
       22.46647324306899
      ],
      [
       88.44179523141655,
       22.46260477111541
      ],
      [
       88.4414446002805,
       22.458413926499034
      ],
      [
       88.44284712482468,
       22.458413926499034
      ],
      [
       88.44319775596072,
       22.460025789813024
      ],
      [
       88.44635343618513,
       22.461315280464216
      ],
      [
       88.44915848527349,
       22.461315280464216
      ],
      [
       88.45056100981768,
       22.460025789813024
      ],
      [
       88.45196353436185,
       22.460025789813024
      ],
      [
       88.45196353436185,
       22.461637653127013
      ],
      [
       88.44985974754559,
       22.463249516441007
      ],
      [
       88.44985974754559,
       22.466795615731787
      ],
      [
       88.44880785413744,
       22.467117988394584
      ],
      [
       88.44880785413744,
       22.46808510638298
      ],
      [
       88.44389901823281,
       22.471953578336556
      ],
      [
       88.43793828892005,
       22.47292069632495
      ]
     ]
    ]
   },
   "properties": {
    "id": "kolkata_031",
    "city": "kolkata",
    "name_as_printed": null,
    "nearest_place_as_printed": "R\u0101dh\u0101nagar",
    "display_name": "Unnamed tank near R\u0101dh\u0101nagar",
    "status": "lost",
    "now_osm": null,
    "runs_found": [
     1,
     2,
     3
    ],
    "tiles": [
     "kolkata_t3"
    ],
    "style": "solid",
    "crop": "crops/kolkata_031.jpg",
    "area_m2": 1076721,
    "overlap_frac": 0.021,
    "bbox_px": [
     4453.0,
     1873.0,
     4493.0,
     1918.0
    ],
    "point_px": [
     4472.9,
     1895.2
    ]
   }
  },
  {
   "type": "Feature",
   "geometry": {
    "type": "Polygon",
    "coordinates": [
     [
      [
       88.38253856942497,
       22.49484203739523
      ],
      [
       88.38148667601683,
       22.49484203739523
      ],
      [
       88.38148667601683,
       22.493552546744038
      ],
      [
       88.38008415147264,
       22.491940683430045
      ],
      [
       88.38113604488079,
       22.483558994197292
      ],
      [
       88.38008415147264,
       22.482914248871694
      ],
      [
       88.37762973352034,
       22.483236621534495
      ],
      [
       88.37798036465638,
       22.488072211476467
      ],
      [
       88.37622720897616,
       22.491618310767247
      ],
      [
       88.37412342215988,
       22.492585428755643
      ],
      [
       88.37201963534362,
       22.48871695680206
      ],
      [
       88.37201963534362,
       22.4822695035461
      ],
      [
       88.37307152875175,
       22.4816247582205
      ],
      [
       88.38113604488079,
       22.4816247582205
      ],
      [
       88.38113604488079,
       22.482914248871694
      ],
      [
       88.38253856942497,
       22.483236621534495
      ],
      [
       88.38253856942497,
       22.485493230174082
      ],
      [
       88.38394109396914,
       22.486460348162474
      ],
      [
       88.38429172510519,
       22.492585428755643
      ],
      [
       88.38253856942497,
       22.49484203739523
      ]
     ]
    ]
   },
   "properties": {
    "id": "kolkata_032",
    "city": "kolkata",
    "name_as_printed": null,
    "nearest_place_as_printed": "Gariya",
    "display_name": "Unnamed tank near Gariya",
    "status": "lost",
    "now_osm": null,
    "runs_found": [
     1,
     2,
     3
    ],
    "tiles": [
     "kolkata_t3"
    ],
    "style": "solid",
    "crop": "crops/kolkata_032.jpg",
    "area_m2": 1051389,
    "overlap_frac": 0.04,
    "bbox_px": [
     4265.0,
     1805.0,
     4300.0,
     1846.0
    ],
    "point_px": [
     4281.5,
     1828.5
    ]
   }
  },
  {
   "type": "Feature",
   "geometry": {
    "type": "Polygon",
    "coordinates": [
     [
      [
       88.39831697054699,
       22.478401031592522
      ],
      [
       88.39586255259466,
       22.479045776918117
      ],
      [
       88.39340813464236,
       22.478401031592522
      ],
      [
       88.39305750350631,
       22.47711154094133
      ],
      [
       88.39060308555399,
       22.47678916827853
      ],
      [
       88.38955119214586,
       22.47872340425532
      ],
      [
       88.38814866760168,
       22.47872340425532
      ],
      [
       88.38709677419355,
       22.47807865892972
      ],
      [
       88.38604488078542,
       22.474854932301742
      ],
      [
       88.38814866760168,
       22.47163120567376
      ],
      [
       88.39060308555399,
       22.47098646034816
      ],
      [
       88.39446002805049,
       22.474854932301742
      ],
      [
       88.39726507713885,
       22.475822050290134
      ],
      [
       88.39831697054699,
       22.478401031592522
      ]
     ]
    ]
   },
   "properties": {
    "id": "kolkata_033",
    "city": "kolkata",
    "name_as_printed": null,
    "nearest_place_as_printed": "Gariya",
    "display_name": "Unnamed tank near Gariya",
    "status": "surviving",
    "now_osm": null,
    "runs_found": [
     1,
     2,
     3
    ],
    "tiles": [
     "kolkata_t3"
    ],
    "style": "solid",
    "crop": "crops/kolkata_033.jpg",
    "area_m2": 625226,
    "overlap_frac": 0.217,
    "bbox_px": [
     4305.0,
     1854.0,
     4340.0,
     1879.0
    ],
    "point_px": [
     4320.3,
     1865.0
    ]
   }
  },
  {
   "type": "Feature",
   "geometry": {
    "type": "Polygon",
    "coordinates": [
     [
      [
       88.46774193548387,
       22.50193423597679
      ],
      [
       88.46774193548387,
       22.49290780141844
      ],
      [
       88.468793828892,
       22.49290780141844
      ],
      [
       88.468793828892,
       22.49451966473243
      ],
      [
       88.46949509116409,
       22.495164410058027
      ],
      [
       88.47230014025246,
       22.495164410058027
      ],
      [
       88.47335203366059,
       22.496131528046423
      ],
      [
       88.47335203366059,
       22.497743391360412
      ],
      [
       88.4726507713885,
       22.499032882011605
      ],
      [
       88.468793828892,
       22.499355254674402
      ],
      [
       88.46844319775596,
       22.50193423597679
      ],
      [
       88.46774193548387,
       22.50193423597679
      ]
     ]
    ]
   },
   "properties": {
    "id": "kolkata_034",
    "city": "kolkata",
    "name_as_printed": null,
    "nearest_place_as_printed": "Baynala",
    "display_name": "Unnamed tank near Baynala",
    "status": "lost",
    "now_osm": null,
    "runs_found": [
     1,
     2,
     3
    ],
    "tiles": [
     "kolkata_t3"
    ],
    "style": "solid",
    "crop": "crops/kolkata_034.jpg",
    "area_m2": 302605,
    "overlap_frac": 0.0,
    "bbox_px": [
     4538.0,
     1783.0,
     4554.0,
     1811.0
    ],
    "point_px": [
     4544.4,
     1797.7
    ]
   }
  },
  {
   "type": "Feature",
   "geometry": {
    "type": "Polygon",
    "coordinates": [
     [
      [
       88.42005610098177,
       22.447453255963893
      ],
      [
       88.41584852734923,
       22.4464861379755
      ],
      [
       88.41619915848527,
       22.44326241134752
      ],
      [
       88.4179523141655,
       22.44261766602192
      ],
      [
       88.42075736325386,
       22.442940038684718
      ],
      [
       88.42075736325386,
       22.4464861379755
      ],
      [
       88.42005610098177,
       22.447453255963893
      ]
     ]
    ]
   },
   "properties": {
    "id": "kolkata_035",
    "city": "kolkata",
    "name_as_printed": null,
    "nearest_place_as_printed": "Son\u0101rpur",
    "display_name": "Unnamed tank near Son\u0101rpur",
    "status": "lost",
    "now_osm": null,
    "runs_found": [
     1,
     2,
     3
    ],
    "tiles": [
     "kolkata_t3"
    ],
    "style": "solid",
    "crop": "crops/kolkata_035.jpg",
    "area_m2": 222842,
    "overlap_frac": 0.005,
    "bbox_px": [
     4390.0,
     1952.0,
     4404.0,
     1967.0
    ],
    "point_px": [
     4397.5,
     1959.8
    ]
   }
  },
  {
   "type": "Feature",
   "geometry": {
    "type": "Polygon",
    "coordinates": [
     [
      [
       88.39656381486677,
       22.440038684719536
      ],
      [
       88.39481065918653,
       22.438749194068343
      ],
      [
       88.39446002805049,
       22.436814958091553
      ],
      [
       88.3976157082749,
       22.435847840103158
      ],
      [
       88.39866760168303,
       22.436492585428756
      ],
      [
       88.39936886395512,
       22.43907156673114
      ],
      [
       88.39831697054699,
       22.440038684719536
      ],
      [
       88.39656381486677,
       22.440038684719536
      ]
     ]
    ]
   },
   "properties": {
    "id": "kolkata_036",
    "city": "kolkata",
    "name_as_printed": null,
    "nearest_place_as_printed": "Ukila",
    "display_name": "Unnamed tank near Ukila",
    "status": "lost",
    "now_osm": null,
    "runs_found": [
     1,
     2,
     3
    ],
    "tiles": [
     "kolkata_t3"
    ],
    "style": "solid",
    "crop": "crops/kolkata_036.jpg",
    "area_m2": 170035,
    "overlap_frac": 0.0,
    "bbox_px": [
     4329.0,
     1975.0,
     4343.0,
     1988.0
    ],
    "point_px": [
     4336.2,
     1981.3
    ]
   }
  }
 ]
}