{
 "type": "FeatureCollection",
 "features": [
  {
   "type": "Feature",
   "geometry": {
    "type": "Polygon",
    "coordinates": [
     [
      [
       76.48070017953322,
       12.452682926829269
      ],
      [
       76.48070017953322,
       12.439024390243903
      ],
      [
       76.48171005385997,
       12.439349593495935
      ],
      [
       76.48204667863554,
       12.44130081300813
      ],
      [
       76.48440305206464,
       12.441951219512195
      ],
      [
       76.48541292639138,
       12.44130081300813
      ],
      [
       76.4850763016158,
       12.43869918699187
      ],
      [
       76.48574955116696,
       12.437073170731708
      ],
      [
       76.48776929982047,
       12.43739837398374
      ],
      [
       76.48810592459606,
       12.43869918699187
      ],
      [
       76.48945242369838,
       12.43869918699187
      ],
      [
       76.49012567324955,
       12.431869918699187
      ],
      [
       76.4951750448833,
       12.431544715447155
      ],
      [
       76.49618491921005,
       12.436422764227641
      ],
      [
       76.49887791741472,
       12.436747967479675
      ],
      [
       76.49955116696589,
       12.432195121951219
      ],
      [
       76.50089766606823,
       12.431219512195122
      ],
      [
       76.50089766606823,
       12.430243902439024
      ],
      [
       76.5015709156194,
       12.430243902439024
      ],
      [
       76.50224416517055,
       12.432845528455285
      ],
      [
       76.50426391382406,
       12.43349593495935
      ],
      [
       76.5052737881508,
       12.43089430894309
      ],
      [
       76.50662028725314,
       12.43089430894309
      ],
      [
       76.50695691202873,
       12.42959349593496
      ],
      [
       76.50796678635548,
       12.429268292682927
      ],
      [
       76.50830341113105,
       12.43089430894309
      ],
      [
       76.50964991023339,
       12.432195121951219
      ],
      [
       76.50998653500898,
       12.438048780487804
      ],
      [
       76.51604578096948,
       12.440325203252032
      ],
      [
       76.51806552962299,
       12.44260162601626
      ],
      [
       76.52042190305207,
       12.441951219512195
      ],
      [
       76.52042190305207,
       12.440325203252032
      ],
      [
       76.51806552962299,
       12.43739837398374
      ],
      [
       76.51806552962299,
       12.436747967479675
      ],
      [
       76.51941202872531,
       12.436422764227641
      ],
      [
       76.52008527827648,
       12.433821138211382
      ],
      [
       76.5197486535009,
       12.43089430894309
      ],
      [
       76.5177289048474,
       12.429918699186992
      ],
      [
       76.5177289048474,
       12.428617886178861
      ],
      [
       76.51907540394973,
       12.428292682926829
      ],
      [
       76.51873877917414,
       12.425040650406505
      ],
      [
       76.51570915619389,
       12.424065040650406
      ],
      [
       76.51840215439856,
       12.42081300813008
      ],
      [
       76.51806552962299,
       12.414634146341463
      ],
      [
       76.51873877917414,
       12.414634146341463
      ],
      [
       76.52042190305207,
       12.417235772357724
      ],
      [
       76.52277827648115,
       12.418536585365853
      ],
      [
       76.5258078994614,
       12.417886178861789
      ],
      [
       76.52446140035907,
       12.420162601626016
      ],
      [
       76.52446140035907,
       12.422439024390243
      ],
      [
       76.52648114901257,
       12.423739837398374
      ],
      [
       76.52681777378815,
       12.426666666666666
      ],
      [
       76.52850089766606,
       12.428943089430895
      ],
      [
       76.52883752244165,
       12.43479674796748
      ],
      [
       76.5298473967684,
       12.436747967479675
      ],
      [
       76.53254039497307,
       12.436747967479675
      ],
      [
       76.53355026929982,
       12.434471544715446
      ],
      [
       76.534223518851,
       12.427642276422764
      ],
      [
       76.5379263913824,
       12.428292682926829
      ],
      [
       76.53826301615798,
       12.427317073170732
      ],
      [
       76.53994614003591,
       12.427317073170732
      ],
      [
       76.54095601436266,
       12.428617886178861
      ],
      [
       76.54263913824057,
       12.428617886178861
      ],
      [
       76.54297576301616,
       12.4269918699187
      ],
      [
       76.54465888689407,
       12.4269918699187
      ],
      [
       76.54499551166965,
       12.42569105691057
      ],
      [
       76.546342010772,
       12.425040650406505
      ],
      [
       76.54533213644524,
       12.421788617886179
      ],
      [
       76.54735188509875,
       12.421463414634147
      ],
      [
       76.54903500897666,
       12.417886178861789
      ],
      [
       76.55139138240574,
       12.41691056910569
      ],
      [
       76.55206463195691,
       12.418861788617885
      ],
      [
       76.55341113105925,
       12.418861788617885
      ],
      [
       76.55442100538599,
       12.417886178861789
      ],
      [
       76.55374775583483,
       12.415609756097561
      ],
      [
       76.55442100538599,
       12.409756097560976
      ],
      [
       76.55509425493716,
       12.409756097560976
      ],
      [
       76.55576750448833,
       12.414634146341463
      ],
      [
       76.55677737881508,
       12.415609756097561
      ],
      [
       76.55677737881508,
       12.420162601626016
      ],
      [
       76.558460502693,
       12.421138211382114
      ],
      [
       76.56182675044883,
       12.420487804878048
      ],
      [
       76.5625,
       12.417560975609756
      ],
      [
       76.56350987432675,
       12.417560975609756
      ],
      [
       76.5645197486535,
       12.416260162601626
      ],
      [
       76.5645197486535,
       12.413983739837398
      ],
      [
       76.56317324955117,
       12.413658536585366
      ],
      [
       76.56283662477558,
       12.412682926829268
      ],
      [
       76.56350987432675,
       12.412357723577236
      ],
      [
       76.56350987432675,
       12.410731707317073
      ],
      [
       76.56586624775584,
       12.40910569105691
      ],
      [
       76.56586624775584,
       12.40520325203252
      ],
      [
       76.56687612208259,
       12.40390243902439
      ],
      [
       76.56687612208259,
       12.401951219512195
      ],
      [
       76.56754937163375,
       12.401951219512195
      ],
      [
       76.56754937163375,
       12.403577235772358
      ],
      [
       76.56990574506284,
       12.408455284552845
      ],
      [
       76.57226211849192,
       12.408455284552845
      ],
      [
       76.57327199281868,
       12.406829268292682
      ],
      [
       76.57428186714542,
       12.406829268292682
      ],
      [
       76.57495511669659,
       12.40780487804878
      ],
      [
       76.57428186714542,
       12.411707317073171
      ],
      [
       76.57562836624776,
       12.412682926829268
      ],
      [
       76.57764811490125,
       12.412682926829268
      ],
      [
       76.57832136445242,
       12.414634146341463
      ],
      [
       76.58034111310593,
       12.414634146341463
      ],
      [
       76.57933123877918,
       12.415609756097561
      ],
      [
       76.57966786355476,
       12.417886178861789
      ],
      [
       76.57832136445242,
       12.41918699186992
      ],
      [
       76.57832136445242,
       12.422113821138211
      ],
      [
       76.57966786355476,
       12.423414634146342
      ],
      [
       76.58168761220826,
       12.42308943089431
      ],
      [
       76.58101436265709,
       12.42081300813008
      ],
      [
       76.58168761220826,
       12.41918699186992
      ],
      [
       76.58640035906643,
       12.422439024390243
      ],
      [
       76.59212298025135,
       12.421788617886179
      ],
      [
       76.59245960502693,
       12.419837398373984
      ],
      [
       76.59144973070018,
       12.419512195121952
      ],
      [
       76.59212298025135,
       12.418211382113821
      ],
      [
       76.59178635547576,
       12.41430894308943
      ],
      [
       76.59414272890484,
       12.413658536585366
      ],
      [
       76.59447935368043,
       12.411707317073171
      ],
      [
       76.5951526032316,
       12.411707317073171
      ],
      [
       76.59548922800718,
       12.413658536585366
      ],
      [
       76.59784560143626,
       12.413658536585366
      ],
      [
       76.59784560143626,
       12.414634146341463
      ],
      [
       76.59481597845601,
       12.414634146341463
      ],
      [
       76.59447935368043,
       12.415609756097561
      ],
      [
       76.59279622980252,
       12.415934959349594
      ],
      [
       76.5931328545781,
       12.418861788617885
      ],
      [
       76.59784560143626,
       12.417886178861789
      ],
      [
       76.59784560143626,
       12.425040650406505
      ],
      [
       76.59380610412926,
       12.42569105691057
      ],
      [
       76.59380610412926,
       12.4269918699187
      ],
      [
       76.59548922800718,
       12.427317073170732
      ],
      [
       76.59548922800718,
       12.427967479674797
      ],
      [
       76.59212298025135,
       12.427967479674797
      ],
      [
       76.59212298025135,
       12.42569105691057
      ],
      [
       76.58976660682227,
       12.425365853658537
      ],
      [
       76.58572710951526,
       12.426016260162601
      ],
      [
       76.58438061041292,
       12.4269918699187
      ],
      [
       76.5806777378815,
       12.427642276422764
      ],
      [
       76.57966786355476,
       12.428617886178861
      ],
      [
       76.58000448833035,
       12.431219512195122
      ],
      [
       76.58236086175943,
       12.43089430894309
      ],
      [
       76.58202423698384,
       12.433821138211382
      ],
      [
       76.58337073608618,
       12.43479674796748
      ],
      [
       76.58370736086177,
       12.439349593495935
      ],
      [
       76.58606373429085,
       12.445528455284553
      ],
      [
       76.58572710951526,
       12.448780487804878
      ],
      [
       76.58808348294434,
       12.452682926829269
      ],
      [
       76.58236086175943,
       12.452682926829269
      ],
      [
       76.58034111310593,
       12.448780487804878
      ],
      [
       76.57899461400359,
       12.448130081300812
      ],
      [
       76.578657989228,
       12.446504065040651
      ],
      [
       76.57663824057451,
       12.445528455284553
      ],
      [
       76.574618491921,
       12.445528455284553
      ],
      [
       76.57360861759426,
       12.446504065040651
      ],
      [
       76.57394524236985,
       12.452682926829269
      ],
      [
       76.55947037701975,
       12.452682926829269
      ],
      [
       76.55913375224416,
       12.449756097560975
      ],
      [
       76.55711400359067,
       12.450406504065041
      ],
      [
       76.55711400359067,
       12.452682926829269
      ],
      [
       76.54297576301616,
       12.452682926829269
      ],
      [
       76.54230251346499,
       12.45170731707317
      ],
      [
       76.54364901256733,
       12.451382113821138
      ],
      [
       76.54331238779174,
       12.449430894308943
      ],
      [
       76.54095601436266,
       12.449430894308943
      ],
      [
       76.54061938958708,
       12.452032520325202
      ],
      [
       76.53960951526032,
       12.452682926829269
      ],
      [
       76.49685816876122,
       12.452682926829269
      ],
      [
       76.49652154398564,
       12.451382113821138
      ],
      [
       76.4951750448833,
       12.451382113821138
      ],
      [
       76.49483842010773,
       12.452682926829269
      ],
      [
       76.48070017953322,
       12.452682926829269
      ]
     ]
    ]
   },
   "properties": {
    "id": "mysuru_000",
    "city": "mysuru",
    "name_as_printed": null,
    "nearest_place_as_printed": "Krishnar\u0101jas\u0101gara",
    "display_name": "Unnamed tank near Krishnar\u0101jas\u0101gara",
    "status": "surviving",
    "now_osm": null,
    "runs_found": [
     1,
     2,
     3
    ],
    "tiles": [
     "mysuru_t0"
    ],
    "style": "mixed",
    "crop": "crops/mysuru_000.jpg",
    "area_m2": 33792971,
    "overlap_frac": 0.776,
    "bbox_px": [
     1685.0,
     1902.0,
     2033.0,
     2058.0
    ],
    "point_px": [
     1869.2,
     1951.8
    ]
   }
  },
  {
   "type": "Feature",
   "geometry": {
    "type": "Polygon",
    "coordinates": [
     [
      [
       76.63352782764811,
       12.321951219512195
      ],
      [
       76.63352782764811,
       12.31609756097561
      ],
      [
       76.63150807899461,
       12.311544715447155
      ],
      [
       76.6379039497307,
       12.31089430894309
      ],
      [
       76.63689407540394,
       12.311869918699188
      ],
      [
       76.63689407540394,
       12.31479674796748
      ],
      [
       76.6399236983842,
       12.315121951219512
      ],
      [
       76.6399236983842,
       12.316422764227642
      ],
      [
       76.63857719928187,
       12.317073170731707
      ],
      [
       76.63857719928187,
       12.31869918699187
      ],
      [
       76.63756732495511,
       12.319024390243902
      ],
      [
       76.63655745062836,
       12.321626016260163
      ],
      [
       76.63352782764811,
       12.321951219512195
      ]
     ]
    ]
   },
   "properties": {
    "id": "mysuru_001",
    "city": "mysuru",
    "name_as_printed": null,
    "nearest_place_as_printed": "Bog\u0101di",
    "display_name": "Unnamed tank near Bog\u0101di",
    "status": "lost",
    "now_osm": {
     "name": "Kukkarahalli Lake Park",
     "type": "park",
     "source": "OpenStreetMap"
    },
    "runs_found": [
     1,
     2,
     3
    ],
    "tiles": [
     "mysuru_t0"
    ],
    "style": "hatched",
    "crop": "crops/mysuru_001.jpg",
    "area_m2": 607256,
    "overlap_frac": 0.019,
    "bbox_px": [
     2133.0,
     2304.0,
     2158.0,
     2338.0
    ],
    "point_px": [
     2145.0,
     2321.8
    ]
   }
  },
  {
   "type": "Feature",
   "geometry": {
    "type": "Polygon",
    "coordinates": [
     [
      [
       76.66214093357272,
       12.311219512195121
      ],
      [
       76.66113105924596,
       12.310243902439025
      ],
      [
       76.66113105924596,
       12.308617886178862
      ],
      [
       76.66281418312388,
       12.304065040650407
      ],
      [
       76.66416068222621,
       12.303739837398375
      ],
      [
       76.66483393177738,
       12.304715447154472
      ],
      [
       76.66719030520646,
       12.305040650406504
      ],
      [
       76.66786355475763,
       12.305691056910568
      ],
      [
       76.6661804308797,
       12.30829268292683
      ],
      [
       76.66483393177738,
       12.30829268292683
      ],
      [
       76.66382405745063,
       12.309268292682926
      ],
      [
       76.66382405745063,
       12.310569105691057
      ],
      [
       76.66214093357272,
       12.311219512195121
      ]
     ]
    ]
   },
   "properties": {
    "id": "mysuru_002",
    "city": "mysuru",
    "name_as_printed": null,
    "nearest_place_as_printed": "MYSORE",
    "display_name": "Unnamed tank near MYSORE",
    "status": "lost",
    "now_osm": {
     "name": "DIET",
     "type": "college",
     "source": "OpenStreetMap"
    },
    "runs_found": [
     1,
     2,
     3
    ],
    "tiles": [
     "mysuru_t1"
    ],
    "style": "solid",
    "crop": "crops/mysuru_002.jpg",
    "area_m2": 326041,
    "overlap_frac": 0.0,
    "bbox_px": [
     2221.0,
     2337.0,
     2241.0,
     2360.0
    ],
    "point_px": [
     2229.3,
     2349.3
    ]
   }
  },
  {
   "type": "Feature",
   "geometry": {
    "type": "Polygon",
    "coordinates": [
     [
      [
       76.766157989228,
       12.35349593495935
      ],
      [
       76.76548473967684,
       12.35349593495935
      ],
      [
       76.76514811490125,
       12.351219512195122
      ],
      [
       76.76346499102334,
       12.351219512195122
      ],
      [
       76.75908886894075,
       12.348292682926829
      ],
      [
       76.75908886894075,
       12.347642276422764
      ],
      [
       76.76178186714542,
       12.346666666666668
      ],
      [
       76.762118491921,
       12.341788617886179
      ],
      [
       76.76413824057451,
       12.342764227642277
      ],
      [
       76.76413824057451,
       12.344065040650406
      ],
      [
       76.76548473967684,
       12.345040650406505
      ],
      [
       76.76548473967684,
       12.346666666666668
      ],
      [
       76.7681777378815,
       12.348943089430895
      ],
      [
       76.766157989228,
       12.35349593495935
      ]
     ]
    ]
   },
   "properties": {
    "id": "mysuru_003",
    "city": "mysuru",
    "name_as_printed": null,
    "nearest_place_as_printed": "Kempanahundi",
    "display_name": "Unnamed tank near Kempanahundi",
    "status": "lost",
    "now_osm": null,
    "runs_found": [
     1,
     2,
     3
    ],
    "tiles": [
     "mysuru_t1"
    ],
    "style": "hatched",
    "crop": "crops/mysuru_003.jpg",
    "area_m2": 542058,
    "overlap_frac": 0.187,
    "bbox_px": [
     2512.0,
     2207.0,
     2539.0,
     2243.0
    ],
    "point_px": [
     2526.4,
     2224.1
    ]
   }
  },
  {
   "type": "Feature",
   "geometry": {
    "type": "Polygon",
    "coordinates": [
     [
      [
       76.78702872531419,
       12.32390243902439
      ],
      [
       76.78534560143626,
       12.323577235772358
      ],
      [
       76.78366247755835,
       12.32130081300813
      ],
      [
       76.78130610412926,
       12.32130081300813
      ],
      [
       76.78029622980252,
       12.320325203252033
      ],
      [
       76.77894973070018,
       12.320325203252033
      ],
      [
       76.77894973070018,
       12.319674796747968
      ],
      [
       76.78298922800718,
       12.31869918699187
      ],
      [
       76.78702872531419,
       12.319674796747968
      ],
      [
       76.78702872531419,
       12.32390243902439
      ]
     ]
    ]
   },
   "properties": {
    "id": "mysuru_004",
    "city": "mysuru",
    "name_as_printed": null,
    "nearest_place_as_printed": "Hunagana",
    "display_name": "Unnamed tank near Hunagana",
    "status": "lost",
    "now_osm": null,
    "runs_found": [
     1,
     2,
     3
    ],
    "tiles": [
     "mysuru_t1"
    ],
    "style": "solid",
    "crop": "crops/mysuru_004.jpg",
    "area_m2": 256240,
    "overlap_frac": 0.0,
    "bbox_px": [
     2571.0,
     2298.0,
     2595.0,
     2314.0
    ],
    "point_px": [
     2586.1,
     2307.6
    ]
   }
  },
  {
   "type": "Feature",
   "geometry": {
    "type": "Polygon",
    "coordinates": [
     [
      [
       76.61501346499102,
       12.286504065040651
      ],
      [
       76.61467684021544,
       12.283252032520325
      ],
      [
       76.61063734290843,
       12.282276422764227
      ],
      [
       76.6113105924596,
       12.279024390243903
      ],
      [
       76.61602333931778,
       12.278373983739836
      ],
      [
       76.61635996409336,
       12.280975609756098
      ],
      [
       76.61871633752244,
       12.28130081300813
      ],
      [
       76.61938958707361,
       12.279349593495935
      ],
      [
       76.61837971274686,
       12.278373983739836
      ],
      [
       76.61905296229803,
       12.276747967479675
      ],
      [
       76.62006283662477,
       12.276422764227643
      ],
      [
       76.62006283662477,
       12.27869918699187
      ],
      [
       76.62107271095152,
       12.280325203252033
      ],
      [
       76.61804308797127,
       12.283252032520325
      ],
      [
       76.61804308797127,
       12.285528455284553
      ],
      [
       76.61703321364452,
       12.286504065040651
      ],
      [
       76.61501346499102,
       12.286504065040651
      ]
     ]
    ]
   },
   "properties": {
    "id": "mysuru_005",
    "city": "mysuru",
    "name_as_printed": null,
    "nearest_place_as_printed": "Dy\u0101vayyanahundi",
    "display_name": "Unnamed tank near Dy\u0101vayyanahundi",
    "status": "lost",
    "now_osm": {
     "name": "Kanakadasanagara",
     "type": "neighbourhood",
     "source": "OpenStreetMap"
    },
    "runs_found": [
     1,
     2,
     3
    ],
    "tiles": [
     "mysuru_t2"
    ],
    "style": "hatched",
    "crop": "crops/mysuru_005.jpg",
    "area_m2": 538818,
    "overlap_frac": 0.0,
    "bbox_px": [
     2071.0,
     2413.0,
     2102.0,
     2444.0
    ],
    "point_px": [
     2086.2,
     2428.0
    ]
   }
  },
  {
   "type": "Feature",
   "geometry": {
    "type": "Polygon",
    "coordinates": [
     [
      [
       76.550381508079,
       12.20520325203252
      ],
      [
       76.550381508079,
       12.204227642276424
      ],
      [
       76.55442100538599,
       12.203577235772357
      ],
      [
       76.55509425493716,
       12.202276422764228
      ],
      [
       76.5604802513465,
       12.201951219512194
      ],
      [
       76.56014362657092,
       12.204552845528456
      ],
      [
       76.56182675044883,
       12.204878048780488
      ],
      [
       76.56216337522442,
       12.20260162601626
      ],
      [
       76.56485637342908,
       12.20130081300813
      ],
      [
       76.5645197486535,
       12.205528455284552
      ],
      [
       76.55610412926391,
       12.205528455284552
      ],
      [
       76.55509425493716,
       12.206178861788619
      ],
      [
       76.55341113105925,
       12.204552845528456
      ],
      [
       76.550381508079,
       12.20520325203252
      ]
     ]
    ]
   },
   "properties": {
    "id": "mysuru_006",
    "city": "mysuru",
    "name_as_printed": null,
    "nearest_place_as_printed": "Thorena Kat\u016br",
    "display_name": "Unnamed tank near Thorena Kat\u016br",
    "status": "lost",
    "now_osm": {
     "name": "Jayapura Government Hospital",
     "type": "hospital",
     "source": "OpenStreetMap"
    },
    "runs_found": [
     1,
     2,
     3
    ],
    "tiles": [
     "mysuru_t2"
    ],
    "style": "hatched",
    "crop": "crops/mysuru_006.jpg",
    "area_m2": 420352,
    "overlap_frac": 0.04,
    "bbox_px": [
     1892.0,
     2660.0,
     1935.0,
     2675.0
    ],
    "point_px": [
     1916.4,
     2666.8
    ]
   }
  },
  {
   "type": "Feature",
   "geometry": {
    "type": "Polygon",
    "coordinates": [
     [
      [
       76.65574506283663,
       12.275121951219512
      ],
      [
       76.65574506283663,
       12.269268292682927
      ],
      [
       76.65742818671454,
       12.268617886178863
      ],
      [
       76.65742818671454,
       12.266341463414633
      ],
      [
       76.65608168761221,
       12.266016260162601
      ],
      [
       76.65608168761221,
       12.264065040650406
      ],
      [
       76.65439856373429,
       12.261138211382114
      ],
      [
       76.65641831238779,
       12.260813008130082
      ],
      [
       76.65675493716337,
       12.259512195121951
      ],
      [
       76.65810143626571,
       12.25918699186992
      ],
      [
       76.65810143626571,
       12.257560975609756
      ],
      [
       76.65944793536805,
       12.257235772357724
      ],
      [
       76.65978456014362,
       12.260162601626016
      ],
      [
       76.66079443447038,
       12.261463414634147
      ],
      [
       76.66045780969479,
       12.265365853658537
      ],
      [
       76.65978456014362,
       12.265691056910569
      ],
      [
       76.65944793536805,
       12.269268292682927
      ],
      [
       76.65776481149013,
       12.273170731707317
      ],
      [
       76.65574506283663,
       12.275121951219512
      ]
     ]
    ]
   },
   "properties": {
    "id": "mysuru_007",
    "city": "mysuru",
    "name_as_printed": null,
    "nearest_place_as_printed": "Gejjagahalli",
    "display_name": "Unnamed tank near Gejjagahalli",
    "status": "lost",
    "now_osm": {
     "name": "Landfill Site",
     "type": "landfill",
     "source": "OpenStreetMap"
    },
    "runs_found": [
     1,
     2,
     3
    ],
    "tiles": [
     "mysuru_t3"
    ],
    "style": "mixed",
    "crop": "crops/mysuru_007.jpg",
    "area_m2": 655475,
    "overlap_frac": 0.008,
    "bbox_px": [
     2201.0,
     2448.0,
     2220.0,
     2503.0
    ],
    "point_px": [
     2211.4,
     2478.2
    ]
   }
  },
  {
   "type": "Feature",
   "geometry": {
    "type": "Polygon",
    "coordinates": [
     [
      [
       76.73922800718132,
       12.287479674796748
      ],
      [
       76.74259425493716,
       12.28390243902439
      ],
      [
       76.74326750448833,
       12.280325203252033
      ],
      [
       76.74697037701975,
       12.280650406504066
      ],
      [
       76.74697037701975,
       12.28260162601626
      ],
      [
       76.74899012567325,
       12.282926829268293
      ],
      [
       76.74932675044883,
       12.280650406504066
      ],
      [
       76.75134649910234,
       12.28
      ],
      [
       76.74932675044883,
       12.28520325203252
      ],
      [
       76.74730700179533,
       12.285528455284553
      ],
      [
       76.74427737881508,
       12.28780487804878
      ],
      [
       76.74293087971274,
       12.287154471544715
      ],
      [
       76.73922800718132,
       12.287479674796748
      ]
     ]
    ]
   },
   "properties": {
    "id": "mysuru_008",
    "city": "mysuru",
    "name_as_printed": null,
    "nearest_place_as_printed": "Varuna",
    "display_name": "Unnamed tank near Varuna",
    "status": "lost",
    "now_osm": null,
    "runs_found": [
     1,
     2,
     3
    ],
    "tiles": [
     "mysuru_t3"
    ],
    "style": "hatched",
    "crop": "crops/mysuru_008.jpg",
    "area_m2": 532295,
    "overlap_frac": 0.0,
    "bbox_px": [
     2453.0,
     2409.0,
     2489.0,
     2433.0
    ],
    "point_px": [
     2471.3,
     2420.8
    ]
   }
  },
  {
   "type": "Feature",
   "geometry": {
    "type": "Polygon",
    "coordinates": [
     [
      [
       76.7705341113106,
       12.274471544715448
      ],
      [
       76.76986086175943,
       12.274471544715448
      ],
      [
       76.7705341113106,
       12.267642276422764
      ],
      [
       76.76986086175943,
       12.265040650406505
      ],
      [
       76.7681777378815,
       12.263414634146342
      ],
      [
       76.77019748653501,
       12.263414634146342
      ],
      [
       76.77289048473968,
       12.265040650406505
      ],
      [
       76.77322710951526,
       12.266341463414633
      ],
      [
       76.77625673249551,
       12.2669918699187
      ],
      [
       76.77356373429085,
       12.26959349593496
      ],
      [
       76.77289048473968,
       12.271869918699187
      ],
      [
       76.7705341113106,
       12.274471544715448
      ]
     ]
    ]
   },
   "properties": {
    "id": "mysuru_009",
    "city": "mysuru",
    "name_as_printed": null,
    "nearest_place_as_printed": "Dandikere",
    "display_name": "Unnamed tank near Dandikere",
    "status": "lost",
    "now_osm": null,
    "runs_found": [
     1,
     2,
     3
    ],
    "tiles": [
     "mysuru_t3"
    ],
    "style": "hatched",
    "crop": "crops/mysuru_009.jpg",
    "area_m2": 407820,
    "overlap_frac": 0.033,
    "bbox_px": [
     2539.0,
     2450.0,
     2563.0,
     2484.0
    ],
    "point_px": [
     2550.0,
     2468.6
    ]
   }
  },
  {
   "type": "Feature",
   "geometry": {
    "type": "Polygon",
    "coordinates": [
     [
      [
       76.75100987432675,
       12.19739837398374
      ],
      [
       76.74831687612209,
       12.19739837398374
      ],
      [
       76.74831687612209,
       12.193821138211382
      ],
      [
       76.74932675044883,
       12.193170731707317
      ],
      [
       76.74899012567325,
       12.181463414634147
      ],
      [
       76.75538599640933,
       12.184715447154472
      ],
      [
       76.75740574506284,
       12.184715447154472
      ],
      [
       76.75673249551167,
       12.186666666666667
      ],
      [
       76.75740574506284,
       12.18959349593496
      ],
      [
       76.75235637342908,
       12.19349593495935
      ],
      [
       76.75100987432675,
       12.19739837398374
      ]
     ]
    ]
   },
   "properties": {
    "id": "mysuru_010",
    "city": "mysuru",
    "name_as_printed": null,
    "nearest_place_as_printed": "Hadin\u0101du",
    "display_name": "Unnamed tank near Hadin\u0101du",
    "status": "lost",
    "now_osm": null,
    "runs_found": [
     1,
     2,
     3
    ],
    "tiles": [
     "mysuru_t3"
    ],
    "style": "mixed",
    "crop": "crops/mysuru_010.jpg",
    "area_m2": 1009613,
    "overlap_frac": 0.0,
    "bbox_px": [
     2480.0,
     2687.0,
     2507.0,
     2736.0
    ],
    "point_px": [
     2491.4,
     2712.6
    ]
   }
  }
 ]
}