{
 "type": "FeatureCollection",
 "features": [
  {
   "type": "Feature",
   "geometry": {
    "type": "Polygon",
    "coordinates": [
     [
      [
       80.16835016835017,
       13.208834037025008
      ],
      [
       80.16363636363636,
       13.207859694706073
      ],
      [
       80.16127946127946,
       13.20656057161416
      ],
      [
       80.16026936026935,
       13.204611886976291
      ],
      [
       80.15589225589225,
       13.203312763884378
      ],
      [
       80.15286195286195,
       13.201364079246508
      ],
      [
       80.15286195286195,
       13.200064956154595
      ],
      [
       80.15185185185186,
       13.199090613835661
      ],
      [
       80.14915824915825,
       13.198765833062684
      ],
      [
       80.14814814814815,
       13.197791490743748
      ],
      [
       80.14882154882154,
       13.194543683013965
      ],
      [
       80.15117845117845,
       13.192919779149074
      ],
      [
       80.15353535353535,
       13.192594998376096
      ],
      [
       80.15387205387205,
       13.189671971419292
      ],
      [
       80.15656565656566,
       13.190646313738227
      ],
      [
       80.15690235690235,
       13.187398506008444
      ],
      [
       80.16026936026935,
       13.185449821370575
      ],
      [
       80.16094276094276,
       13.181877232867814
      ],
      [
       80.15824915824916,
       13.179603767456966
      ],
      [
       80.15286195286195,
       13.178629425138032
      ],
      [
       80.14882154882154,
       13.172783371224423
      ],
      [
       80.14511784511785,
       13.172133809678467
      ],
      [
       80.14377104377104,
       13.173108151997402
      ],
      [
       80.14309764309765,
       13.17180902890549
      ],
      [
       80.13771043771044,
       13.168236440402728
      ],
      [
       80.12558922558922,
       13.168236440402728
      ],
      [
       80.12457912457913,
       13.165313413445924
      ],
      [
       80.12794612794613,
       13.164663851899968
      ],
      [
       80.12996632996634,
       13.163039948035076
      ],
      [
       80.13131313131314,
       13.159792140305294
      ],
      [
       80.13400673400673,
       13.158493017213381
      ],
      [
       80.13535353535353,
       13.154270867164664
      ],
      [
       80.13973063973064,
       13.154270867164664
      ],
      [
       80.14175084175085,
       13.15492042871062
      ],
      [
       80.14208754208754,
       13.155894771029555
      ],
      [
       80.14444444444445,
       13.157193894121468
      ],
      [
       80.14713804713804,
       13.157193894121468
      ],
      [
       80.15050505050505,
       13.156219551802533
      ],
      [
       80.15252525252525,
       13.154270867164664
      ],
      [
       80.15319865319866,
       13.151023059434882
      ],
      [
       80.15454545454546,
       13.14972393634297
      ],
      [
       80.15589225589225,
       13.14972393634297
      ],
      [
       80.15791245791246,
       13.152971744072751
      ],
      [
       80.15824915824916,
       13.156219551802533
      ],
      [
       80.16026936026935,
       13.157843455667425
      ],
      [
       80.16195286195286,
       13.157843455667425
      ],
      [
       80.16565656565656,
       13.1552452094836
      ],
      [
       80.16632996632997,
       13.153946086391686
      ],
      [
       80.16767676767677,
       13.153946086391686
      ],
      [
       80.16868686868686,
       13.15492042871062
      ],
      [
       80.16868686868686,
       13.156544332575512
      ],
      [
       80.16599326599327,
       13.16044170185125
      ],
      [
       80.16632996632997,
       13.162715167262098
      ],
      [
       80.17205387205387,
       13.162715167262098
      ],
      [
       80.17239057239057,
       13.164014290354011
      ],
      [
       80.17508417508418,
       13.164014290354011
      ],
      [
       80.17777777777778,
       13.165962974991881
      ],
      [
       80.17912457912458,
       13.165962974991881
      ],
      [
       80.18181818181819,
       13.168886001948685
      ],
      [
       80.18249158249158,
       13.170509905813576
      ],
      [
       80.18181818181819,
       13.175381617408249
      ],
      [
       80.18316498316499,
       13.179928548229945
      ],
      [
       80.17946127946128,
       13.182526794413771
      ],
      [
       80.18114478114478,
       13.187398506008444
      ],
      [
       80.18114478114478,
       13.196167586878857
      ],
      [
       80.17912457912458,
       13.199090613835661
      ],
      [
       80.17710437710437,
       13.200389736927574
      ],
      [
       80.17373737373737,
       13.200714517700552
      ],
      [
       80.17003367003367,
       13.204611886976291
      ],
      [
       80.16767676767677,
       13.204611886976291
      ],
      [
       80.16666666666667,
       13.205586229295225
      ],
      [
       80.16666666666667,
       13.207210133160117
      ],
      [
       80.16868686868686,
       13.207859694706073
      ],
      [
       80.16835016835017,
       13.208834037025008
      ]
     ]
    ]
   },
   "properties": {
    "id": "chennai_000",
    "city": "chennai",
    "name_as_printed": "Pulal Tank",
    "nearest_place_as_printed": "Vadapuramb\u0101kkam",
    "display_name": "Pulal Tank",
    "status": "surviving",
    "now_osm": null,
    "runs_found": [
     1,
     2,
     3
    ],
    "tiles": [
     "chennai_t0"
    ],
    "style": "mixed",
    "crop": "crops/chennai_000.jpg",
    "area_m2": 18761846,
    "overlap_frac": 0.357,
    "bbox_px": [
     3612.0,
     2627.0,
     3786.0,
     2809.0
    ],
    "point_px": [
     3719.4,
     2724.2
    ]
   }
  },
  {
   "type": "Feature",
   "geometry": {
    "type": "Polygon",
    "coordinates": [
     [
      [
       80.11649831649832,
       13.220201364079246
      ],
      [
       80.11717171717171,
       13.21955180253329
      ],
      [
       80.12457912457913,
       13.218902240987333
      ],
      [
       80.12592592592593,
       13.220526144852224
      ],
      [
       80.12962962962963,
       13.22150048717116
      ],
      [
       80.13131313131314,
       13.220201364079246
      ],
      [
       80.13131313131314,
       13.219227021760311
      ],
      [
       80.13299663299664,
       13.219227021760311
      ],
      [
       80.13434343434344,
       13.220201364079246
      ],
      [
       80.13501683501684,
       13.228320883403702
      ],
      [
       80.13602693602694,
       13.229295225722637
      ],
      [
       80.14141414141415,
       13.229620006495615
      ],
      [
       80.14377104377104,
       13.231243910360506
      ],
      [
       80.14612794612795,
       13.231243910360506
      ],
      [
       80.14747474747475,
       13.22864566417668
      ],
      [
       80.14814814814815,
       13.22864566417668
      ],
      [
       80.14781144781145,
       13.231243910360506
      ],
      [
       80.14949494949495,
       13.231568691133486
      ],
      [
       80.15016835016834,
       13.230919129587528
      ],
      [
       80.15016835016834,
       13.228320883403702
      ],
      [
       80.15117845117845,
       13.228320883403702
      ],
      [
       80.15084175084175,
       13.235790841182203
      ],
      [
       80.14949494949495,
       13.235790841182203
      ],
      [
       80.14915824915825,
       13.23416693731731
      ],
      [
       80.14680134680135,
       13.23416693731731
      ],
      [
       80.14646464646465,
       13.23611562195518
      ],
      [
       80.12828282828283,
       13.23611562195518
      ],
      [
       80.12693602693602,
       13.233842156544332
      ],
      [
       80.11649831649832,
       13.233842156544332
      ],
      [
       80.11649831649832,
       13.230919129587528
      ],
      [
       80.12087542087542,
       13.230919129587528
      ],
      [
       80.12154882154883,
       13.230269568041573
      ],
      [
       80.12053872053872,
       13.225397856446898
      ],
      [
       80.11885521885522,
       13.22344917180903
      ],
      [
       80.11649831649832,
       13.222799610263072
      ],
      [
       80.11649831649832,
       13.220201364079246
      ]
     ]
    ]
   },
   "properties": {
    "id": "chennai_001",
    "city": "chennai",
    "name_as_printed": "aram Tank",
    "nearest_place_as_printed": "Nall\u016br",
    "display_name": "aram Tank",
    "status": "lost",
    "now_osm": {
     "name": "Sholavaram Lake",
     "type": "water",
     "source": "OpenStreetMap"
    },
    "runs_found": [
     1,
     2,
     3
    ],
    "tiles": [
     "chennai_t0"
    ],
    "style": "mixed",
    "crop": "crops/chennai_001.jpg",
    "area_m2": 3980616,
    "overlap_frac": 0.102,
    "bbox_px": [
     3588.0,
     2543.0,
     3691.0,
     2596.0
    ],
    "point_px": [
     3631.4,
     2565.3
    ]
   }
  },
  {
   "type": "Feature",
   "geometry": {
    "type": "Polygon",
    "coordinates": [
     [
      [
       80.16397306397306,
       13.229295225722637
      ],
      [
       80.16195286195286,
       13.224748294900941
      ],
      [
       80.16363636363636,
       13.22150048717116
      ],
      [
       80.16632996632997,
       13.221175706398181
      ],
      [
       80.16700336700336,
       13.219876583306268
      ],
      [
       80.16969696969697,
       13.218252679441377
      ],
      [
       80.16969696969697,
       13.224098733354985
      ],
      [
       80.16531986531986,
       13.22897044494966
      ],
      [
       80.16397306397306,
       13.229295225722637
      ]
     ]
    ]
   },
   "properties": {
    "id": "chennai_002",
    "city": "chennai",
    "name_as_printed": null,
    "nearest_place_as_printed": "Kummanur",
    "display_name": "Unnamed tank near Kummanur",
    "status": "lost",
    "now_osm": null,
    "runs_found": [
     1,
     2,
     3
    ],
    "tiles": [
     "chennai_t0"
    ],
    "style": "hatched",
    "crop": "crops/chennai_002.jpg",
    "area_m2": 579891,
    "overlap_frac": 0.0,
    "bbox_px": [
     3723.0,
     2564.0,
     3746.0,
     2598.0
    ],
    "point_px": [
     3735.3,
     2580.4
    ]
   }
  },
  {
   "type": "Feature",
   "geometry": {
    "type": "Polygon",
    "coordinates": [
     [
      [
       80.1952861952862,
       13.222799610263072
      ],
      [
       80.19292929292929,
       13.22312439103605
      ],
      [
       80.18787878787879,
       13.221175706398181
      ],
      [
       80.18787878787879,
       13.216628775576487
      ],
      [
       80.18888888888888,
       13.216303994803507
      ],
      [
       80.1915824915825,
       13.220201364079246
      ],
      [
       80.19393939393939,
       13.221175706398181
      ],
      [
       80.1952861952862,
       13.222799610263072
      ]
     ]
    ]
   },
   "properties": {
    "id": "chennai_003",
    "city": "chennai",
    "name_as_printed": null,
    "nearest_place_as_printed": "Kumman\u016br",
    "display_name": "Unnamed tank near Kumman\u016br",
    "status": "lost",
    "now_osm": null,
    "runs_found": [
     1,
     2,
     3
    ],
    "tiles": [
     "chennai_t0"
    ],
    "style": "hatched",
    "crop": "crops/chennai_003.jpg",
    "area_m2": 261443,
    "overlap_frac": 0.0,
    "bbox_px": [
     3800.0,
     2583.0,
     3822.0,
     2604.0
    ],
    "point_px": [
     3808.0,
     2591.6
    ]
   }
  },
  {
   "type": "Feature",
   "geometry": {
    "type": "Polygon",
    "coordinates": [
     [
      [
       80.2043771043771,
       13.23611562195518
      ],
      [
       80.2023569023569,
       13.23611562195518
      ],
      [
       80.20202020202021,
       13.23449171809029
      ],
      [
       80.1996632996633,
       13.23254303345242
      ],
      [
       80.1962962962963,
       13.233842156544332
      ],
      [
       80.19393939393939,
       13.233842156544332
      ],
      [
       80.193265993266,
       13.230269568041573
      ],
      [
       80.20202020202021,
       13.22864566417668
      ],
      [
       80.2043771043771,
       13.233192594998377
      ],
      [
       80.2043771043771,
       13.23611562195518
      ]
     ]
    ]
   },
   "properties": {
    "id": "chennai_004",
    "city": "chennai",
    "name_as_printed": null,
    "nearest_place_as_printed": "Perung\u0101v\u016br",
    "display_name": "Unnamed tank near Perung\u0101v\u016br",
    "status": "lost",
    "now_osm": null,
    "runs_found": [
     1,
     2,
     3
    ],
    "tiles": [
     "chennai_t0"
    ],
    "style": "hatched",
    "crop": "crops/chennai_004.jpg",
    "area_m2": 553651,
    "overlap_frac": 0.0,
    "bbox_px": [
     3816.0,
     2543.0,
     3849.0,
     2566.0
    ],
    "point_px": [
     3833.9,
     2555.9
    ]
   }
  },
  {
   "type": "Feature",
   "geometry": {
    "type": "Polygon",
    "coordinates": [
     [
      [
       80.23131313131313,
       13.230269568041573
      ],
      [
       80.22962962962963,
       13.233842156544332
      ],
      [
       80.22861952861953,
       13.233842156544332
      ],
      [
       80.22794612794613,
       13.23254303345242
      ],
      [
       80.22323232323232,
       13.231893471906464
      ],
      [
       80.22154882154882,
       13.23059434881455
      ],
      [
       80.21818181818182,
       13.229620006495615
      ],
      [
       80.21818181818182,
       13.22864566417668
      ],
      [
       80.23131313131313,
       13.22897044494966
      ],
      [
       80.23131313131313,
       13.230269568041573
      ]
     ]
    ]
   },
   "properties": {
    "id": "chennai_005",
    "city": "chennai",
    "name_as_printed": null,
    "nearest_place_as_printed": "Vichch\u016br",
    "display_name": "Unnamed tank near Vichch\u016br",
    "status": "lost",
    "now_osm": null,
    "runs_found": [
     1,
     2,
     3
    ],
    "tiles": [
     "chennai_t0"
    ],
    "style": "hatched",
    "crop": "crops/chennai_005.jpg",
    "area_m2": 456016,
    "overlap_frac": 0.025,
    "bbox_px": [
     3890.0,
     2550.0,
     3929.0,
     2566.0
    ],
    "point_px": [
     3912.9,
     2560.3
    ]
   }
  },
  {
   "type": "Feature",
   "geometry": {
    "type": "Polygon",
    "coordinates": [
     [
      [
       80.22794612794613,
       13.224748294900941
      ],
      [
       80.22693602693603,
       13.224423514127963
      ],
      [
       80.22659932659933,
       13.222474829490094
      ],
      [
       80.22491582491583,
       13.22150048717116
      ],
      [
       80.22525252525253,
       13.218577460214355
      ],
      [
       80.22457912457912,
       13.216953556349464
      ],
      [
       80.22222222222223,
       13.215004871711594
      ],
      [
       80.22121212121212,
       13.215004871711594
      ],
      [
       80.22121212121212,
       13.21208184475479
      ],
      [
       80.22424242424242,
       13.213705748619681
      ],
      [
       80.22558922558923,
       13.216303994803507
      ],
      [
       80.23299663299663,
       13.214680090938616
      ],
      [
       80.23232323232324,
       13.217278337122442
      ],
      [
       80.22962962962963,
       13.21760311789542
      ],
      [
       80.22794612794613,
       13.224748294900941
      ]
     ]
    ]
   },
   "properties": {
    "id": "chennai_006",
    "city": "chennai",
    "name_as_printed": null,
    "nearest_place_as_printed": "Perung\u0101v\u016br",
    "display_name": "Unnamed tank near Perung\u0101v\u016br",
    "status": "lost",
    "now_osm": null,
    "runs_found": [
     1,
     2,
     3
    ],
    "tiles": [
     "chennai_t0"
    ],
    "style": "hatched",
    "crop": "crops/chennai_006.jpg",
    "area_m2": 564816,
    "overlap_frac": 0.0,
    "bbox_px": [
     3899.0,
     2578.0,
     3934.0,
     2617.0
    ],
    "point_px": [
     3916.1,
     2599.2
    ]
   }
  },
  {
   "type": "Feature",
   "geometry": {
    "type": "Polygon",
    "coordinates": [
     [
      [
       80.24276094276094,
       13.21760311789542
      ],
      [
       80.23838383838384,
       13.2179278986684
      ],
      [
       80.23838383838384,
       13.210133160116921
      ],
      [
       80.23939393939393,
       13.210133160116921
      ],
      [
       80.23973063973064,
       13.211107502435857
      ],
      [
       80.24175084175084,
       13.21208184475479
      ],
      [
       80.24309764309764,
       13.216303994803507
      ],
      [
       80.24276094276094,
       13.21760311789542
      ]
     ]
    ]
   },
   "properties": {
    "id": "chennai_007",
    "city": "chennai",
    "name_as_printed": null,
    "nearest_place_as_printed": "Vichch\u016br",
    "display_name": "Unnamed tank near Vichch\u016br",
    "status": "lost",
    "now_osm": null,
    "runs_found": [
     1,
     2,
     3
    ],
    "tiles": [
     "chennai_t0"
    ],
    "style": "mixed",
    "crop": "crops/chennai_007.jpg",
    "area_m2": 325001,
    "overlap_frac": 0.0,
    "bbox_px": [
     3950.0,
     2599.0,
     3964.0,
     2623.0
    ],
    "point_px": [
     3955.8,
     2609.3
    ]
   }
  },
  {
   "type": "Feature",
   "geometry": {
    "type": "Polygon",
    "coordinates": [
     [
      [
       80.22929292929292,
       13.20656057161416
      ],
      [
       80.22659932659933,
       13.206235790841182
      ],
      [
       80.22659932659933,
       13.19941539460864
      ],
      [
       80.22424242424242,
       13.199090613835661
      ],
      [
       80.22356902356903,
       13.198116271516726
      ],
      [
       80.22390572390573,
       13.196817148424813
      ],
      [
       80.22558922558923,
       13.196817148424813
      ],
      [
       80.22626262626262,
       13.198441052289704
      ],
      [
       80.22794612794613,
       13.199090613835661
      ],
      [
       80.22828282828283,
       13.204611886976291
      ],
      [
       80.22929292929292,
       13.20493666774927
      ],
      [
       80.22929292929292,
       13.20656057161416
      ]
     ]
    ]
   },
   "properties": {
    "id": "chennai_008",
    "city": "chennai",
    "name_as_printed": null,
    "nearest_place_as_printed": "Kosapp\u016br",
    "display_name": "Unnamed tank near Kosapp\u016br",
    "status": "lost",
    "now_osm": null,
    "runs_found": [
     1,
     2,
     3
    ],
    "tiles": [
     "chennai_t0"
    ],
    "style": "hatched",
    "crop": "crops/chennai_008.jpg",
    "area_m2": 227383,
    "overlap_frac": 0.0,
    "bbox_px": [
     3906.0,
     2634.0,
     3923.0,
     2664.0
    ],
    "point_px": [
     3915.6,
     2649.2
    ]
   }
  },
  {
   "type": "Feature",
   "geometry": {
    "type": "Polygon",
    "coordinates": [
     [
      [
       80.14276094276094,
       13.199090613835661
      ],
      [
       80.14074074074074,
       13.196492367651835
      ],
      [
       80.14276094276094,
       13.19389412146801
      ],
      [
       80.14444444444445,
       13.193569340695031
      ],
      [
       80.14511784511785,
       13.199090613835661
      ],
      [
       80.14276094276094,
       13.199090613835661
      ]
     ]
    ]
   },
   "properties": {
    "id": "chennai_009",
    "city": "chennai",
    "name_as_printed": null,
    "nearest_place_as_printed": "Edap\u0101laiyam",
    "display_name": "Unnamed tank near Edap\u0101laiyam",
    "status": "lost",
    "now_osm": {
     "name": "coconut",
     "type": "farmland",
     "source": "OpenStreetMap"
    },
    "runs_found": [
     1,
     2,
     3
    ],
    "tiles": [
     "chennai_t0"
    ],
    "style": "hatched",
    "crop": "crops/chennai_009.jpg",
    "area_m2": 193320,
    "overlap_frac": 0.0,
    "bbox_px": [
     3660.0,
     2657.0,
     3673.0,
     2674.0
    ],
    "point_px": [
     3667.4,
     2664.9
    ]
   }
  },
  {
   "type": "Feature",
   "geometry": {
    "type": "Polygon",
    "coordinates": [
     [
      [
       80.13804713804714,
       13.18285157518675
      ],
      [
       80.13703703703703,
       13.180253329002923
      ],
      [
       80.13872053872053,
       13.177655082819097
      ],
      [
       80.14006734006735,
       13.17733030204612
      ],
      [
       80.14208754208754,
       13.178629425138032
      ],
      [
       80.14208754208754,
       13.179603767456966
      ],
      [
       80.13804713804714,
       13.18285157518675
      ]
     ]
    ]
   },
   "properties": {
    "id": "chennai_010",
    "city": "chennai",
    "name_as_printed": null,
    "nearest_place_as_printed": "Pottur",
    "display_name": "Unnamed tank near Pottur",
    "status": "lost",
    "now_osm": {
     "name": "Central Cattle Breeding Ground - CCBG Alamadhi",
     "type": "meadow",
     "source": "OpenStreetMap"
    },
    "runs_found": [
     1,
     2,
     3
    ],
    "tiles": [
     "chennai_t0"
    ],
    "style": "hatched",
    "crop": "crops/chennai_010.jpg",
    "area_m2": 188746,
    "overlap_frac": 0.0,
    "bbox_px": [
     3649.0,
     2707.0,
     3664.0,
     2724.0
    ],
    "point_px": [
     3656.1,
     2716.5
    ]
   }
  },
  {
   "type": "Feature",
   "geometry": {
    "type": "Polygon",
    "coordinates": [
     [
      [
       80.2,
       13.164663851899968
      ],
      [
       80.1993265993266,
       13.163039948035076
      ],
      [
       80.1969696969697,
       13.162065605716142
      ],
      [
       80.19730639730639,
       13.158168236440403
      ],
      [
       80.2013468013468,
       13.154270867164664
      ],
      [
       80.2013468013468,
       13.153296524845729
      ],
      [
       80.203367003367,
       13.153296524845729
      ],
      [
       80.20370370370371,
       13.157843455667425
      ],
      [
       80.2026936026936,
       13.158168236440403
      ],
      [
       80.2026936026936,
       13.159792140305294
      ],
      [
       80.2040404040404,
       13.161740824943163
      ],
      [
       80.203367003367,
       13.163039948035076
      ],
      [
       80.2013468013468,
       13.163039948035076
      ],
      [
       80.2010101010101,
       13.164339071126989
      ],
      [
       80.2,
       13.164663851899968
      ]
     ]
    ]
   },
   "properties": {
    "id": "chennai_011",
    "city": "chennai",
    "name_as_printed": null,
    "nearest_place_as_printed": "Madavaram",
    "display_name": "Unnamed tank near Madavaram",
    "status": "lost",
    "now_osm": {
     "name": "Puzhal Central Prison",
     "type": "prison",
     "source": "OpenStreetMap"
    },
    "runs_found": [
     1,
     2,
     3
    ],
    "tiles": [
     "chennai_t0"
    ],
    "style": "hatched",
    "crop": "crops/chennai_011.jpg",
    "area_m2": 591827,
    "overlap_frac": 0.0,
    "bbox_px": [
     3827.0,
     2763.0,
     3848.0,
     2798.0
    ],
    "point_px": [
     3838.1,
     2780.0
    ]
   }
  },
  {
   "type": "Feature",
   "geometry": {
    "type": "Polygon",
    "coordinates": [
     [
      [
       80.18047138047137,
       13.149074374797012
      ],
      [
       80.17946127946128,
       13.148749594024034
      ],
      [
       80.17777777777778,
       13.146151347840208
      ],
      [
       80.17542087542087,
       13.144852224748295
      ],
      [
       80.17070707070707,
       13.144852224748295
      ],
      [
       80.16936026936027,
       13.14582656706723
      ],
      [
       80.16936026936027,
       13.148424813251056
      ],
      [
       80.17171717171718,
       13.149074374797012
      ],
      [
       80.17205387205387,
       13.150373497888925
      ],
      [
       80.17138047138047,
       13.151023059434882
      ],
      [
       80.16801346801347,
       13.150373497888925
      ],
      [
       80.16767676767677,
       13.147775251705099
      ],
      [
       80.16599326599327,
       13.147125690159143
      ],
      [
       80.16565656565656,
       13.14582656706723
      ],
      [
       80.16363636363636,
       13.145177005521273
      ],
      [
       80.16329966329967,
       13.142578759337447
      ],
      [
       80.16127946127946,
       13.140954855472556
      ],
      [
       80.16262626262626,
       13.13868139006171
      ],
      [
       80.16599326599327,
       13.137057486196817
      ],
      [
       80.16599326599327,
       13.133809678467035
      ],
      [
       80.17373737373737,
       13.13478402078597
      ],
      [
       80.17575757575757,
       13.136407924650861
      ],
      [
       80.17542087542087,
       13.139330951607665
      ],
      [
       80.17676767676768,
       13.142253978564469
      ],
      [
       80.18013468013469,
       13.142903540110426
      ],
      [
       80.18047138047137,
       13.149074374797012
      ]
     ]
    ]
   },
   "properties": {
    "id": "chennai_012",
    "city": "chennai",
    "name_as_printed": null,
    "nearest_place_as_printed": "Oragadam",
    "display_name": "Unnamed tank near Oragadam",
    "status": "surviving",
    "now_osm": null,
    "runs_found": [
     1,
     2,
     3
    ],
    "tiles": [
     "chennai_t0"
    ],
    "style": "hatched",
    "crop": "crops/chennai_012.jpg",
    "area_m2": 1986032,
    "overlap_frac": 0.551,
    "bbox_px": [
     3721.0,
     2805.0,
     3778.0,
     2858.0
    ],
    "point_px": [
     3748.2,
     2834.2
    ]
   }
  },
  {
   "type": "Feature",
   "geometry": {
    "type": "Polygon",
    "coordinates": [
     [
      [
       80.23367003367004,
       13.154595647937642
      ],
      [
       80.23367003367004,
       13.14939915556999
      ],
      [
       80.23569023569024,
       13.147450470932121
      ],
      [
       80.23804713804714,
       13.147450470932121
      ],
      [
       80.24175084175084,
       13.150048717115947
      ],
      [
       80.24107744107744,
       13.152322182526795
      ],
      [
       80.23872053872054,
       13.153621305618707
      ],
      [
       80.23367003367004,
       13.154595647937642
      ]
     ]
    ]
   },
   "properties": {
    "id": "chennai_013",
    "city": "chennai",
    "name_as_printed": null,
    "nearest_place_as_printed": "Kodangiy\u016br",
    "display_name": "Unnamed tank near Kodangiy\u016br",
    "status": "lost",
    "now_osm": {
     "name": "Vettamani Lake",
     "type": "water",
     "source": "OpenStreetMap"
    },
    "runs_found": [
     1,
     2,
     3
    ],
    "tiles": [
     "chennai_t0"
    ],
    "style": "hatched",
    "crop": "crops/chennai_013.jpg",
    "area_m2": 507944,
    "overlap_frac": 0.054,
    "bbox_px": [
     3936.0,
     2794.0,
     3960.0,
     2816.0
    ],
    "point_px": [
     3946.4,
     2805.3
    ]
   }
  },
  {
   "type": "Feature",
   "geometry": {
    "type": "Polygon",
    "coordinates": [
     [
      [
       80.25656565656566,
       13.175056836635271
      ],
      [
       80.25622895622895,
       13.172783371224423
      ],
      [
       80.25521885521886,
       13.172133809678467
      ],
      [
       80.25555555555556,
       13.166937317310815
      ],
      [
       80.25656565656566,
       13.16628775576486
      ],
      [
       80.25589225589225,
       13.163364728808055
      ],
      [
       80.25757575757575,
       13.163364728808055
      ],
      [
       80.25791245791245,
       13.164014290354011
      ],
      [
       80.26026936026936,
       13.164339071126989
      ],
      [
       80.26195286195286,
       13.165962974991881
      ],
      [
       80.26228956228957,
       13.170185125040598
      ],
      [
       80.26060606060607,
       13.17180902890549
      ],
      [
       80.26026936026936,
       13.17343293277038
      ],
      [
       80.25892255892256,
       13.17343293277038
      ],
      [
       80.25757575757575,
       13.175056836635271
      ],
      [
       80.25656565656566,
       13.175056836635271
      ]
     ]
    ]
   },
   "properties": {
    "id": "chennai_014",
    "city": "chennai",
    "name_as_printed": null,
    "nearest_place_as_printed": "TIRUVOT",
    "display_name": "Unnamed tank near TIRUVOT",
    "status": "lost",
    "now_osm": {
     "name": "Thamarai POND",
     "type": "water",
     "source": "OpenStreetMap"
    },
    "runs_found": [
     1,
     2,
     3
    ],
    "tiles": [
     "chennai_t0"
    ],
    "style": "hatched",
    "crop": "crops/chennai_014.jpg",
    "area_m2": 692059,
    "overlap_frac": 0.009,
    "bbox_px": [
     4000.0,
     2731.0,
     4021.0,
     2767.0
    ],
    "point_px": [
     4009.8,
     2749.8
    ]
   }
  },
  {
   "type": "Feature",
   "geometry": {
    "type": "Polygon",
    "coordinates": [
     [
      [
       80.14175084175085,
       13.126664501461514
      ],
      [
       80.13838383838385,
       13.127638843780447
      ],
      [
       80.13535353535353,
       13.130561870737253
      ],
      [
       80.13400673400673,
       13.133809678467035
      ],
      [
       80.12962962962963,
       13.133809678467035
      ],
      [
       80.12929292929293,
       13.131860993829164
      ],
      [
       80.12289562289563,
       13.132510555375122
      ],
      [
       80.12222222222222,
       13.126989282234492
      ],
      [
       80.12121212121212,
       13.126664501461514
      ],
      [
       80.12121212121212,
       13.125365378369601
      ],
      [
       80.12020202020202,
       13.124391036050666
      ],
      [
       80.12020202020202,
       13.12179278986684
      ],
      [
       80.11919191919192,
       13.121143228320884
      ],
      [
       80.11919191919192,
       13.118544982137058
      ],
      [
       80.11717171717171,
       13.115621955180254
      ],
      [
       80.11919191919192,
       13.115621955180254
      ],
      [
       80.12121212121212,
       13.116596297499187
      ],
      [
       80.12188552188552,
       13.1178954205911
      ],
      [
       80.12558922558922,
       13.116596297499187
      ],
      [
       80.12592592592593,
       13.115621955180254
      ],
      [
       80.12693602693602,
       13.116596297499187
      ],
      [
       80.13636363636364,
       13.115621955180254
      ],
      [
       80.13636363636364,
       13.116921078272167
      ],
      [
       80.14006734006735,
       13.120168886001949
      ],
      [
       80.14141414141415,
       13.120493666774927
      ],
      [
       80.14074074074074,
       13.123091912958753
      ],
      [
       80.14175084175085,
       13.12374147450471
      ],
      [
       80.14175084175085,
       13.126664501461514
      ]
     ]
    ]
   },
   "properties": {
    "id": "chennai_015",
    "city": "chennai",
    "name_as_printed": null,
    "nearest_place_as_printed": "Ambatt\u016br",
    "display_name": "Unnamed tank near Ambatt\u016br",
    "status": "lost",
    "now_osm": {
     "name": "All India Radio Station",
     "type": "industrial",
     "source": "OpenStreetMap"
    },
    "runs_found": [
     1,
     2,
     3
    ],
    "tiles": [
     "chennai_t0"
    ],
    "style": "hatched",
    "crop": "crops/chennai_015.jpg",
    "area_m2": 3574525,
    "overlap_frac": 0.033,
    "bbox_px": [
     3590.0,
     2858.0,
     3663.0,
     2914.0
    ],
    "point_px": [
     3628.2,
     2888.5
    ]
   }
  },
  {
   "type": "Feature",
   "geometry": {
    "type": "Polygon",
    "coordinates": [
     [
      [
       80.24309764309764,
       13.186424163689509
      ],
      [
       80.24074074074075,
       13.186748944462488
      ],
      [
       80.23939393939393,
       13.185774602143553
      ],
      [
       80.23939393939393,
       13.18285157518675
      ],
      [
       80.23636363636363,
       13.177979863592075
      ],
      [
       80.23602693602693,
       13.175706398181228
      ],
      [
       80.23703703703704,
       13.175706398181228
      ],
      [
       80.24006734006734,
       13.178629425138032
      ],
      [
       80.24074074074075,
       13.181227671321858
      ],
      [
       80.24377104377105,
       13.18447547905164
      ],
      [
       80.24309764309764,
       13.186424163689509
      ]
     ]
    ]
   },
   "properties": {
    "id": "chennai_016",
    "city": "chennai",
    "name_as_printed": null,
    "nearest_place_as_printed": "M\u0101tt\u016br",
    "display_name": "Unnamed tank near M\u0101tt\u016br",
    "status": "lost",
    "now_osm": null,
    "runs_found": [
     1,
     2,
     3
    ],
    "tiles": [
     "chennai_t0"
    ],
    "style": "hatched",
    "crop": "crops/chennai_016.jpg",
    "area_m2": 385335,
    "overlap_frac": 0.0,
    "bbox_px": [
     3943.0,
     2695.0,
     3966.0,
     2729.0
    ],
    "point_px": [
     3954.5,
     2710.4
    ]
   }
  },
  {
   "type": "Feature",
   "geometry": {
    "type": "Polygon",
    "coordinates": [
     [
      [
       80.23905723905725,
       13.137382266969796
      ],
      [
       80.23905723905725,
       13.133484897694057
      ],
      [
       80.24006734006734,
       13.1328353361481
      ],
      [
       80.24107744107744,
       13.129587528418318
      ],
      [
       80.24713804713805,
       13.128613186099383
      ],
      [
       80.24949494949495,
       13.129912309191296
      ],
      [
       80.24949494949495,
       13.1328353361481
      ],
      [
       80.24478114478114,
       13.13478402078597
      ],
      [
       80.24141414141414,
       13.137057486196817
      ],
      [
       80.23905723905725,
       13.137382266969796
      ]
     ]
    ]
   },
   "properties": {
    "id": "chennai_017",
    "city": "chennai",
    "name_as_printed": null,
    "nearest_place_as_printed": "Kodangiyur",
    "display_name": "Unnamed tank near Kodangiyur",
    "status": "lost",
    "now_osm": null,
    "runs_found": [
     1,
     3
    ],
    "tiles": [
     "chennai_t0"
    ],
    "style": "hatched",
    "crop": "crops/chennai_017.jpg",
    "area_m2": 691508,
    "overlap_frac": 0.0,
    "bbox_px": [
     3952.0,
     2847.0,
     3983.0,
     2874.0
    ],
    "point_px": [
     3966.6,
     2861.9
    ]
   }
  },
  {
   "type": "Feature",
   "geometry": {
    "type": "Polygon",
    "coordinates": [
     [
      [
       80.27104377104376,
       13.208834037025008
      ],
      [
       80.27003367003367,
       13.207859694706073
      ],
      [
       80.27003367003367,
       13.20656057161416
      ],
      [
       80.27138047138047,
       13.205261448522247
      ],
      [
       80.27239057239058,
       13.20103929847353
      ],
      [
       80.27340067340067,
       13.199740175381617
      ],
      [
       80.27643097643097,
       13.198765833062684
      ],
      [
       80.27710437710438,
       13.200064956154595
      ],
      [
       80.27811447811447,
       13.200064956154595
      ],
      [
       80.27710437710438,
       13.20656057161416
      ],
      [
       80.27609427609427,
       13.20656057161416
      ],
      [
       80.27441077441077,
       13.20850925625203
      ],
      [
       80.27104377104376,
       13.208834037025008
      ]
     ]
    ]
   },
   "properties": {
    "id": "chennai_018",
    "city": "chennai",
    "name_as_printed": null,
    "nearest_place_as_printed": "Eranavur",
    "display_name": "Unnamed tank near Eranavur",
    "status": "lost",
    "now_osm": null,
    "runs_found": [
     1,
     2
    ],
    "tiles": [
     "chennai_t1"
    ],
    "style": "hatched",
    "crop": "crops/chennai_018.jpg",
    "area_m2": 615292,
    "overlap_frac": 0.0,
    "bbox_px": [
     4044.0,
     2627.0,
     4068.0,
     2658.0
    ],
    "point_px": [
     4056.7,
     2641.7
    ]
   }
  },
  {
   "type": "Feature",
   "geometry": {
    "type": "Polygon",
    "coordinates": [
     [
      [
       80.12861952861952,
       13.100682039623255
      ],
      [
       80.12760942760943,
       13.100682039623255
      ],
      [
       80.12693602693602,
       13.097759012666451
      ],
      [
       80.12356902356902,
       13.095160766482625
      ],
      [
       80.12188552188552,
       13.095160766482625
      ],
      [
       80.12087542087542,
       13.097759012666451
      ],
      [
       80.11952861952862,
       13.097759012666451
      ],
      [
       80.11885521885522,
       13.09581032802858
      ],
      [
       80.12053872053872,
       13.095160766482625
      ],
      [
       80.12087542087542,
       13.092562520298799
      ],
      [
       80.12289562289563,
       13.091588177979864
      ],
      [
       80.12356902356902,
       13.08866515102306
      ],
      [
       80.12491582491583,
       13.08866515102306
      ],
      [
       80.12794612794613,
       13.092562520298799
      ],
      [
       80.12861952861952,
       13.094511204936667
      ],
      [
       80.12861952861952,
       13.100682039623255
      ]
     ]
    ]
   },
   "properties": {
    "id": "chennai_019",
    "city": "chennai",
    "name_as_printed": null,
    "nearest_place_as_printed": "verkadu",
    "display_name": "Unnamed tank near verkadu",
    "status": "lost",
    "now_osm": {
     "name": "Ayapakkam Lake",
     "type": "water",
     "source": "OpenStreetMap"
    },
    "runs_found": [
     1,
     2,
     3
    ],
    "tiles": [
     "chennai_t2"
    ],
    "style": "hatched",
    "crop": "crops/chennai_019.jpg",
    "area_m2": 620192,
    "overlap_frac": 0.099,
    "bbox_px": [
     3595.0,
     2960.0,
     3624.0,
     2997.0
    ],
    "point_px": [
     3612.6,
     2980.0
    ]
   }
  },
  {
   "type": "Feature",
   "geometry": {
    "type": "Polygon",
    "coordinates": [
     [
      [
       80.18181818181819,
       13.113023708996428
      ],
      [
       80.18047138047137,
       13.113023708996428
      ],
      [
       80.18080808080808,
       13.110100682039624
      ],
      [
       80.17979797979798,
       13.107827216628776
      ],
      [
       80.17979797979798,
       13.103605066580059
      ],
      [
       80.18114478114478,
       13.103605066580059
      ],
      [
       80.18181818181819,
       13.104904189671972
      ],
      [
       80.18181818181819,
       13.113023708996428
      ]
     ]
    ]
   },
   "properties": {
    "id": "chennai_020",
    "city": "chennai",
    "name_as_printed": null,
    "nearest_place_as_printed": "Mogappair",
    "display_name": "Unnamed tank near Mogappair",
    "status": "lost",
    "now_osm": {
     "name": "Korattur Ground",
     "type": "pitch",
     "source": "OpenStreetMap"
    },
    "runs_found": [
     1,
     2,
     3
    ],
    "tiles": [
     "chennai_t2"
    ],
    "style": "hatched",
    "crop": "crops/chennai_020.jpg",
    "area_m2": 179618,
    "overlap_frac": 0.0,
    "bbox_px": [
     3776.0,
     2922.0,
     3782.0,
     2951.0
    ],
    "point_px": [
     3779.4,
     2938.0
    ]
   }
  },
  {
   "type": "Feature",
   "geometry": {
    "type": "Polygon",
    "coordinates": [
     [
      [
       80.16195286195286,
       13.091263397206886
      ],
      [
       80.16060606060606,
       13.09028905488795
      ],
      [
       80.15723905723905,
       13.09028905488795
      ],
      [
       80.15757575757576,
       13.093861643390712
      ],
      [
       80.15622895622896,
       13.09581032802858
      ],
      [
       80.15454545454546,
       13.09581032802858
      ],
      [
       80.15420875420875,
       13.094511204936667
      ],
      [
       80.15589225589225,
       13.093536862617732
      ],
      [
       80.15555555555555,
       13.089964274114973
      ],
      [
       80.15252525252525,
       13.087690808704124
      ],
      [
       80.15050505050505,
       13.087690808704124
      ],
      [
       80.15050505050505,
       13.086066904839234
      ],
      [
       80.15723905723905,
       13.087041247158169
      ],
      [
       80.15791245791246,
       13.088015589477102
      ],
      [
       80.16195286195286,
       13.08866515102306
      ],
      [
       80.16195286195286,
       13.091263397206886
      ]
     ]
    ]
   },
   "properties": {
    "id": "chennai_021",
    "city": "chennai",
    "name_as_printed": null,
    "nearest_place_as_printed": "Nolambur",
    "display_name": "Unnamed tank near Nolambur",
    "status": "lost",
    "now_osm": {
     "name": "AMBIT PARK",
     "type": "industrial",
     "source": "OpenStreetMap"
    },
    "runs_found": [
     1,
     2,
     3
    ],
    "tiles": [
     "chennai_t2"
    ],
    "style": "hatched",
    "crop": "crops/chennai_021.jpg",
    "area_m2": 437937,
    "overlap_frac": 0.017,
    "bbox_px": [
     3689.0,
     2975.0,
     3723.0,
     3005.0
    ],
    "point_px": [
     3706.6,
     2993.2
    ]
   }
  },
  {
   "type": "Feature",
   "geometry": {
    "type": "Polygon",
    "coordinates": [
     [
      [
       80.15757575757576,
       13.078596947060735
      ],
      [
       80.15454545454546,
       13.078921727833713
      ],
      [
       80.15353535353535,
       13.077947385514777
      ],
      [
       80.15286195286195,
       13.067229620006495
      ],
      [
       80.15387205387205,
       13.065605716141604
      ],
      [
       80.15521885521885,
       13.066904839233517
      ],
      [
       80.15656565656566,
       13.07372523546606
      ],
      [
       80.15622895622896,
       13.076973043195842
      ],
      [
       80.15757575757576,
       13.0776226047418
      ],
      [
       80.15757575757576,
       13.078596947060735
      ]
     ]
    ]
   },
   "properties": {
    "id": "chennai_022",
    "city": "chennai",
    "name_as_printed": null,
    "nearest_place_as_printed": "Mettukuppam",
    "display_name": "Unnamed tank near Mettukuppam",
    "status": "lost",
    "now_osm": {
     "name": "P.M.R Engineering College",
     "type": "education",
     "source": "OpenStreetMap"
    },
    "runs_found": [
     1,
     2,
     3
    ],
    "tiles": [
     "chennai_t2"
    ],
    "style": "hatched",
    "crop": "crops/chennai_022.jpg",
    "area_m2": 443868,
    "overlap_frac": 0.0,
    "bbox_px": [
     3696.0,
     3027.0,
     3710.0,
     3068.0
    ],
    "point_px": [
     3701.6,
     3045.5
    ]
   }
  },
  {
   "type": "Feature",
   "geometry": {
    "type": "Polygon",
    "coordinates": [
     [
      [
       80.17710437710437,
       13.073400454693083
      ],
      [
       80.17575757575757,
       13.071126989282234
      ],
      [
       80.17811447811448,
       13.068853523871386
      ],
      [
       80.17946127946128,
       13.068528743098408
      ],
      [
       80.17979797979798,
       13.067229620006495
      ],
      [
       80.18080808080808,
       13.067229620006495
      ],
      [
       80.18080808080808,
       13.068528743098408
      ],
      [
       80.17878787878787,
       13.071451770055212
      ],
      [
       80.17878787878787,
       13.073075673920105
      ],
      [
       80.17710437710437,
       13.073400454693083
      ]
     ]
    ]
   },
   "properties": {
    "id": "chennai_023",
    "city": "chennai",
    "name_as_printed": null,
    "nearest_place_as_printed": "Mettukuppam",
    "display_name": "Unnamed tank near Mettukuppam",
    "status": "surviving",
    "now_osm": null,
    "runs_found": [
     1,
     2,
     3
    ],
    "tiles": [
     "chennai_t2"
    ],
    "style": "hatched",
    "crop": "crops/chennai_023.jpg",
    "area_m2": 165221,
    "overlap_frac": 0.233,
    "bbox_px": [
     3764.0,
     3044.0,
     3779.0,
     3063.0
    ],
    "point_px": [
     3771.6,
     3052.9
    ]
   }
  },
  {
   "type": "Feature",
   "geometry": {
    "type": "Polygon",
    "coordinates": [
     [
      [
       80.13434343434344,
       13.063981812276714
      ],
      [
       80.13367003367003,
       13.059434881455019
      ],
      [
       80.13670033670034,
       13.057486196817148
      ],
      [
       80.13636363636364,
       13.054563169860344
      ],
      [
       80.13804713804714,
       13.054563169860344
      ],
      [
       80.13737373737374,
       13.056836635271193
      ],
      [
       80.13804713804714,
       13.058785319909061
      ],
      [
       80.13737373737374,
       13.063981812276714
      ],
      [
       80.13434343434344,
       13.063981812276714
      ]
     ]
    ]
   },
   "properties": {
    "id": "chennai_024",
    "city": "chennai",
    "name_as_printed": null,
    "nearest_place_as_printed": "aikalapettai",
    "display_name": "Unnamed tank near aikalapettai",
    "status": "lost",
    "now_osm": {
     "name": "Dr. Mehta's Hospitals - Global Campus",
     "type": "hospital",
     "source": "OpenStreetMap"
    },
    "runs_found": [
     1,
     2,
     3
    ],
    "tiles": [
     "chennai_t2"
    ],
    "style": "hatched",
    "crop": "crops/chennai_024.jpg",
    "area_m2": 302268,
    "overlap_frac": 0.041,
    "bbox_px": [
     3639.0,
     3073.0,
     3652.0,
     3102.0
    ],
    "point_px": [
     3646.3,
     3084.6
    ]
   }
  },
  {
   "type": "Feature",
   "geometry": {
    "type": "Polygon",
    "coordinates": [
     [
      [
       80.193265993266,
       13.065280935368627
      ],
      [
       80.1915824915825,
       13.064956154595649
      ],
      [
       80.1919191919192,
       13.05716141604417
      ],
      [
       80.18922558922559,
       13.056187073725235
      ],
      [
       80.18653198653199,
       13.054238389087367
      ],
      [
       80.18653198653199,
       13.053264046768431
      ],
      [
       80.19090909090909,
       13.05358882754141
      ],
      [
       80.19292929292929,
       13.05553751217928
      ],
      [
       80.193265993266,
       13.057486196817148
      ],
      [
       80.19427609427609,
       13.058460539136084
      ],
      [
       80.19393939393939,
       13.064306593049691
      ],
      [
       80.193265993266,
       13.065280935368627
      ]
     ]
    ]
   },
   "properties": {
    "id": "chennai_025",
    "city": "chennai",
    "name_as_printed": null,
    "nearest_place_as_printed": "Nesapakkam",
    "display_name": "Unnamed tank near Nesapakkam",
    "status": "lost",
    "now_osm": {
     "name": "AIS Complex",
     "type": "apartments",
     "source": "OpenStreetMap"
    },
    "runs_found": [
     1,
     2,
     3
    ],
    "tiles": [
     "chennai_t2"
    ],
    "style": "hatched",
    "crop": "crops/chennai_025.jpg",
    "area_m2": 396678,
    "overlap_frac": 0.0,
    "bbox_px": [
     3796.0,
     3069.0,
     3819.0,
     3106.0
    ],
    "point_px": [
     3811.0,
     3090.2
    ]
   }
  },
  {
   "type": "Feature",
   "geometry": {
    "type": "Polygon",
    "coordinates": [
     [
      [
       80.22794612794613,
       13.039948035076323
      ],
      [
       80.22760942760942,
       13.03897369275739
      ],
      [
       80.22962962962963,
       13.038324131211432
      ],
      [
       80.22962962962963,
       13.033452419616758
      ],
      [
       80.23030303030303,
       13.032153296524847
      ],
      [
       80.23265993265993,
       13.032478077297824
      ],
      [
       80.23367003367004,
       13.037349788892497
      ],
      [
       80.23063973063974,
       13.039623254303345
      ],
      [
       80.22794612794613,
       13.039948035076323
      ]
     ]
    ]
   },
   "properties": {
    "id": "chennai_026",
    "city": "chennai",
    "name_as_printed": null,
    "nearest_place_as_printed": "ALANDUR",
    "display_name": "Unnamed tank near ALANDUR",
    "status": "lost",
    "now_osm": {
     "name": "Ranganathan Street",
     "type": "retail",
     "source": "OpenStreetMap"
    },
    "runs_found": [
     1,
     2,
     3
    ],
    "tiles": [
     "chennai_t2"
    ],
    "style": "hatched",
    "crop": "crops/chennai_026.jpg",
    "area_m2": 305562,
    "overlap_frac": 0.0,
    "bbox_px": [
     3918.0,
     3147.0,
     3936.0,
     3171.0
    ],
    "point_px": [
     3928.3,
     3158.8
    ]
   }
  }
 ]
}