{
 "type": "FeatureCollection",
 "features": [
  {
   "type": "Feature",
   "geometry": {
    "type": "Polygon",
    "coordinates": [
     [
      [
       77.5717145072418,
       13.014243685565061
      ],
      [
       77.5716410552626,
       13.014135862901389
      ],
      [
       77.57171584827508,
       13.013667531950958
      ],
      [
       77.57271386180943,
       13.01236840344311
      ],
      [
       77.57293622929691,
       13.011827641012976
      ],
      [
       77.57293765414478,
       13.01121547779799
      ],
      [
       77.57253362635198,
       13.010640457948227
      ],
      [
       77.57234961923841,
       13.010532944493011
      ],
      [
       77.57238705765194,
       13.010280774217355
      ],
      [
       77.57253454831236,
       13.010244352338532
      ],
      [
       77.5727562452832,
       13.009991666715447
      ],
      [
       77.57275699961443,
       13.009667580307513
      ],
      [
       77.57264669592377,
       13.009559860713326
      ],
      [
       77.57194676484974,
       13.009453790230909
      ],
      [
       77.57146752497158,
       13.009527149335986
      ],
      [
       77.57146894981945,
       13.008914986121
      ],
      [
       77.57157950495383,
       13.008914676912543
      ],
      [
       77.57191192468821,
       13.008589662879238
      ],
      [
       77.57198696914442,
       13.008013303126162
      ],
      [
       77.57217122770173,
       13.008012787778735
      ],
      [
       77.57224426060802,
       13.008300658446814
      ],
      [
       77.5732395920758,
       13.008153837167177
      ],
      [
       77.57408718143942,
       13.008151466569009
      ],
      [
       77.57412436840919,
       13.008007325095996
      ],
      [
       77.57445603381235,
       13.008006397470625
      ],
      [
       77.5744925502655,
       13.008150332804664
      ],
      [
       77.57515579725722,
       13.008184487154805
      ],
      [
       77.57592976701251,
       13.008146313094725
      ],
      [
       77.57596695398229,
       13.008002171621712
      ],
      [
       77.57806750153561,
       13.007996296661032
      ],
      [
       77.57806691483354,
       13.008248363867203
      ],
      [
       77.57784580456477,
       13.008248982284115
      ],
      [
       77.57769789483143,
       13.008465452167348
      ],
      [
       77.57721840350953,
       13.008646840075068
      ],
      [
       77.57688606758973,
       13.00893584450749
      ],
      [
       77.57684821010331,
       13.009368062787555
      ],
      [
       77.57662626168874,
       13.009728777213283
      ],
      [
       77.57636779682102,
       13.009945556304972
      ],
      [
       77.57610975102622,
       13.009982287392253
      ],
      [
       77.5759988606335,
       13.010126635004235
      ],
      [
       77.57515068456783,
       13.010381072808578
      ],
      [
       77.57492907141156,
       13.01059774883078
      ],
      [
       77.57481767813138,
       13.010958154048053
      ],
      [
       77.57477948538663,
       13.011534410731642
      ],
      [
       77.57485251829291,
       13.011822281399722
      ],
      [
       77.57503610633357,
       13.012109842859346
      ],
      [
       77.5752937330555,
       13.012253159776472
      ],
      [
       77.5753671012201,
       13.012396992041026
      ],
      [
       77.57639752429314,
       13.013006269310415
      ],
      [
       77.5766178802307,
       13.013329737301435
      ],
      [
       77.57669024262033,
       13.013905684776567
      ],
      [
       77.57646879709326,
       13.014050341597006
      ],
      [
       77.57624777063906,
       13.014014950413038
      ],
      [
       77.57599073061921,
       13.013619566289742
      ],
      [
       77.57584340758794,
       13.013583968966802
      ],
      [
       77.57584382666086,
       13.013403920962395
      ],
      [
       77.5755859484952,
       13.013368632847913
      ],
      [
       77.57554842626709,
       13.013656812724452
      ],
      [
       77.57569574929836,
       13.01369241004739
      ],
      [
       77.57573125997654,
       13.014268460592008
      ],
      [
       77.57565738892445,
       13.014340685932744
      ],
      [
       77.57536257523276,
       13.014341510488627
      ],
      [
       77.57525218772753,
       13.014269800495322
      ],
      [
       77.57514272218269,
       13.01380198489232
      ],
      [
       77.57470268082423,
       13.012866972103229
      ],
      [
       77.57429865303143,
       13.012291952253467
      ],
      [
       77.57400383933974,
       13.012292776809351
      ],
      [
       77.57385559434809,
       13.012653285096109
      ],
      [
       77.57385324753984,
       13.013661553920791
      ],
      [
       77.57374235714715,
       13.013805901532773
      ],
      [
       77.57326320108356,
       13.013843251036969
      ],
      [
       77.573262111494,
       13.014311375848427
      ],
      [
       77.57315088584299,
       13.014599761863938
      ],
      [
       77.57289292386277,
       13.014600483350337
      ],
      [
       77.57274585227523,
       13.014456857224753
      ],
      [
       77.57271076066996,
       13.013700758675727
      ],
      [
       77.57263722487619,
       13.013628945612936
      ],
      [
       77.57241611460742,
       13.01362956402985
      ],
      [
       77.57193561751055,
       13.014243067148149
      ],
      [
       77.5717145072418,
       13.014243685565061
      ]
     ]
    ]
   },
   "properties": {
    "id": "P01",
    "sheet": "plan_25k",
    "printed_name": null,
    "style": "mixed",
    "centroid_px": [
     1994.5,
     833.2
    ],
    "area_px": 15396,
    "area_m2_approx": 246344,
    "centroid_lonlat": [
     77.574283,
     13.010664
    ],
    "label_bbox_px": null,
    "mod_match": {
     "name": "Sankey Kere",
     "layer": "existing",
     "overlap": 0.81,
     "last_mapped": null,
     "current_use": null,
     "status": "Developed Lake"
    }
   }
  },
  {
   "type": "Feature",
   "geometry": {
    "type": "Polygon",
    "coordinates": [
     [
      [
       77.55446818442533,
       12.998339771963321
      ],
      [
       77.55424849900443,
       12.99772822716525
      ],
      [
       77.55421307214083,
       12.99711616701975
      ],
      [
       77.55428727845124,
       12.99689990327549
      ],
      [
       77.55458242740124,
       12.996755040316078
      ],
      [
       77.55506149965026,
       12.996753700412764
      ],
      [
       77.55506233779606,
       12.99639360440395
      ],
      [
       77.55491543383769,
       12.996177959076606
      ],
      [
       77.55491585291058,
       12.995997911072198
      ],
      [
       77.55797454496191,
       12.99598935630489
      ],
      [
       77.55797362300153,
       12.996385461914585
      ],
      [
       77.55775242891818,
       12.99642208993238
      ],
      [
       77.55764044893593,
       12.997034562355823
      ],
      [
       77.55727075841719,
       12.997539727463021
      ],
      [
       77.55715794028914,
       12.99851229589528
      ],
      [
       77.55653129356513,
       12.998586067278298
      ],
      [
       77.55645691962556,
       12.99887435022432
      ],
      [
       77.55590414395363,
       12.998875896266606
      ],
      [
       77.55579417552131,
       12.998624138268893
      ],
      [
       77.55575849721397,
       12.998120106926036
      ],
      [
       77.5555373869452,
       12.99812072534295
      ],
      [
       77.55535279312957,
       12.998265279093904
      ],
      [
       77.55531501945772,
       12.998661487773084
      ],
      [
       77.55516744498271,
       12.998733919252793
      ],
      [
       77.55476232760039,
       12.998627024214489
      ],
      [
       77.55446818442533,
       12.998339771963321
      ]
     ]
    ]
   },
   "properties": {
    "id": "P02",
    "sheet": "plan_25k",
    "printed_name": null,
    "style": "mixed",
    "centroid_px": [
     1498.0,
     1206.2
    ],
    "area_px": 5811,
    "area_m2_approx": 92976,
    "centroid_lonlat": [
     77.556019,
     12.997283
    ],
    "label_bbox_px": null,
    "mod_match": {
     "name": "Agasana Tank",
     "layer": "lost",
     "overlap": 0.9,
     "last_mapped": "1897",
     "current_use": "Mariyappna Palya Park",
     "status": null
    }
   }
  },
  {
   "type": "Feature",
   "geometry": {
    "type": "Polygon",
    "coordinates": [
     [
      [
       77.56992816125211,
       12.990086396847856
      ],
      [
       77.5699286641396,
       12.989870339242566
      ],
      [
       77.56967078597394,
       12.989835051128084
      ],
      [
       77.56967690443831,
       12.987206350263735
      ],
      [
       77.56975060786124,
       12.987206144124764
      ],
      [
       77.56978712431437,
       12.987350079458803
      ],
      [
       77.57004517010918,
       12.987313348371522
      ],
      [
       77.57015740153518,
       12.986592847145436
      ],
      [
       77.57026845955704,
       12.98637648033169
      ],
      [
       77.57026946533202,
       12.985944365121114
      ],
      [
       77.57012214230075,
       12.985908767798174
      ],
      [
       77.57012264518823,
       12.985692710192886
      ],
      [
       77.57038069098303,
       12.985655979105605
      ],
      [
       77.57041720743618,
       12.985799914439644
      ],
      [
       77.57067516941642,
       12.985799192953245
      ],
      [
       77.57093262850917,
       12.986014529072134
      ],
      [
       77.57122719075711,
       12.986121733318894
      ],
      [
       77.57133715918943,
       12.986373491316607
      ],
      [
       77.5713364886728,
       12.98666156812366
      ],
      [
       77.57148381170406,
       12.986697165446598
      ],
      [
       77.57147651983557,
       12.98983000072329
      ],
      [
       77.57136596470119,
       12.989830309931746
      ],
      [
       77.57125591245429,
       12.989614561534914
      ],
      [
       77.57103496981466,
       12.989543160750063
      ],
      [
       77.57096168546465,
       12.989363318884628
      ],
      [
       77.57074057519588,
       12.989363937301542
      ],
      [
       77.57033487111148,
       12.98950910946941
      ],
      [
       77.57003930308856,
       12.989834020433229
      ],
      [
       77.57003871638649,
       12.990086087639398
      ],
      [
       77.56992816125211,
       12.990086396847856
      ]
     ]
    ]
   },
   "properties": {
    "id": "P03",
    "sheet": "plan_25k",
    "printed_name": null,
    "style": "hatched",
    "centroid_px": [
     1893.4,
     1464.6
    ],
    "area_px": 4460,
    "area_m2_approx": 71360,
    "centroid_lonlat": [
     77.570611,
     12.987937
    ],
    "label_bbox_px": null,
    "mod_match": {
     "name": "Jakraya lake",
     "layer": "lost",
     "overlap": 0.68,
     "last_mapped": "1870",
     "current_use": "Krishna Flour Mills",
     "status": null
    }
   }
  },
  {
   "type": "Feature",
   "geometry": {
    "type": "Polygon",
    "coordinates": [
     [
      [
       77.574351261884,
       13.005522044218257
      ],
      [
       77.57394673120375,
       13.005163081973786
      ],
      [
       77.57383617606936,
       13.005163391182244
      ],
      [
       77.57383709802974,
       13.004767285572546
      ],
      [
       77.5740215242162,
       13.004694751023354
      ],
      [
       77.57413266605266,
       13.004442374608727
      ],
      [
       77.57420636947558,
       13.004442168469756
      ],
      [
       77.57435251910272,
       13.004981900205035
      ],
      [
       77.57460972675173,
       13.00530526512657
      ],
      [
       77.57457262359652,
       13.0054133969987
      ],
      [
       77.574351261884,
       13.005522044218257
      ]
     ]
    ]
   },
   "properties": {
    "id": "P04",
    "sheet": "plan_25k",
    "printed_name": null,
    "style": "solid",
    "centroid_px": [
     1991.5,
     989.6
    ],
    "area_px": 314,
    "area_m2_approx": 5032,
    "centroid_lonlat": [
     77.574186,
     13.005033
    ],
    "label_bbox_px": null,
    "mod_match": null
   }
  },
  {
   "type": "Feature",
   "geometry": {
    "type": "Polygon",
    "coordinates": [
     [
      [
       77.5707981291087,
       12.980469462814325
      ],
      [
       77.570798464367,
       12.980325424410799
      ],
      [
       77.57046780473883,
       12.979894236825592
      ],
      [
       77.57035976404185,
       12.978814258007604
      ],
      [
       77.57021244101058,
       12.978778660684664
      ],
      [
       77.57021277626889,
       12.978634622281138
      ],
      [
       77.57036026692933,
       12.978598200402315
      ],
      [
       77.57036102126054,
       12.978274113994381
      ],
      [
       77.5702136982293,
       12.978238516671443
      ],
      [
       77.57022191205816,
       12.974709575785054
      ],
      [
       77.57409134176164,
       12.974698753489063
      ],
      [
       77.57408530711186,
       12.977291444752531
      ],
      [
       77.57397475197747,
       12.977291753960989
      ],
      [
       77.57367884869623,
       12.977760703328332
      ],
      [
       77.57345740316914,
       12.977905360148773
      ],
      [
       77.5730134225254,
       12.978662798601112
      ],
      [
       77.57253326068687,
       12.979132263315886
      ],
      [
       77.57208928004314,
       12.979889701768224
      ],
      [
       77.57168315688583,
       12.9802149219405
      ],
      [
       77.5716457184723,
       12.980467092216156
      ],
      [
       77.5707981291087,
       12.980469462814325
      ]
     ]
    ]
   },
   "properties": {
    "id": "P05",
    "sheet": "plan_25k",
    "printed_name": "Dharm\u0101mbudhi Tank",
    "style": "hatched",
    "centroid_px": [
     1929.0,
     1765.4
    ],
    "area_px": 13298,
    "area_m2_approx": 212760,
    "centroid_lonlat": [
     77.571949,
     12.977105
    ],
    "label_bbox_px": [
     1872,
     1638,
     1992,
     1686
    ],
    "mod_match": {
     "name": "Dharmambudh Tank",
     "layer": "lost",
     "overlap": 0.69,
     "last_mapped": "1870",
     "current_use": "Majestic Bus Stand",
     "status": null
    }
   }
  },
  {
   "type": "Feature",
   "geometry": {
    "type": "Polygon",
    "coordinates": [
     [
      [
       77.61662590102597,
       12.987111049339912
      ],
      [
       77.61658938457283,
       12.986967114005871
      ],
      [
       77.61673679141869,
       12.986966701727928
      ],
      [
       77.61681083009992,
       12.986822457185431
      ],
      [
       77.61710589523535,
       12.986713603826901
      ],
      [
       77.61769543880418,
       12.986747964316011
      ],
      [
       77.61806412354795,
       12.986674914419392
      ],
      [
       77.61839528606363,
       12.98689004439931
      ],
      [
       77.61876380317824,
       12.986889013704454
      ],
      [
       77.61880099014802,
       12.986744872231442
      ],
      [
       77.61975921846062,
       12.986706182823934
      ],
      [
       77.6197968245033,
       12.986381993346516
      ],
      [
       77.61987052792622,
       12.986381787207543
      ],
      [
       77.61994372846166,
       12.986597638673862
      ],
      [
       77.62101217665031,
       12.986702678461421
      ],
      [
       77.62127080914719,
       12.986413880167971
      ],
      [
       77.62119802768464,
       12.986017980697246
      ],
      [
       77.62057272199392,
       12.985515598466161
      ],
      [
       77.61972496500114,
       12.985589988266094
      ],
      [
       77.61965017198868,
       12.986058319216523
      ],
      [
       77.61957646856575,
       12.986058525355496
      ],
      [
       77.6194670030209,
       12.985590709752493
      ],
      [
       77.61928282827819,
       12.985555215499039
      ],
      [
       77.61803263596963,
       12.984370403032461
      ],
      [
       77.61773874423832,
       12.983975121978652
      ],
      [
       77.61611961574225,
       12.982971388211338
      ],
      [
       77.61593594388701,
       12.982719836352594
      ],
      [
       77.61590001413592,
       12.982323833812382
      ],
      [
       77.61575269110467,
       12.982288236489445
      ],
      [
       77.61575386450879,
       12.981784102077105
      ],
      [
       77.61590135516921,
       12.981747680198279
      ],
      [
       77.6159018580567,
       12.981531622592989
      ],
      [
       77.61608611661401,
       12.981531107245562
      ],
      [
       77.61649207214214,
       12.98127790627505
      ],
      [
       77.61664040094838,
       12.980881388387411
      ],
      [
       77.61700875043384,
       12.980952376894319
      ],
      [
       77.61789361058182,
       12.980769855222253
      ],
      [
       77.61829964992454,
       12.98048064465086
      ],
      [
       77.6183740238641,
       12.980192361704837
      ],
      [
       77.61863265636097,
       12.979903563411387
      ],
      [
       77.61874396582658,
       12.979579167794995
      ],
      [
       77.61911357253076,
       12.97911001228868
      ],
      [
       77.61922496581094,
       12.978749607071407
      ],
      [
       77.61948359830782,
       12.978460808777957
      ],
      [
       77.61992824946819,
       12.977415293518565
      ],
      [
       77.62033420499633,
       12.977162092548053
      ],
      [
       77.62037155959527,
       12.976945931873278
      ],
      [
       77.62062952157551,
       12.976945210386878
      ],
      [
       77.62066603802865,
       12.977089145720917
      ],
      [
       77.62088714829741,
       12.977088527304003
      ],
      [
       77.6209243352672,
       12.976944385830992
      ],
      [
       77.62103489040157,
       12.976944076622535
      ],
      [
       77.62107090396724,
       12.977304069561866
      ],
      [
       77.62121797555477,
       12.977447695687449
      ],
      [
       77.62125432437875,
       12.977663650223253
      ],
      [
       77.62103329792455,
       12.977628259039284
      ],
      [
       77.62096009738912,
       12.977412407572967
      ],
      [
       77.62062834817138,
       12.97744934479922
      ],
      [
       77.62069987241522,
       12.978385388283167
      ],
      [
       77.62088346045589,
       12.978672949742789
      ],
      [
       77.62106763519861,
       12.978708443996243
      ],
      [
       77.62106738375486,
       12.978816472798888
      ],
      [
       77.62092014453819,
       12.978744865875067
      ],
      [
       77.62066209874337,
       12.978781596962348
      ],
      [
       77.62062365455489,
       12.979465882448585
      ],
      [
       77.62073337154345,
       12.979825669248942
      ],
      [
       77.62110146958517,
       12.980004686558493
      ],
      [
       77.62117425104772,
       12.980400586029218
      ],
      [
       77.62139536131649,
       12.980399967612303
      ],
      [
       77.62150650315294,
       12.980147591197674
      ],
      [
       77.62169084552482,
       12.980111066249366
      ],
      [
       77.6218369113374,
       12.980686807585528
      ],
      [
       77.62205777016241,
       12.980794217971258
      ],
      [
       77.62224135820308,
       12.981081779430884
      ],
      [
       77.62257302360624,
       12.981080851805512
      ],
      [
       77.6226832434823,
       12.98122458100058
      ],
      [
       77.62279379861668,
       12.981224271792124
      ],
      [
       77.62278902118561,
       12.983276819042368
      ],
      [
       77.62238365235953,
       12.983277952806711
      ],
      [
       77.62223507210955,
       12.983782499496996
      ],
      [
       77.62223297674504,
       12.984682739519034
      ],
      [
       77.62234219084615,
       12.985258583924681
      ],
      [
       77.6226370883524,
       12.985221749767913
      ],
      [
       77.62271196517946,
       12.984717409216602
      ],
      [
       77.62263834557112,
       12.98468160575469
      ],
      [
       77.62267620305755,
       12.984249387474627
      ],
      [
       77.62278675819195,
       12.984249078266169
      ],
      [
       77.6227834894233,
       12.985653452700548
      ],
      [
       77.62271020507329,
       12.985473610835113
      ],
      [
       77.62248909480451,
       12.985474229252025
      ],
      [
       77.62234126888576,
       12.985654689534377
      ],
      [
       77.62241388271914,
       12.986122608206864
      ],
      [
       77.62267184469938,
       12.986121886720465
      ],
      [
       77.6227826512775,
       12.986013548709364
      ],
      [
       77.62277913106513,
       12.987525951946386
      ],
      [
       77.62263172421927,
       12.987526364224328
      ],
      [
       77.6225945372495,
       12.987670505697341
      ],
      [
       77.62078880338787,
       12.987675556102136
      ],
      [
       77.62075228693472,
       12.987531620768095
      ],
      [
       77.62012589165447,
       12.98749736334847
      ],
      [
       77.62008862087009,
       12.987677514422366
      ],
      [
       77.61983065888985,
       12.987678235908763
      ],
      [
       77.61979439388045,
       12.98742627177208
      ],
      [
       77.61931532163148,
       12.987427611675393
      ],
      [
       77.61938936031271,
       12.987283367132894
      ],
      [
       77.61935309530331,
       12.98703140299621
      ],
      [
       77.6189478102918,
       12.98699652715967
      ],
      [
       77.61891012043453,
       12.987356726237971
      ],
      [
       77.61898348859916,
       12.987500558502527
      ],
      [
       77.61883599793873,
       12.98753698038135
      ],
      [
       77.6188356626804,
       12.987681018784876
      ],
      [
       77.61850399727723,
       12.987681946410246
      ],
      [
       77.61850424872098,
       12.987573917607602
      ],
      [
       77.61861497148453,
       12.987501589197384
      ],
      [
       77.618615474372,
       12.987285531592095
      ],
      [
       77.61846840278449,
       12.98714190546651
      ],
      [
       77.61684684366558,
       12.98718245012476
      ],
      [
       77.61662590102597,
       12.987111049339912
      ]
     ]
    ]
   },
   "properties": {
    "id": "P06",
    "sheet": "plan_25k",
    "printed_name": "Hals\u016br Tank",
    "style": "solid",
    "centroid_px": [
     3230.9,
     1599.9
    ],
    "area_px": 29372,
    "area_m2_approx": 469960,
    "centroid_lonlat": [
     77.619911,
     12.98293
    ],
    "label_bbox_px": [
     3140,
     1478,
     3232,
     1497
    ],
    "mod_match": {
     "name": "Ulsoor Kere",
     "layer": "existing",
     "overlap": 0.95,
     "last_mapped": null,
     "current_use": null,
     "status": "Developed Lake"
    }
   }
  },
  {
   "type": "Feature",
   "geometry": {
    "type": "Polygon",
    "coordinates": [
     [
      [
       77.63862360688748,
       12.988237833686073
      ],
      [
       77.63832870938121,
       12.98827466784284
      ],
      [
       77.63799763068012,
       12.988023528262039
      ],
      [
       77.63777652041134,
       12.988024146678955
      ],
      [
       77.63748086857385,
       12.988385067243653
      ],
      [
       77.63733337791342,
       12.988421489122477
      ],
      [
       77.63733312646968,
       12.988529517925121
      ],
      [
       77.63692775764359,
       12.988530651689464
      ],
      [
       77.63692800908733,
       12.988422622886821
      ],
      [
       77.63667046618001,
       12.988243296368813
      ],
      [
       77.63656049774768,
       12.987991538371096
      ],
      [
       77.63623210111317,
       12.986588091562089
      ],
      [
       77.63593871226934,
       12.98597675290299
      ],
      [
       77.63535067736298,
       12.98529421959801
      ],
      [
       77.63450434521806,
       12.984756446182958
      ],
      [
       77.6339896784763,
       12.984217745142535
      ],
      [
       77.63387912334191,
       12.984218054350992
      ],
      [
       77.63388105107727,
       12.983389833530717
      ],
      [
       77.63483919557527,
       12.98338715372409
      ],
      [
       77.6349124799253,
       12.983566995589527
      ],
      [
       77.63620094879317,
       12.984139541771633
      ],
      [
       77.6364589107734,
       12.984138820285233
      ],
      [
       77.63760240341826,
       12.983667500319719
      ],
      [
       77.63778708104847,
       12.983486936967884
      ],
      [
       77.63778733249221,
       12.98337890816524
      ],
      [
       77.63830325645267,
       12.983377465192442
      ],
      [
       77.63826389030379,
       12.98445785628837
      ],
      [
       77.63859446611741,
       12.98492505347446
      ],
      [
       77.63870393166225,
       12.985392869077462
      ],
      [
       77.63885125469352,
       12.985428466400402
      ],
      [
       77.6388453876729,
       12.987949138462106
      ],
      [
       77.63869789701248,
       12.98798556034093
      ],
      [
       77.63862360688748,
       12.988237833686073
      ]
     ]
    ]
   },
   "properties": {
    "id": "P07",
    "sheet": "plan_25k",
    "printed_name": null,
    "style": "hatched",
    "centroid_px": [
     3693.3,
     1522.4
    ],
    "area_px": 10774,
    "area_m2_approx": 172392,
    "centroid_lonlat": [
     77.636946,
     12.985673
    ],
    "label_bbox_px": null,
    "mod_match": {
     "name": "Kadiranpalaya Kere",
     "layer": "existing",
     "overlap": 1.0,
     "last_mapped": null,
     "current_use": null,
     "status": null
    }
   }
  },
  {
   "type": "Feature",
   "geometry": {
    "type": "Polygon",
    "coordinates": [
     [
      [
       77.59553817298269,
       12.990842984375611
      ],
      [
       77.5955397654597,
       12.990158801958863
      ],
      [
       77.59587143086286,
       12.990157874333491
      ],
      [
       77.59712723874829,
       12.988930043541009
      ],
      [
       77.59723779388267,
       12.988929734332551
      ],
      [
       77.59764400085456,
       12.988568504559394
      ],
      [
       77.59775505887642,
       12.988352137745649
      ],
      [
       77.5988237585088,
       12.988349148730563
      ],
      [
       77.5988204059256,
       12.989789532765824
      ],
      [
       77.59793638392341,
       12.989611958429071
      ],
      [
       77.59753101509733,
       12.989613092193416
      ],
      [
       77.59675536905046,
       12.990371458271126
      ],
      [
       77.59664414339942,
       12.990659844286634
      ],
      [
       77.59638567853172,
       12.990876623378321
      ],
      [
       77.59638542708798,
       12.990984652180966
      ],
      [
       77.59568524457019,
       12.990986610501194
      ],
      [
       77.59568549601393,
       12.990878581698551
      ],
      [
       77.59553817298269,
       12.990842984375611
      ]
     ]
    ]
   },
   "properties": {
    "id": "P08",
    "sheet": "plan_25k",
    "printed_name": null,
    "style": "mixed",
    "centroid_px": [
     2617.7,
     1417.2
    ],
    "area_px": 2804,
    "area_m2_approx": 44872,
    "centroid_lonlat": [
     77.5973,
     12.989569
    ],
    "label_bbox_px": null,
    "mod_match": {
     "name": "Miller's Tank",
     "layer": "lost",
     "overlap": 0.87,
     "last_mapped": "1897",
     "current_use": "Residential and Commercial Layouts",
     "status": null
    }
   }
  },
  {
   "type": "Feature",
   "geometry": {
    "type": "Polygon",
    "coordinates": [
     [
      [
       77.56618079598442,
       12.96931947329625
      ],
      [
       77.56581227886981,
       12.969320503991108
      ],
      [
       77.56577525952918,
       12.969392626262355
      ],
      [
       77.5654066586,
       12.969429666558094
      ],
      [
       77.56529576820728,
       12.969574014170076
      ],
      [
       77.56496410280411,
       12.969574941795447
      ],
      [
       77.56488939360624,
       12.970007263144996
      ],
      [
       77.56459457991454,
       12.970008087700881
      ],
      [
       77.5645580634614,
       12.969864152366842
      ],
      [
       77.56433695319264,
       12.969864770783756
      ],
      [
       77.56429976622285,
       12.970008912256768
      ],
      [
       77.56411550766555,
       12.970009427604195
      ],
      [
       77.56411575910928,
       12.96990139880155
      ],
      [
       77.56426341739886,
       12.969792957720964
      ],
      [
       77.56426400410093,
       12.969540890514793
      ],
      [
       77.563382328907,
       12.968355047353358
      ],
      [
       77.56261003544333,
       12.967673029395808
      ],
      [
       77.56216806634954,
       12.967566237426992
      ],
      [
       77.56217569347633,
       12.964289363746776
      ],
      [
       77.56228624861072,
       12.964289054538318
      ],
      [
       77.56243407452948,
       12.964108594255968
      ],
      [
       77.56265518479826,
       12.964107975839054
      ],
      [
       77.56276431508478,
       12.964719829845583
      ],
      [
       77.56313266457022,
       12.964790818352489
      ],
      [
       77.56309774059412,
       12.963962700601702
      ],
      [
       77.5632082957285,
       12.963962391393244
      ],
      [
       77.56324430929416,
       12.964322384332572
      ],
      [
       77.56353753050882,
       12.965005742193437
      ],
      [
       77.56353694380675,
       12.965257809399606
      ],
      [
       77.56368342869223,
       12.965653502731362
      ],
      [
       77.56401475883705,
       12.965796613509516
      ],
      [
       77.56438235399129,
       12.966191688424356
      ],
      [
       77.56464031597153,
       12.966190966937956
      ],
      [
       77.56478805807569,
       12.966046516256489
      ],
      [
       77.56486259964441,
       12.9656862141087
      ],
      [
       77.5651587543694,
       12.965109235938712
      ],
      [
       77.56552752292775,
       12.965000176441212
      ],
      [
       77.56607904138097,
       12.96553877441215
      ],
      [
       77.56633700336121,
       12.965538052925751
      ],
      [
       77.56674203692897,
       12.965680957564933
      ],
      [
       77.56677763142172,
       12.966220998508671
      ],
      [
       77.56696113564782,
       12.966544569569175
      ],
      [
       77.5676244664541,
       12.966542714318434
      ],
      [
       77.56762279016252,
       12.967262906336064
      ],
      [
       77.56684873659265,
       12.967337089997026
      ],
      [
       77.56622242512697,
       12.96726682297652
      ],
      [
       77.5660746830228,
       12.967411273657989
      ],
      [
       77.56548480419568,
       12.967520951572402
      ],
      [
       77.56485757076959,
       12.967846790161591
      ],
      [
       77.56470890670504,
       12.968387346452758
      ],
      [
       77.56448788025087,
       12.968351955268789
      ],
      [
       77.56441451208624,
       12.968208123004235
      ],
      [
       77.56419340181748,
       12.968208741421149
      ],
      [
       77.56404565971332,
       12.968353192102617
      ],
      [
       77.56411852499043,
       12.96871308197246
      ],
      [
       77.56426559657795,
       12.968856708098045
      ],
      [
       77.56452347474361,
       12.968891996212527
      ],
      [
       77.56459625620616,
       12.969287895683252
      ],
      [
       77.56470647608221,
       12.969431624878322
      ],
      [
       77.56496452187703,
       12.969394893791039
      ],
      [
       77.56496502476452,
       12.96917883618575
      ],
      [
       77.56507591515721,
       12.969034488573769
      ],
      [
       77.56537056121975,
       12.969105683219645
      ],
      [
       77.56614453097502,
       12.969067509159565
      ],
      [
       77.56618079598442,
       12.96931947329625
      ]
     ]
    ]
   },
   "properties": {
    "id": "P09",
    "sheet": "plan_25k",
    "printed_name": "Agrah\u0101r Tank",
    "style": "mixed",
    "centroid_px": [
     1722.6,
     2052.2
    ],
    "area_px": 10594,
    "area_m2_approx": 169512,
    "centroid_lonlat": [
     77.564366,
     12.966795
    ],
    "label_bbox_px": [
     1570,
     2040,
     1674,
     2059
    ],
    "mod_match": {
     "name": "Agrahar Hosa Kere",
     "layer": "lost",
     "overlap": 0.91,
     "last_mapped": "1969",
     "current_use": "Binny Mill Police Quarters and Grounds",
     "status": null
    }
   }
  },
  {
   "type": "Feature",
   "geometry": {
    "type": "Polygon",
    "coordinates": [
     [
      [
       77.54808853339206,
       12.968541859593426
      ],
      [
       77.54790402339101,
       12.968650403743498
      ],
      [
       77.54760920969932,
       12.968651228299384
      ],
      [
       77.54599016501784,
       12.967611484931188
      ],
      [
       77.54573295736883,
       12.967288120009654
      ],
      [
       77.54569753050524,
       12.966676059864154
      ],
      [
       77.54617618368133,
       12.966854767965248
      ],
      [
       77.54647099737302,
       12.966853943409363
      ],
      [
       77.54720886974805,
       12.966491786010835
      ],
      [
       77.54772328504608,
       12.967138515853904
      ],
      [
       77.54812680995138,
       12.967929593308956
      ],
      [
       77.5481626558879,
       12.968361605450045
      ],
      [
       77.54808853339206,
       12.968541859593426
      ]
     ]
    ]
   },
   "properties": {
    "id": "P10",
    "sheet": "plan_25k",
    "printed_name": null,
    "style": "solid",
    "centroid_px": [
     1252.4,
     2032.7
    ],
    "area_px": 2314,
    "area_m2_approx": 37024,
    "centroid_lonlat": [
     77.547037,
     12.967548
    ],
    "label_bbox_px": null,
    "mod_match": {
     "name": "Vijayanagar Marsh Land",
     "layer": "lost",
     "overlap": 0.92,
     "last_mapped": "1969",
     "current_use": null,
     "status": null
    }
   }
  },
  {
   "type": "Feature",
   "geometry": {
    "type": "Polygon",
    "coordinates": [
     [
      [
       77.56330437764437,
       12.954347621818911
      ],
      [
       77.56157234720567,
       12.954352466084737
      ],
      [
       77.56131404996712,
       12.954497225974661
      ],
      [
       77.56123925695465,
       12.954965556925094
      ],
      [
       77.5610918501088,
       12.954965969203036
      ],
      [
       77.56102049349414,
       12.953957906517324
      ],
      [
       77.56120500349517,
       12.953849362367253
      ],
      [
       77.56120609308473,
       12.953381237555792
      ],
      [
       77.56087451149615,
       12.953346155580283
      ],
      [
       77.56057911110238,
       12.953599047342337
      ],
      [
       77.56043111755449,
       12.95385152682645
      ],
      [
       77.56028228586078,
       12.954464102319378
      ],
      [
       77.56009760823056,
       12.954644665671214
      ],
      [
       77.56009735678683,
       12.954752694473859
      ],
      [
       77.55991284678578,
       12.95486123862393
      ],
      [
       77.55991259534203,
       12.954969267426575
      ],
      [
       77.55947037480449,
       12.954970504260404
      ],
      [
       77.55928703820757,
       12.954574913998135
      ],
      [
       77.55925119227106,
       12.954142901857043
      ],
      [
       77.55903150685018,
       12.95353135705897
      ],
      [
       77.55877421538658,
       12.953244001738318
      ],
      [
       77.55822211023128,
       12.952957470973551
      ],
      [
       77.55811197416982,
       12.952777732177601
      ],
      [
       77.55803977940933,
       12.952129765500704
      ],
      [
       77.55789245637807,
       12.952094168177767
      ],
      [
       77.55789865865701,
       12.949429457712537
      ],
      [
       77.55804614931745,
       12.94939303583371
      ],
      [
       77.55838133493296,
       12.947879704971317
      ],
      [
       77.55867623243924,
       12.947842870814549
      ],
      [
       77.5588603233674,
       12.947914374668885
      ],
      [
       77.55904315707683,
       12.948526022536441
      ],
      [
       77.55900370711338,
       12.949642423233255
      ],
      [
       77.55907682383423,
       12.949894284300454
      ],
      [
       77.55937105082387,
       12.95014552695074
      ],
      [
       77.56018178847603,
       12.950143259422054
      ],
      [
       77.56051370532293,
       12.950034302994041
      ],
      [
       77.56092007992397,
       12.94960105401912
      ],
      [
       77.56154697809171,
       12.949419253833456
      ],
      [
       77.56224674153658,
       12.949597343517638
      ],
      [
       77.56261416906166,
       12.950064437634241
      ],
      [
       77.56290898275336,
       12.950063613078354
      ],
      [
       77.56316602277322,
       12.95045899720165
      ],
      [
       77.56331334580449,
       12.95049459452459
      ],
      [
       77.56331192095662,
       12.951106757739575
      ],
      [
       77.56286970041907,
       12.951107994573405
      ],
      [
       77.56250084804614,
       12.951253063671787
      ],
      [
       77.5622791510753,
       12.95150574929487
      ],
      [
       77.56235084294829,
       12.952369773577056
      ],
      [
       77.56253451480353,
       12.952621325435798
      ],
      [
       77.56312313641196,
       12.953051791534607
      ],
      [
       77.56308594944218,
       12.953195933007617
      ],
      [
       77.56286467154425,
       12.953268570626294
      ],
      [
       77.56142745479724,
       12.953272590336233
      ],
      [
       77.56135358374516,
       12.953344815676969
      ],
      [
       77.56138901060876,
       12.953956875822467
      ],
      [
       77.56208919312652,
       12.95395491750224
      ],
      [
       77.56223676760152,
       12.953882486022536
      ],
      [
       77.56330529960475,
       12.953951516209214
      ],
      [
       77.56330437764437,
       12.954347621818911
      ]
     ]
    ]
   },
   "properties": {
    "id": "P11",
    "sheet": "plan_25k",
    "printed_name": "Kemp\u0101mbudhi Tank",
    "style": "mixed",
    "centroid_px": [
     1611.7,
     2472.5
    ],
    "area_px": 16041,
    "area_m2_approx": 256656,
    "centroid_lonlat": [
     77.560314,
     12.951674
    ],
    "label_bbox_px": [
     1631,
     2393,
     1779,
     2412
    ],
    "mod_match": {
     "name": "Kempambudhi Kere",
     "layer": "existing",
     "overlap": 0.98,
     "last_mapped": null,
     "current_use": null,
     "status": "Developed Lake"
    }
   }
  },
  {
   "type": "Feature",
   "geometry": {
    "type": "Polygon",
    "coordinates": [
     [
      [
       77.54820137822402,
       12.951725169842792
      ],
      [
       77.54820204874066,
       12.95143709303574
      ],
      [
       77.54857090111359,
       12.951292023937357
      ],
      [
       77.5491245987459,
       12.950894372285378
      ],
      [
       77.54942134017294,
       12.950065326909218
      ],
      [
       77.54978985728756,
       12.950064296214363
      ],
      [
       77.54978960584383,
       12.950172325017007
      ],
      [
       77.55012051691574,
       12.95049548379957
      ],
      [
       77.55026675035748,
       12.950999205933968
      ],
      [
       77.5506714486669,
       12.951286148976678
      ],
      [
       77.5508545338201,
       12.95178976804159
      ],
      [
       77.55107564408887,
       12.951789149624675
      ],
      [
       77.55148185106074,
       12.951427919851518
      ],
      [
       77.55199785883579,
       12.95139046727784
      ],
      [
       77.55221871766082,
       12.951497877663568
      ],
      [
       77.55221813095876,
       12.95174994486974
      ],
      [
       77.55125755583792,
       12.95279690310193
      ],
      [
       77.55066784463995,
       12.952834561814583
      ],
      [
       77.55000476527738,
       12.95272838826268
      ],
      [
       77.5494885060586,
       12.952873869639003
      ],
      [
       77.54945131908882,
       12.953018011112015
      ],
      [
       77.54923020882005,
       12.953018629528929
      ],
      [
       77.5491936923669,
       12.952874694194888
      ],
      [
       77.5488989624898,
       12.952839509149893
      ],
      [
       77.54860481931475,
       12.952552256898725
      ],
      [
       77.54853195403763,
       12.952192367028882
      ],
      [
       77.54864259298658,
       12.952156048219544
      ],
      [
       77.54864309587407,
       12.951939990614255
      ],
      [
       77.54820137822402,
       12.951725169842792
      ]
     ]
    ]
   },
   "properties": {
    "id": "P12",
    "sheet": "plan_25k",
    "printed_name": null,
    "style": "mixed",
    "centroid_px": [
     1332.0,
     2470.1
    ],
    "area_px": 4568,
    "area_m2_approx": 73080,
    "centroid_lonlat": [
     77.550008,
     12.95179
    ],
    "label_bbox_px": null,
    "mod_match": {
     "name": "Timberyard Kere",
     "layer": "lost",
     "overlap": 0.81,
     "last_mapped": "1969",
     "current_use": "Timberyard layout",
     "status": null
    }
   }
  },
  {
   "type": "Feature",
   "geometry": {
    "type": "Polygon",
    "coordinates": [
     [
      [
       77.61025343134273,
       12.97006043261258
      ],
      [
       77.61029162408747,
       12.969484175928992
      ],
      [
       77.61036583039788,
       12.96926791218473
      ],
      [
       77.61055042421351,
       12.969123358433777
      ],
      [
       77.61058794644161,
       12.968835178557237
      ],
      [
       77.61088426879576,
       12.968186181185485
      ],
      [
       77.61088502312698,
       12.967862094777553
      ],
      [
       77.61110713917071,
       12.96742936115006
      ],
      [
       77.6111076420582,
       12.96721330354477
      ],
      [
       77.610813331254,
       12.966998070495368
      ],
      [
       77.61147666206028,
       12.966996215244626
      ],
      [
       77.61154977878115,
       12.967248076311826
      ],
      [
       77.61232223987399,
       12.967858075067612
      ],
      [
       77.61350115938245,
       12.967998815247599
      ],
      [
       77.61349998597831,
       12.968502949659939
      ],
      [
       77.61257777123139,
       12.968901632006776
      ],
      [
       77.61191293176263,
       12.969551660073385
      ],
      [
       77.61099105227402,
       12.969806304016696
      ],
      [
       77.61076952293234,
       12.969986970438018
      ],
      [
       77.61084247202405,
       12.97031085070698
      ],
      [
       77.61065821346673,
       12.970311366054409
      ],
      [
       77.61062186464277,
       12.970095411518605
      ],
      [
       77.61025343134273,
       12.97006043261258
      ]
     ]
    ]
   },
   "properties": {
    "id": "P13",
    "sheet": "plan_25k",
    "printed_name": "Sh\u016ble Tank",
    "style": "hatched",
    "centroid_px": [
     3006.1,
     1998.4
    ],
    "area_px": 3724,
    "area_m2_approx": 59592,
    "centroid_lonlat": [
     77.611659,
     12.968602
    ],
    "label_bbox_px": [
     2975,
     1938,
     3060,
     1957
    ],
    "mod_match": {
     "name": "Shoolay Tank",
     "layer": "lost",
     "overlap": 0.96,
     "last_mapped": "1870",
     "current_use": "Ashok Nagar Football Stadium",
     "status": null
    }
   }
  },
  {
   "type": "Feature",
   "geometry": {
    "type": "Polygon",
    "coordinates": [
     [
      [
       77.59866324618163,
       12.962314825710152
      ],
      [
       77.59866617969195,
       12.9610544896793
      ],
      [
       77.59888678707323,
       12.961269928867674
      ],
      [
       77.59910789734201,
       12.961269310450762
      ],
      [
       77.60003053116185,
       12.960690580099516
      ],
      [
       77.60003111786389,
       12.960438512893345
      ],
      [
       77.60017852470975,
       12.960438100615404
      ],
      [
       77.6002150411629,
       12.960582035949445
      ],
      [
       77.6005098548546,
       12.960581211393558
      ],
      [
       77.60054704182437,
       12.960437069920546
      ],
      [
       77.60117352091922,
       12.960435317739291
      ],
      [
       77.60117159318386,
       12.961263538559566
      ],
      [
       77.60102410252344,
       12.961299960438389
      ],
      [
       77.60102309674846,
       12.961732075648968
      ],
      [
       77.60094914188181,
       12.961840310590583
      ],
      [
       77.60094847136516,
       12.962128387397636
      ],
      [
       77.60116941400477,
       12.962199788182485
      ],
      [
       77.60116857585898,
       12.962559884191299
      ],
      [
       77.60032107030993,
       12.962526245188588
      ],
      [
       77.59995213412242,
       12.962707323887852
      ],
      [
       77.59925203541923,
       12.962673272607196
      ],
      [
       77.59888427263583,
       12.96235021689412
      ],
      [
       77.59866324618163,
       12.962314825710152
      ]
     ]
    ]
   },
   "properties": {
    "id": "P14",
    "sheet": "plan_25k",
    "printed_name": "Mud Tank",
    "style": "hatched",
    "centroid_px": [
     2689.6,
     2192.3
    ],
    "area_px": 3240,
    "area_m2_approx": 51840,
    "centroid_lonlat": [
     77.600012,
     12.961653
    ],
    "label_bbox_px": [
     2715,
     2158,
     2794,
     2177
    ],
    "mod_match": {
     "name": "Akkitimmanahalli tank",
     "layer": "lost",
     "overlap": 0.84,
     "last_mapped": "1870",
     "current_use": "Karnataka State Hockey Stadium",
     "status": null
    }
   }
  },
  {
   "type": "Feature",
   "geometry": {
    "type": "Polygon",
    "coordinates": [
     [
      [
       77.6146344533524,
       12.956076545271252
      ],
      [
       77.6146364649023,
       12.955212314850096
      ],
      [
       77.61526294399717,
       12.95521056266884
      ],
      [
       77.61533606071802,
       12.955462423736037
      ],
      [
       77.61588699246919,
       12.956253088913147
      ],
      [
       77.61688123434742,
       12.956574392444969
      ],
      [
       77.61724975146204,
       12.956573361750111
      ],
      [
       77.61780386816726,
       12.955995662093724
      ],
      [
       77.61798829435374,
       12.955923127544532
      ],
      [
       77.6180268223568,
       12.955202832457417
      ],
      [
       77.61821108091411,
       12.955202317109988
      ],
      [
       77.61820689018508,
       12.957002797154063
      ],
      [
       77.6180963350507,
       12.957003106362519
      ],
      [
       77.61780059939862,
       12.957400036528103
      ],
      [
       77.61761458073514,
       12.958156753494041
      ],
      [
       77.61632477083397,
       12.958160360926039
      ],
      [
       77.61628825438082,
       12.958016425592
      ],
      [
       77.61617769924644,
       12.958016734800456
      ],
      [
       77.61588347225681,
       12.95776549215017
      ],
      [
       77.61573681974218,
       12.957441818020179
      ],
      [
       77.61570088999112,
       12.957045815479967
      ],
      [
       77.61507516522748,
       12.956723481253292
      ],
      [
       77.61481795757847,
       12.956400116331757
      ],
      [
       77.61478177638365,
       12.956112142594192
      ],
      [
       77.6146344533524,
       12.956076545271252
      ]
     ]
    ]
   },
   "properties": {
    "id": "P15",
    "sheet": "plan_25k",
    "printed_name": null,
    "style": "hatched",
    "centroid_px": [
     3137.2,
     2325.4
    ],
    "area_px": 4108,
    "area_m2_approx": 65720,
    "centroid_lonlat": [
     77.616521,
     12.956815
    ],
    "label_bbox_px": null,
    "mod_match": {
     "name": "Sonnenahalli lake",
     "layer": "lost",
     "overlap": 0.37,
     "last_mapped": "1870",
     "current_use": "Austin Town RES Colony",
     "status": null
    }
   }
  },
  {
   "type": "Feature",
   "geometry": {
    "type": "Polygon",
    "coordinates": [
     [
      [
       77.61969126783694,
       12.952569493466214
      ],
      [
       77.61928564756711,
       12.9526786560332
      ],
      [
       77.61924846059733,
       12.952822797506212
      ],
      [
       77.61847457465664,
       12.952824961965408
      ],
      [
       77.61840154175037,
       12.95253709129733
      ],
      [
       77.61799642436802,
       12.952430196259026
      ],
      [
       77.61766677051479,
       12.951566893463243
      ],
      [
       77.61740914379288,
       12.951423576546116
      ],
      [
       77.61689313601784,
       12.951461029119795
      ],
      [
       77.61516026743334,
       12.951825969394436
      ],
      [
       77.61493932479371,
       12.951754568609587
      ],
      [
       77.6139091531644,
       12.951037262537554
      ],
      [
       77.61335763471119,
       12.950498664566615
      ],
      [
       77.61155332569743,
       12.949891551756428
      ],
      [
       77.61096503934732,
       12.949317047254095
      ],
      [
       77.60949063563054,
       12.949465208437044
      ],
      [
       77.6094942396575,
       12.94791679559914
      ],
      [
       77.61056344217737,
       12.947697748978769
      ],
      [
       77.61071135191068,
       12.947481279095538
      ],
      [
       77.61200158088475,
       12.94729762365913
      ],
      [
       77.61211297416494,
       12.946937218441859
      ],
      [
       77.61237143903266,
       12.94672043935017
      ],
      [
       77.61329331852126,
       12.946465795406858
      ],
      [
       77.6139207195765,
       12.946067937615908
      ],
      [
       77.6144739981359,
       12.945850333968334
      ],
      [
       77.6147696499734,
       12.945489413403633
      ],
      [
       77.61517543787238,
       12.945308231634884
      ],
      [
       77.61631968484846,
       12.944512825261436
      ],
      [
       77.61643074287034,
       12.94429645844769
      ],
      [
       77.61687296340786,
       12.944295221613862
      ],
      [
       77.61683493829229,
       12.94479945909569
      ],
      [
       77.61646457725689,
       12.94559270100994
      ],
      [
       77.61650025556423,
       12.946096732352792
      ],
      [
       77.61635251346006,
       12.946241183034262
      ],
      [
       77.6167166722165,
       12.948112651585244
      ],
      [
       77.61741509462809,
       12.948866894883528
      ],
      [
       77.61796602637925,
       12.949657560060636
      ],
      [
       77.61822382073032,
       12.949728857776
      ],
      [
       77.61825983429598,
       12.95008885071533
      ],
      [
       77.61892106973778,
       12.950987235486625
      ],
      [
       77.61903087054094,
       12.951311012686103
      ],
      [
       77.61917810975763,
       12.951382619609923
      ],
      [
       77.61921454239618,
       12.951562564544844
      ],
      [
       77.61969361464519,
       12.951561224641532
      ],
      [
       77.61969294412854,
       12.951849301448584
      ],
      [
       77.61954545346812,
       12.951885723327408
      ],
      [
       77.61954495058063,
       12.952101780932697
      ],
      [
       77.6196922736119,
       12.952137378255635
      ],
      [
       77.61969126783694,
       12.952569493466214
      ]
     ]
    ]
   },
   "properties": {
    "id": "P17",
    "sheet": "plan_25k",
    "printed_name": null,
    "style": "solid",
    "centroid_px": [
     3088.9,
     2545.5
    ],
    "area_px": 27408,
    "area_m2_approx": 438520,
    "centroid_lonlat": [
     77.614757,
     12.948894
    ],
    "label_bbox_px": null,
    "mod_match": {
     "name": "Koramangala Kere",
     "layer": "lost",
     "overlap": 0.9,
     "last_mapped": "1870",
     "current_use": "National Dairy Research Institute",
     "status": null
    }
   }
  },
  {
   "type": "Feature",
   "geometry": {
    "type": "Polygon",
    "coordinates": [
     [
      [
       77.64795918589077,
       12.967182253260892
      ],
      [
       77.64784863075637,
       12.96718256246935
      ],
      [
       77.64766370168242,
       12.967471154623832
      ],
      [
       77.64733186865011,
       12.967544101450963
      ],
      [
       77.64611592980103,
       12.967475483542227
      ],
      [
       77.64552688911971,
       12.967225065447828
      ],
      [
       77.64490133198524,
       12.966830712019387
      ],
      [
       77.6442747690758,
       12.966868473801524
      ],
      [
       77.64383313524034,
       12.966617643429183
      ],
      [
       77.64313303653714,
       12.966583592148528
      ],
      [
       77.64261769927873,
       12.966332967915156
      ],
      [
       77.64261937557035,
       12.965612775897524
      ],
      [
       77.64272993070475,
       12.965612466689068
      ],
      [
       77.64295154386099,
       12.965395790666866
      ],
      [
       77.64295246582137,
       12.96499968505717
      ],
      [
       77.64324711188391,
       12.965070879703047
      ],
      [
       77.64324660899642,
       12.965286937308335
      ],
      [
       77.64298806031414,
       12.965539726000905
      ],
      [
       77.64302424150895,
       12.965827699738472
      ],
      [
       77.64405608942987,
       12.965824813792874
      ],
      [
       77.64475677483513,
       12.965606797867359
      ],
      [
       77.64542102760183,
       12.965208837006921
      ],
      [
       77.64645522233101,
       12.964197682236641
      ],
      [
       77.64649249311536,
       12.964017531162746
      ],
      [
       77.64689786194144,
       12.964016397398405
      ],
      [
       77.64708027657798,
       12.964808093270369
      ],
      [
       77.64774134439064,
       12.965778497243429
      ],
      [
       77.64777777702919,
       12.965958442178351
      ],
      [
       77.64796186795733,
       12.966029946032686
      ],
      [
       77.64795918589077,
       12.967182253260892
      ]
     ]
    ]
   },
   "properties": {
    "id": "P18",
    "sheet": "plan_25k",
    "printed_name": null,
    "style": "mixed",
    "centroid_px": [
     3933.5,
     2065.4
    ],
    "area_px": 7322,
    "area_m2_approx": 117152,
    "centroid_lonlat": [
     77.645843,
     12.966094
    ],
    "label_bbox_px": null,
    "mod_match": {
     "name": "Kodihalli Tank",
     "layer": "lost",
     "overlap": 0.72,
     "last_mapped": "1969",
     "current_use": null,
     "status": null
    }
   }
  },
  {
   "type": "Feature",
   "geometry": {
    "type": "Polygon",
    "coordinates": [
     [
      [
       77.64385366981251,
       12.957795291213214
      ],
      [
       77.64385400507085,
       12.957651252809688
      ],
      [
       77.6441489863917,
       12.957578409052038
      ],
      [
       77.64414965690835,
       12.957290332244987
      ],
      [
       77.64363549305406,
       12.956535573599274
      ],
      [
       77.64359998237589,
       12.955959523054657
      ],
      [
       77.64371095658318,
       12.955779165841793
      ],
      [
       77.64371162709982,
       12.95549108903474
      ],
      [
       77.64338071602788,
       12.955167930252177
      ],
      [
       77.6432701608935,
       12.955168239460633
      ],
      [
       77.64327208862885,
       12.954340018640359
      ],
      [
       77.64341957928927,
       12.954303596761536
      ],
      [
       77.64345760440486,
       12.95379935927971
      ],
      [
       77.64371707504753,
       12.953150464977442
      ],
      [
       77.64416021754546,
       12.952753122533919
      ],
      [
       77.64412479068186,
       12.952141062388417
      ],
      [
       77.64497891758276,
       12.949329942921493
      ],
      [
       77.64527482086399,
       12.948860993554145
      ],
      [
       77.64534919480356,
       12.948572710608124
      ],
      [
       77.64549693690773,
       12.948428259926654
      ],
      [
       77.64549727216605,
       12.948284221523128
      ],
      [
       77.64612534373794,
       12.947598286925123
      ],
      [
       77.64623589887232,
       12.947597977716669
      ],
      [
       77.64671606071086,
       12.947128513001894
      ],
      [
       77.64708474545463,
       12.947055463105276
      ],
      [
       77.64763819164321,
       12.946765840255939
      ],
      [
       77.64889324519743,
       12.945862095871389
      ],
      [
       77.64900430321929,
       12.945645729057642
      ],
      [
       77.64940967204537,
       12.9456445952933
      ],
      [
       77.64918520919338,
       12.947085597745476
      ],
      [
       77.64929366896325,
       12.947985528559055
      ],
      [
       77.64955012228104,
       12.948632979888524
      ],
      [
       77.65010097021762,
       12.949459654666514
      ],
      [
       77.65113047133029,
       12.950465037545596
      ],
      [
       77.65124102646467,
       12.95046472833714
      ],
      [
       77.6512375062523,
       12.951977131574163
      ],
      [
       77.65020590977511,
       12.951871988717118
      ],
      [
       77.6492836950282,
       12.952270671063955
      ],
      [
       77.64854506832194,
       12.952956914870416
      ],
      [
       77.64813852609171,
       12.9534621830471
      ],
      [
       77.64747217796052,
       12.954760383929576
      ],
      [
       77.64714000966988,
       12.954977369160234
      ],
      [
       77.64666060216256,
       12.955122747467074
      ],
      [
       77.64640121533446,
       12.955735632168459
      ],
      [
       77.64617943454904,
       12.956024327392425
      ],
      [
       77.64525629784173,
       12.956819115348958
      ],
      [
       77.64510763377719,
       12.957359671640123
      ],
      [
       77.64484908509489,
       12.957612460332694
      ],
      [
       77.64470159443447,
       12.957648882211519
      ],
      [
       77.64466440746469,
       12.957793023684529
      ],
      [
       77.64385366981251,
       12.957795291213214
      ]
     ]
    ]
   },
   "properties": {
    "id": "P19",
    "sheet": "plan_25k",
    "printed_name": null,
    "style": "mixed",
    "centroid_px": [
     3960.7,
     2467.8
    ],
    "area_px": 34949,
    "area_m2_approx": 559184,
    "centroid_lonlat": [
     77.646877,
     12.9516
    ],
    "label_bbox_px": null,
    "mod_match": {
     "name": "Chelgatta Tank",
     "layer": "lost",
     "overlap": 0.9,
     "last_mapped": "1969",
     "current_use": "Karnataka Golf Association",
     "status": null
    }
   }
  }
 ]
}